{
"type": "FeatureCollection",
"crs": { "type": "name", "properties": { "name": "urn:ogc:def:crs:OGC:1.3:CRS84" } },
"features": [
{ "type": "Feature", "properties": { "Postcode": "IV2 3AA" }, "geometry": { "type": "Point", "coordinates": [ -4.226448309780034, 57.476875774259938 ] } },
{ "type": "Feature", "properties": { "Postcode": "IV2 3AB" }, "geometry": { "type": "Point", "coordinates": [ -4.222535578711772, 57.477816398467105 ] } },
{ "type": "Feature", "properties": { "Postcode": "IV2 3AD" }, "geometry": { "type": "Point", "coordinates": [ -4.222594049395286, 57.477680586858661 ] } },
{ "type": "Feature", "properties": { "Postcode": "IV2 3AE" }, "geometry": { "type": "Point", "coordinates": [ -4.220703765919585, 57.477866650088131 ] } },
{ "type": "Feature", "properties": { "Postcode": "IV2 3AG" }, "geometry": { "type": "Point", "coordinates": [ -4.221214861710108, 57.477767792243249 ] } },
{ "type": "Feature", "properties": { "Postcode": "IV2 3AH" }, "geometry": { "type": "Point", "coordinates": [ -4.219876173413634, 57.477422971177113 ] } },
{ "type": "Feature", "properties": { "Postcode": "IV2 3AJ" }, "geometry": { "type": "Point", "coordinates": [ -4.221182474388695, 57.476959678491951 ] } },
{ "type": "Feature", "properties": { "Postcode": "IV2 3AL" }, "geometry": { "type": "Point", "coordinates": [ -4.221610318983849, 57.476314177244838 ] } },
{ "type": "Feature", "properties": { "Postcode": "IV2 3AN" }, "geometry": { "type": "Point", "coordinates": [ -4.22176814572852, 57.476715738115828 ] } },
{ "type": "Feature", "properties": { "Postcode": "IV2 3AP" }, "geometry": { "type": "Point", "coordinates": [ -4.220794967435529, 57.476346514081605 ] } },
{ "type": "Feature", "properties": { "Postcode": "IV2 3AQ" }, "geometry": { "type": "Point", "coordinates": [ -4.22149026225024, 57.477358597398023 ] } },
{ "type": "Feature", "properties": { "Postcode": "IV2 3AR" }, "geometry": { "type": "Point", "coordinates": [ -4.220724048002195, 57.47572777200326 ] } },
{ "type": "Feature", "properties": { "Postcode": "IV2 3AS" }, "geometry": { "type": "Point", "coordinates": [ -4.219369868829253, 57.476775952917457 ] } },
{ "type": "Feature", "properties": { "Postcode": "IV2 3AT" }, "geometry": { "type": "Point", "coordinates": [ -4.219157942590513, 57.476582005348924 ] } },
{ "type": "Feature", "properties": { "Postcode": "IV2 3AU" }, "geometry": { "type": "Point", "coordinates": [ -4.217733080058884, 57.475915205546379 ] } },
{ "type": "Feature", "properties": { "Postcode": "IV2 3AW" }, "geometry": { "type": "Point", "coordinates": [ -4.220881462064405, 57.476947010946262 ] } },
{ "type": "Feature", "properties": { "Postcode": "IV2 3AX" }, "geometry": { "type": "Point", "coordinates": [ -4.218920975373603, 57.475975170826068 ] } },
{ "type": "Feature", "properties": { "Postcode": "IV2 3AY" }, "geometry": { "type": "Point", "coordinates": [ -4.221966288107942, 57.475858634315621 ] } },
{ "type": "Feature", "properties": { "Postcode": "IV2 3AZ" }, "geometry": { "type": "Point", "coordinates": [ -4.222328182224831, 57.476049933673771 ] } },
{ "type": "Feature", "properties": { "Postcode": "IV2 3BA" }, "geometry": { "type": "Point", "coordinates": [ -4.221507462994115, 57.475444407489753 ] } },
{ "type": "Feature", "properties": { "Postcode": "IV2 3BB" }, "geometry": { "type": "Point", "coordinates": [ -4.219181688123477, 57.475323634340327 ] } },
{ "type": "Feature", "properties": { "Postcode": "IV2 3BD" }, "geometry": { "type": "Point", "coordinates": [ -4.218811535317683, 57.475545798943614 ] } },
{ "type": "Feature", "properties": { "Postcode": "IV2 3BE" }, "geometry": { "type": "Point", "coordinates": [ -4.218411442616245, 57.475274293530887 ] } },
{ "type": "Feature", "properties": { "Postcode": "IV2 3BF" }, "geometry": { "type": "Point", "coordinates": [ -4.208853117558693, 57.46696894180409 ] } },
{ "type": "Feature", "properties": { "Postcode": "IV2 3BG" }, "geometry": { "type": "Point", "coordinates": [ -4.217788903317016, 57.474359753428963 ] } },
{ "type": "Feature", "properties": { "Postcode": "IV2 3BL" }, "geometry": { "type": "Point", "coordinates": [ -4.189651468858998, 57.473243259069882 ] } },
{ "type": "Feature", "properties": { "Postcode": "IV2 3BN" }, "geometry": { "type": "Point", "coordinates": [ -4.202109912920676, 57.476009372877478 ] } },
{ "type": "Feature", "properties": { "Postcode": "IV2 3BP" }, "geometry": { "type": "Point", "coordinates": [ -4.212603319060839, 57.466939108468729 ] } },
{ "type": "Feature", "properties": { "Postcode": "IV2 3BS" }, "geometry": { "type": "Point", "coordinates": [ -4.211679155598044, 57.467099093673944 ] } },
{ "type": "Feature", "properties": { "Postcode": "IV2 3BT" }, "geometry": { "type": "Point", "coordinates": [ -4.210850920961575, 57.465810745087779 ] } },
{ "type": "Feature", "properties": { "Postcode": "IV2 3BU" }, "geometry": { "type": "Point", "coordinates": [ -4.21012153911878, 57.466434541543855 ] } },
{ "type": "Feature", "properties": { "Postcode": "IV2 3BW" }, "geometry": { "type": "Point", "coordinates": [ -4.186619789366729, 57.47246923486076 ] } },
{ "type": "Feature", "properties": { "Postcode": "IV2 3BX" }, "geometry": { "type": "Point", "coordinates": [ -4.206153022974037, 57.463395130137243 ] } },
{ "type": "Feature", "properties": { "Postcode": "IV2 3BY" }, "geometry": { "type": "Point", "coordinates": [ -4.210233999052113, 57.467744433103341 ] } },
{ "type": "Feature", "properties": { "Postcode": "IV2 3DA" }, "geometry": { "type": "Point", "coordinates": [ -4.205596234979323, 57.464393264204205 ] } },
{ "type": "Feature", "properties": { "Postcode": "IV2 3DB" }, "geometry": { "type": "Point", "coordinates": [ -4.206425757912484, 57.465430032724925 ] } },
{ "type": "Feature", "properties": { "Postcode": "IV2 3DD" }, "geometry": { "type": "Point", "coordinates": [ -4.204888866799737, 57.463722753337642 ] } },
{ "type": "Feature", "properties": { "Postcode": "IV2 3DE" }, "geometry": { "type": "Point", "coordinates": [ -4.202862351986943, 57.464405133290036 ] } },
{ "type": "Feature", "properties": { "Postcode": "IV2 3DF" }, "geometry": { "type": "Point", "coordinates": [ -4.203120296248933, 57.462873114908326 ] } },
{ "type": "Feature", "properties": { "Postcode": "IV2 3DG" }, "geometry": { "type": "Point", "coordinates": [ -4.204995393941666, 57.465491004936588 ] } },
{ "type": "Feature", "properties": { "Postcode": "IV2 3DH" }, "geometry": { "type": "Point", "coordinates": [ -4.203736573655188, 57.462862341018052 ] } },
{ "type": "Feature", "properties": { "Postcode": "IV2 3DJ" }, "geometry": { "type": "Point", "coordinates": [ -4.207212287336895, 57.462711667717706 ] } },
{ "type": "Feature", "properties": { "Postcode": "IV2 3DL" }, "geometry": { "type": "Point", "coordinates": [ -4.194861264638805, 57.460833773683561 ] } },
{ "type": "Feature", "properties": { "Postcode": "IV2 3DN" }, "geometry": { "type": "Point", "coordinates": [ -4.19818941051278, 57.459616661406265 ] } },
{ "type": "Feature", "properties": { "Postcode": "IV2 3DP" }, "geometry": { "type": "Point", "coordinates": [ -4.197138237425458, 57.46099177765894 ] } },
{ "type": "Feature", "properties": { "Postcode": "IV2 3DQ" }, "geometry": { "type": "Point", "coordinates": [ -4.204722074330154, 57.464552323785938 ] } },
{ "type": "Feature", "properties": { "Postcode": "IV2 3DR" }, "geometry": { "type": "Point", "coordinates": [ -4.218801309169087, 57.474827148642795 ] } },
{ "type": "Feature", "properties": { "Postcode": "IV2 3DT" }, "geometry": { "type": "Point", "coordinates": [ -4.192808934237687, 57.461642236111956 ] } },
{ "type": "Feature", "properties": { "Postcode": "IV2 3DU" }, "geometry": { "type": "Point", "coordinates": [ -4.224024093395712, 57.476783784079032 ] } },
{ "type": "Feature", "properties": { "Postcode": "IV2 3DX" }, "geometry": { "type": "Point", "coordinates": [ -4.224253510111682, 57.477264947636897 ] } },
{ "type": "Feature", "properties": { "Postcode": "IV2 3DZ" }, "geometry": { "type": "Point", "coordinates": [ -4.19670031063965, 57.474252775123169 ] } },
{ "type": "Feature", "properties": { "Postcode": "IV2 3EA" }, "geometry": { "type": "Point", "coordinates": [ -4.224617988800903, 57.475578248144608 ] } },
{ "type": "Feature", "properties": { "Postcode": "IV2 3EB" }, "geometry": { "type": "Point", "coordinates": [ -4.226005528805891, 57.477000403557142 ] } },
{ "type": "Feature", "properties": { "Postcode": "IV2 3ED" }, "geometry": { "type": "Point", "coordinates": [ -4.188213193517203, 57.474014013615374 ] } },
{ "type": "Feature", "properties": { "Postcode": "IV2 3EE" }, "geometry": { "type": "Point", "coordinates": [ -4.225582152196985, 57.476621506640072 ] } },
{ "type": "Feature", "properties": { "Postcode": "IV2 3EG" }, "geometry": { "type": "Point", "coordinates": [ -4.225355452273744, 57.476185224331012 ] } },
{ "type": "Feature", "properties": { "Postcode": "IV2 3EJ" }, "geometry": { "type": "Point", "coordinates": [ -4.193781134371623, 57.457833506949662 ] } },
{ "type": "Feature", "properties": { "Postcode": "IV2 3EL" }, "geometry": { "type": "Point", "coordinates": [ -4.193755416415889, 57.45879538551138 ] } },
{ "type": "Feature", "properties": { "Postcode": "IV2 3EN" }, "geometry": { "type": "Point", "coordinates": [ -4.195133888260339, 57.462877682 ] } },
{ "type": "Feature", "properties": { "Postcode": "IV2 3EP" }, "geometry": { "type": "Point", "coordinates": [ -4.224176491463136, 57.477095584077333 ] } },
{ "type": "Feature", "properties": { "Postcode": "IV2 3ES" }, "geometry": { "type": "Point", "coordinates": [ -4.223511882439227, 57.477412811130634 ] } },
{ "type": "Feature", "properties": { "Postcode": "IV2 3ET" }, "geometry": { "type": "Point", "coordinates": [ -4.189205546722966, 57.45854204384176 ] } },
{ "type": "Feature", "properties": { "Postcode": "IV2 3EU" }, "geometry": { "type": "Point", "coordinates": [ -4.222430514474084, 57.476910726756564 ] } },
{ "type": "Feature", "properties": { "Postcode": "IV2 3EW" }, "geometry": { "type": "Point", "coordinates": [ -4.191099840872595, 57.459272877642981 ] } },
{ "type": "Feature", "properties": { "Postcode": "IV2 3EX" }, "geometry": { "type": "Point", "coordinates": [ -4.223476467634486, 57.476281276794211 ] } },
{ "type": "Feature", "properties": { "Postcode": "IV2 3EY" }, "geometry": { "type": "Point", "coordinates": [ -4.222926266171947, 57.477108650043597 ] } },
{ "type": "Feature", "properties": { "Postcode": "IV2 3FL" }, "geometry": { "type": "Point", "coordinates": [ -4.19276865757606, 57.472658941746062 ] } },
{ "type": "Feature", "properties": { "Postcode": "IV2 3FN" }, "geometry": { "type": "Point", "coordinates": [ -4.216861926849262, 57.478329622030756 ] } },
{ "type": "Feature", "properties": { "Postcode": "IV2 3FP" }, "geometry": { "type": "Point", "coordinates": [ -4.223561074096422, 57.477124411078258 ] } },
{ "type": "Feature", "properties": { "Postcode": "IV2 3FQ" }, "geometry": { "type": "Point", "coordinates": [ -4.217856810316114, 57.478231255276718 ] } },
{ "type": "Feature", "properties": { "Postcode": "IV2 3FR" }, "geometry": { "type": "Point", "coordinates": [ -4.198080901528845, 57.476133599066699 ] } },
{ "type": "Feature", "properties": { "Postcode": "IV2 3GA" }, "geometry": { "type": "Point", "coordinates": [ -4.192319857739949, 57.457095181662218 ] } },
{ "type": "Feature", "properties": { "Postcode": "IV2 3GS" }, "geometry": { "type": "Point", "coordinates": [ -4.212816655588864, 57.469639960283565 ] } },
{ "type": "Feature", "properties": { "Postcode": "IV2 3HA" }, "geometry": { "type": "Point", "coordinates": [ -4.223020593236305, 57.47619047720513 ] } },
{ "type": "Feature", "properties": { "Postcode": "IV2 3HB" }, "geometry": { "type": "Point", "coordinates": [ -4.22351449781585, 57.475534818674582 ] } },
{ "type": "Feature", "properties": { "Postcode": "IV2 3HD" }, "geometry": { "type": "Point", "coordinates": [ -4.223838749608481, 57.475106785688759 ] } },
{ "type": "Feature", "properties": { "Postcode": "IV2 3HE" }, "geometry": { "type": "Point", "coordinates": [ -4.223627945625113, 57.474382687541677 ] } },
{ "type": "Feature", "properties": { "Postcode": "IV2 3HF" }, "geometry": { "type": "Point", "coordinates": [ -4.222302204472529, 57.473974767039302 ] } },
{ "type": "Feature", "properties": { "Postcode": "IV2 3HH" }, "geometry": { "type": "Point", "coordinates": [ -4.222255427158106, 57.474577612696983 ] } },
{ "type": "Feature", "properties": { "Postcode": "IV2 3HJ" }, "geometry": { "type": "Point", "coordinates": [ -4.219541157769669, 57.473825732535431 ] } },
{ "type": "Feature", "properties": { "Postcode": "IV2 3HL" }, "geometry": { "type": "Point", "coordinates": [ -4.220679688408229, 57.474722190490105 ] } },
{ "type": "Feature", "properties": { "Postcode": "IV2 3HN" }, "geometry": { "type": "Point", "coordinates": [ -4.220361169378305, 57.474970406393027 ] } },
{ "type": "Feature", "properties": { "Postcode": "IV2 3HP" }, "geometry": { "type": "Point", "coordinates": [ -4.216284615298916, 57.472930578702837 ] } },
{ "type": "Feature", "properties": { "Postcode": "IV2 3HQ" }, "geometry": { "type": "Point", "coordinates": [ -4.223290061132982, 57.4745863257344 ] } },
{ "type": "Feature", "properties": { "Postcode": "IV2 3HR" }, "geometry": { "type": "Point", "coordinates": [ -4.214826800240543, 57.470889565051991 ] } },
{ "type": "Feature", "properties": { "Postcode": "IV2 3HS" }, "geometry": { "type": "Point", "coordinates": [ -4.213359348531438, 57.46951362240722 ] } },
{ "type": "Feature", "properties": { "Postcode": "IV2 3HT" }, "geometry": { "type": "Point", "coordinates": [ -4.213637342652675, 57.468044124922905 ] } },
{ "type": "Feature", "properties": { "Postcode": "IV2 3HU" }, "geometry": { "type": "Point", "coordinates": [ -4.212865299834988, 57.470995897105212 ] } },
{ "type": "Feature", "properties": { "Postcode": "IV2 3HW" }, "geometry": { "type": "Point", "coordinates": [ -4.220034574587073, 57.474535874613473 ] } },
{ "type": "Feature", "properties": { "Postcode": "IV2 3HX" }, "geometry": { "type": "Point", "coordinates": [ -4.213649914580411, 57.471835731043853 ] } },
{ "type": "Feature", "properties": { "Postcode": "IV2 3HY" }, "geometry": { "type": "Point", "coordinates": [ -4.211528583661313, 57.472609765261126 ] } },
{ "type": "Feature", "properties": { "Postcode": "IV2 3HZ" }, "geometry": { "type": "Point", "coordinates": [ -4.212684294157292, 57.472966869837471 ] } },
{ "type": "Feature", "properties": { "Postcode": "IV2 3JA" }, "geometry": { "type": "Point", "coordinates": [ -4.211796174006708, 57.473449694592084 ] } },
{ "type": "Feature", "properties": { "Postcode": "IV2 3JB" }, "geometry": { "type": "Point", "coordinates": [ -4.214428223769795, 57.47367304719922 ] } },
{ "type": "Feature", "properties": { "Postcode": "IV2 3JD" }, "geometry": { "type": "Point", "coordinates": [ -4.214855254554826, 57.474114813560391 ] } },
{ "type": "Feature", "properties": { "Postcode": "IV2 3JE" }, "geometry": { "type": "Point", "coordinates": [ -4.216188107327355, 57.473264734266905 ] } },
{ "type": "Feature", "properties": { "Postcode": "IV2 3JF" }, "geometry": { "type": "Point", "coordinates": [ -4.216198124747945, 57.474531495818745 ] } },
{ "type": "Feature", "properties": { "Postcode": "IV2 3JH" }, "geometry": { "type": "Point", "coordinates": [ -4.189894373704941, 57.474236408661412 ] } },
{ "type": "Feature", "properties": { "Postcode": "IV2 3JL" }, "geometry": { "type": "Point", "coordinates": [ -4.206623374744464, 57.480045738435017 ] } },
{ "type": "Feature", "properties": { "Postcode": "IV2 3JN" }, "geometry": { "type": "Point", "coordinates": [ -4.220481065961726, 57.478319841735875 ] } },
{ "type": "Feature", "properties": { "Postcode": "IV2 3JP" }, "geometry": { "type": "Point", "coordinates": [ -4.219303220578997, 57.47815188892627 ] } },
{ "type": "Feature", "properties": { "Postcode": "IV2 3JQ" }, "geometry": { "type": "Point", "coordinates": [ -4.212807975143055, 57.481078479823289 ] } },
{ "type": "Feature", "properties": { "Postcode": "IV2 3JR" }, "geometry": { "type": "Point", "coordinates": [ -4.218645437310093, 57.476932470323497 ] } },
{ "type": "Feature", "properties": { "Postcode": "IV2 3JS" }, "geometry": { "type": "Point", "coordinates": [ -4.218082853059389, 57.476457159743383 ] } },
{ "type": "Feature", "properties": { "Postcode": "IV2 3JT" }, "geometry": { "type": "Point", "coordinates": [ -4.217322718787015, 57.476299809669236 ] } },
{ "type": "Feature", "properties": { "Postcode": "IV2 3JU" }, "geometry": { "type": "Point", "coordinates": [ -4.216755068371065, 57.475465167598038 ] } },
{ "type": "Feature", "properties": { "Postcode": "IV2 3JX" }, "geometry": { "type": "Point", "coordinates": [ -4.21681939335478, 57.475976202717838 ] } },
{ "type": "Feature", "properties": { "Postcode": "IV2 3JY" }, "geometry": { "type": "Point", "coordinates": [ -4.215397167174619, 57.476729019062709 ] } },
{ "type": "Feature", "properties": { "Postcode": "IV2 3JZ" }, "geometry": { "type": "Point", "coordinates": [ -4.214848213425566, 57.476478089144372 ] } },
{ "type": "Feature", "properties": { "Postcode": "IV2 3LA" }, "geometry": { "type": "Point", "coordinates": [ -4.214337481026195, 57.476307353845222 ] } },
{ "type": "Feature", "properties": { "Postcode": "IV2 3LB" }, "geometry": { "type": "Point", "coordinates": [ -4.215910564678349, 57.475291322080366 ] } },
{ "type": "Feature", "properties": { "Postcode": "IV2 3LD" }, "geometry": { "type": "Point", "coordinates": [ -4.214008606336042, 57.474731705692022 ] } },
{ "type": "Feature", "properties": { "Postcode": "IV2 3LE" }, "geometry": { "type": "Point", "coordinates": [ -4.214878268583236, 57.475596995085894 ] } },
{ "type": "Feature", "properties": { "Postcode": "IV2 3LF" }, "geometry": { "type": "Point", "coordinates": [ -4.212251771745722, 57.47408864619797 ] } },
{ "type": "Feature", "properties": { "Postcode": "IV2 3LG" }, "geometry": { "type": "Point", "coordinates": [ -4.212211341533979, 57.47479919935197 ] } },
{ "type": "Feature", "properties": { "Postcode": "IV2 3LH" }, "geometry": { "type": "Point", "coordinates": [ -4.212136068186186, 57.476588607088956 ] } },
{ "type": "Feature", "properties": { "Postcode": "IV2 3LJ" }, "geometry": { "type": "Point", "coordinates": [ -4.210965058644231, 57.47598017483773 ] } },
{ "type": "Feature", "properties": { "Postcode": "IV2 3LL" }, "geometry": { "type": "Point", "coordinates": [ -4.210981726289805, 57.474048030372515 ] } },
{ "type": "Feature", "properties": { "Postcode": "IV2 3LN" }, "geometry": { "type": "Point", "coordinates": [ -4.210941117634278, 57.474480039862009 ] } },
{ "type": "Feature", "properties": { "Postcode": "IV2 3LP" }, "geometry": { "type": "Point", "coordinates": [ -4.210848994606735, 57.472127491067695 ] } },
{ "type": "Feature", "properties": { "Postcode": "IV2 3LQ" }, "geometry": { "type": "Point", "coordinates": [ -4.211923696487487, 57.475559017096138 ] } },
{ "type": "Feature", "properties": { "Postcode": "IV2 3LR" }, "geometry": { "type": "Point", "coordinates": [ -4.210949663981313, 57.470481403964243 ] } },
{ "type": "Feature", "properties": { "Postcode": "IV2 3LS" }, "geometry": { "type": "Point", "coordinates": [ -4.206628526242301, 57.467133701136063 ] } },
{ "type": "Feature", "properties": { "Postcode": "IV2 3LT" }, "geometry": { "type": "Point", "coordinates": [ -4.207144363792056, 57.474303967676107 ] } },
{ "type": "Feature", "properties": { "Postcode": "IV2 3LU" }, "geometry": { "type": "Point", "coordinates": [ -4.207408180575792, 57.471765479085263 ] } },
{ "type": "Feature", "properties": { "Postcode": "IV2 3LW" }, "geometry": { "type": "Point", "coordinates": [ -4.210104844461101, 57.475545990810964 ] } },
{ "type": "Feature", "properties": { "Postcode": "IV2 3LX" }, "geometry": { "type": "Point", "coordinates": [ -4.209515175535577, 57.470201054098354 ] } },
{ "type": "Feature", "properties": { "Postcode": "IV2 3LY" }, "geometry": { "type": "Point", "coordinates": [ -4.209569518272777, 57.47137718374988 ] } },
{ "type": "Feature", "properties": { "Postcode": "IV2 3LZ" }, "geometry": { "type": "Point", "coordinates": [ -4.211853744658206, 57.468884118675604 ] } },
{ "type": "Feature", "properties": { "Postcode": "IV2 3NA" }, "geometry": { "type": "Point", "coordinates": [ -4.221804835929408, 57.478143767475082 ] } },
{ "type": "Feature", "properties": { "Postcode": "IV2 3NE" }, "geometry": { "type": "Point", "coordinates": [ -4.221505994034639, 57.478167004595484 ] } },
{ "type": "Feature", "properties": { "Postcode": "IV2 3NF" }, "geometry": { "type": "Point", "coordinates": [ -4.218985751797008, 57.478418053090053 ] } },
{ "type": "Feature", "properties": { "Postcode": "IV2 3NH" }, "geometry": { "type": "Point", "coordinates": [ -4.216168449679297, 57.478997746364584 ] } },
{ "type": "Feature", "properties": { "Postcode": "IV2 3NJ" }, "geometry": { "type": "Point", "coordinates": [ -4.216105835291354, 57.480166944653739 ] } },
{ "type": "Feature", "properties": { "Postcode": "IV2 3NL" }, "geometry": { "type": "Point", "coordinates": [ -4.215040619798944, 57.480482181378683 ] } },
{ "type": "Feature", "properties": { "Postcode": "IV2 3NN" }, "geometry": { "type": "Point", "coordinates": [ -4.214291283756095, 57.479677676649253 ] } },
{ "type": "Feature", "properties": { "Postcode": "IV2 3NP" }, "geometry": { "type": "Point", "coordinates": [ -4.21457673614815, 57.478881950815733 ] } },
{ "type": "Feature", "properties": { "Postcode": "IV2 3NQ" }, "geometry": { "type": "Point", "coordinates": [ -4.217635778040301, 57.479538022372957 ] } },
{ "type": "Feature", "properties": { "Postcode": "IV2 3NR" }, "geometry": { "type": "Point", "coordinates": [ -4.213027792286916, 57.478370028676252 ] } },
{ "type": "Feature", "properties": { "Postcode": "IV2 3NS" }, "geometry": { "type": "Point", "coordinates": [ -4.212378143495209, 57.477833324054878 ] } },
{ "type": "Feature", "properties": { "Postcode": "IV2 3NT" }, "geometry": { "type": "Point", "coordinates": [ -4.214752240649987, 57.478474526378065 ] } },
{ "type": "Feature", "properties": { "Postcode": "IV2 3NU" }, "geometry": { "type": "Point", "coordinates": [ -4.2160544884129, 57.47821802264658 ] } },
{ "type": "Feature", "properties": { "Postcode": "IV2 3NW" }, "geometry": { "type": "Point", "coordinates": [ -4.215824884061197, 57.47965971705959 ] } },
{ "type": "Feature", "properties": { "Postcode": "IV2 3NX" }, "geometry": { "type": "Point", "coordinates": [ -4.217215052103624, 57.477550670103604 ] } },
{ "type": "Feature", "properties": { "Postcode": "IV2 3NY" }, "geometry": { "type": "Point", "coordinates": [ -4.215600945934474, 57.477614989267863 ] } },
{ "type": "Feature", "properties": { "Postcode": "IV2 3NZ" }, "geometry": { "type": "Point", "coordinates": [ -4.21371805659127, 57.477648066281105 ] } },
{ "type": "Feature", "properties": { "Postcode": "IV2 3PA" }, "geometry": { "type": "Point", "coordinates": [ -4.211808952606917, 57.476971731766746 ] } },
{ "type": "Feature", "properties": { "Postcode": "IV2 3PB" }, "geometry": { "type": "Point", "coordinates": [ -4.209291548669432, 57.476440811176978 ] } },
{ "type": "Feature", "properties": { "Postcode": "IV2 3PD" }, "geometry": { "type": "Point", "coordinates": [ -4.210181943002333, 57.47599390691866 ] } },
{ "type": "Feature", "properties": { "Postcode": "IV2 3PE" }, "geometry": { "type": "Point", "coordinates": [ -4.208218005381582, 57.473853868362603 ] } },
{ "type": "Feature", "properties": { "Postcode": "IV2 3PF" }, "geometry": { "type": "Point", "coordinates": [ -4.202225696397487, 57.46463190706789 ] } },
{ "type": "Feature", "properties": { "Postcode": "IV2 3PG" }, "geometry": { "type": "Point", "coordinates": [ -4.216114837388353, 57.470678234186401 ] } },
{ "type": "Feature", "properties": { "Postcode": "IV2 3PJ" }, "geometry": { "type": "Point", "coordinates": [ -4.212089186084453, 57.481881804702098 ] } },
{ "type": "Feature", "properties": { "Postcode": "IV2 3PL" }, "geometry": { "type": "Point", "coordinates": [ -4.209042159391926, 57.464575521742717 ] } },
{ "type": "Feature", "properties": { "Postcode": "IV2 3PP" }, "geometry": { "type": "Point", "coordinates": [ -4.220760665357823, 57.479078674035541 ] } },
{ "type": "Feature", "properties": { "Postcode": "IV2 3PR" }, "geometry": { "type": "Point", "coordinates": [ -4.221407422487235, 57.479840022318207 ] } },
{ "type": "Feature", "properties": { "Postcode": "IV2 3PS" }, "geometry": { "type": "Point", "coordinates": [ -4.208798102876136, 57.4818047253139 ] } },
{ "type": "Feature", "properties": { "Postcode": "IV2 3PU" }, "geometry": { "type": "Point", "coordinates": [ -4.210329626959555, 57.481750928526765 ] } },
{ "type": "Feature", "properties": { "Postcode": "IV2 3PW" }, "geometry": { "type": "Point", "coordinates": [ -4.206646064938417, 57.481527922505684 ] } },
{ "type": "Feature", "properties": { "Postcode": "IV2 3PX" }, "geometry": { "type": "Point", "coordinates": [ -4.218796997299935, 57.479706283730472 ] } },
{ "type": "Feature", "properties": { "Postcode": "IV2 3PY" }, "geometry": { "type": "Point", "coordinates": [ -4.217146472130882, 57.480822550722095 ] } },
{ "type": "Feature", "properties": { "Postcode": "IV2 3PZ" }, "geometry": { "type": "Point", "coordinates": [ -4.213756211547481, 57.481034877235203 ] } },
{ "type": "Feature", "properties": { "Postcode": "IV2 3QA" }, "geometry": { "type": "Point", "coordinates": [ -4.212359501092574, 57.480834760460986 ] } },
{ "type": "Feature", "properties": { "Postcode": "IV2 3QB" }, "geometry": { "type": "Point", "coordinates": [ -4.212512945837764, 57.480337873147569 ] } },
{ "type": "Feature", "properties": { "Postcode": "IV2 3QD" }, "geometry": { "type": "Point", "coordinates": [ -4.212376210712906, 57.480007814510145 ] } },
{ "type": "Feature", "properties": { "Postcode": "IV2 3QE" }, "geometry": { "type": "Point", "coordinates": [ -4.210709658988355, 57.481690353283931 ] } },
{ "type": "Feature", "properties": { "Postcode": "IV2 3QF" }, "geometry": { "type": "Point", "coordinates": [ -4.213197653819999, 57.479247612077138 ] } },
{ "type": "Feature", "properties": { "Postcode": "IV2 3QG" }, "geometry": { "type": "Point", "coordinates": [ -4.211473398203824, 57.478594982726321 ] } },
{ "type": "Feature", "properties": { "Postcode": "IV2 3QH" }, "geometry": { "type": "Point", "coordinates": [ -4.210878331328079, 57.477581089292421 ] } },
{ "type": "Feature", "properties": { "Postcode": "IV2 3QJ" }, "geometry": { "type": "Point", "coordinates": [ -4.208610431052987, 57.477315339483688 ] } },
{ "type": "Feature", "properties": { "Postcode": "IV2 3QL" }, "geometry": { "type": "Point", "coordinates": [ -4.208957497722265, 57.476985786029928 ] } },
{ "type": "Feature", "properties": { "Postcode": "IV2 3QN" }, "geometry": { "type": "Point", "coordinates": [ -4.20802955030461, 57.476534804017895 ] } },
{ "type": "Feature", "properties": { "Postcode": "IV2 3QQ" }, "geometry": { "type": "Point", "coordinates": [ -4.211929113004485, 57.478407280801846 ] } },
{ "type": "Feature", "properties": { "Postcode": "IV2 3QR" }, "geometry": { "type": "Point", "coordinates": [ -4.209116053945548, 57.480163821484851 ] } },
{ "type": "Feature", "properties": { "Postcode": "IV2 3QS" }, "geometry": { "type": "Point", "coordinates": [ -4.208180444411786, 57.478481981688326 ] } },
{ "type": "Feature", "properties": { "Postcode": "IV2 3QT" }, "geometry": { "type": "Point", "coordinates": [ -4.207952182193768, 57.477740195778644 ] } },
{ "type": "Feature", "properties": { "Postcode": "IV2 3QU" }, "geometry": { "type": "Point", "coordinates": [ -4.209161263280367, 57.478150311104109 ] } },
{ "type": "Feature", "properties": { "Postcode": "IV2 3QW" }, "geometry": { "type": "Point", "coordinates": [ -4.206557083639962, 57.480882535387018 ] } },
{ "type": "Feature", "properties": { "Postcode": "IV2 3QX" }, "geometry": { "type": "Point", "coordinates": [ -4.20471058706539, 57.482352492596881 ] } },
{ "type": "Feature", "properties": { "Postcode": "IV2 3QY" }, "geometry": { "type": "Point", "coordinates": [ -4.207091840525774, 57.480621585417325 ] } },
{ "type": "Feature", "properties": { "Postcode": "IV2 3QZ" }, "geometry": { "type": "Point", "coordinates": [ -4.210745854573615, 57.482013191196657 ] } },
{ "type": "Feature", "properties": { "Postcode": "IV2 3RB" }, "geometry": { "type": "Point", "coordinates": [ -4.20749616254115, 57.473776657371566 ] } },
{ "type": "Feature", "properties": { "Postcode": "IV2 3RE" }, "geometry": { "type": "Point", "coordinates": [ -4.214207993234729, 57.475545872125068 ] } },
{ "type": "Feature", "properties": { "Postcode": "IV2 3RF" }, "geometry": { "type": "Point", "coordinates": [ -4.190953159253058, 57.464343150433734 ] } },
{ "type": "Feature", "properties": { "Postcode": "IV2 3RG" }, "geometry": { "type": "Point", "coordinates": [ -4.199209794060502, 57.472160365526307 ] } },
{ "type": "Feature", "properties": { "Postcode": "IV2 3RH" }, "geometry": { "type": "Point", "coordinates": [ -4.197561592145588, 57.472764170339659 ] } },
{ "type": "Feature", "properties": { "Postcode": "IV2 3RJ" }, "geometry": { "type": "Point", "coordinates": [ -4.195469341410801, 57.472917435928814 ] } },
{ "type": "Feature", "properties": { "Postcode": "IV2 3RL" }, "geometry": { "type": "Point", "coordinates": [ -4.196144850760422, 57.47250132977284 ] } },
{ "type": "Feature", "properties": { "Postcode": "IV2 3RN" }, "geometry": { "type": "Point", "coordinates": [ -4.19375482336999, 57.472138605930098 ] } },
{ "type": "Feature", "properties": { "Postcode": "IV2 3RP" }, "geometry": { "type": "Point", "coordinates": [ -4.196893360862059, 57.471634681261058 ] } },
{ "type": "Feature", "properties": { "Postcode": "IV2 3RQ" }, "geometry": { "type": "Point", "coordinates": [ -4.199989315935637, 57.470978669975089 ] } },
{ "type": "Feature", "properties": { "Postcode": "IV2 3RR" }, "geometry": { "type": "Point", "coordinates": [ -4.19506390227147, 57.471163373366494 ] } },
{ "type": "Feature", "properties": { "Postcode": "IV2 3RS" }, "geometry": { "type": "Point", "coordinates": [ -4.194031029812032, 57.471738444818676 ] } },
{ "type": "Feature", "properties": { "Postcode": "IV2 3RT" }, "geometry": { "type": "Point", "coordinates": [ -4.197988995882663, 57.470717048922907 ] } },
{ "type": "Feature", "properties": { "Postcode": "IV2 3RU" }, "geometry": { "type": "Point", "coordinates": [ -4.196305817969347, 57.470737401542635 ] } },
{ "type": "Feature", "properties": { "Postcode": "IV2 3RW" }, "geometry": { "type": "Point", "coordinates": [ -4.195160225424749, 57.472212978758094 ] } },
{ "type": "Feature", "properties": { "Postcode": "IV2 3RX" }, "geometry": { "type": "Point", "coordinates": [ -4.194315224809072, 57.470637288894906 ] } },
{ "type": "Feature", "properties": { "Postcode": "IV2 3RY" }, "geometry": { "type": "Point", "coordinates": [ -4.195604956123674, 57.470174550178726 ] } },
{ "type": "Feature", "properties": { "Postcode": "IV2 3RZ" }, "geometry": { "type": "Point", "coordinates": [ -4.19508578521835, 57.469860120348493 ] } },
{ "type": "Feature", "properties": { "Postcode": "IV2 3SA" }, "geometry": { "type": "Point", "coordinates": [ -4.195656440915381, 57.469364974046847 ] } },
{ "type": "Feature", "properties": { "Postcode": "IV2 3SB" }, "geometry": { "type": "Point", "coordinates": [ -4.197011808873332, 57.469718741936063 ] } },
{ "type": "Feature", "properties": { "Postcode": "IV2 3SD" }, "geometry": { "type": "Point", "coordinates": [ -4.198804603436776, 57.469858203356011 ] } },
{ "type": "Feature", "properties": { "Postcode": "IV2 3SE" }, "geometry": { "type": "Point", "coordinates": [ -4.197959557185252, 57.468561082504159 ] } },
{ "type": "Feature", "properties": { "Postcode": "IV2 3SF" }, "geometry": { "type": "Point", "coordinates": [ -4.199463768323808, 57.468894257833284 ] } },
{ "type": "Feature", "properties": { "Postcode": "IV2 3SG" }, "geometry": { "type": "Point", "coordinates": [ -4.197336076884891, 57.467898052758748 ] } },
{ "type": "Feature", "properties": { "Postcode": "IV2 3SH" }, "geometry": { "type": "Point", "coordinates": [ -4.194631078423699, 57.469230079782541 ] } },
{ "type": "Feature", "properties": { "Postcode": "IV2 3SJ" }, "geometry": { "type": "Point", "coordinates": [ -4.193372611181325, 57.47077050318687 ] } },
{ "type": "Feature", "properties": { "Postcode": "IV2 3SL" }, "geometry": { "type": "Point", "coordinates": [ -4.192598781869286, 57.47177235035069 ] } },
{ "type": "Feature", "properties": { "Postcode": "IV2 3SN" }, "geometry": { "type": "Point", "coordinates": [ -4.196965679531611, 57.467005975890906 ] } },
{ "type": "Feature", "properties": { "Postcode": "IV2 3SP" }, "geometry": { "type": "Point", "coordinates": [ -4.199768686917363, 57.467586062850962 ] } },
{ "type": "Feature", "properties": { "Postcode": "IV2 3SQ" }, "geometry": { "type": "Point", "coordinates": [ -4.195918525443987, 57.468174345307474 ] } },
{ "type": "Feature", "properties": { "Postcode": "IV2 3SR" }, "geometry": { "type": "Point", "coordinates": [ -4.197198163398815, 57.465878756774792 ] } },
{ "type": "Feature", "properties": { "Postcode": "IV2 3SS" }, "geometry": { "type": "Point", "coordinates": [ -4.199942747085466, 57.465210894985042 ] } },
{ "type": "Feature", "properties": { "Postcode": "IV2 3ST" }, "geometry": { "type": "Point", "coordinates": [ -4.199577694697436, 57.466627964546397 ] } },
{ "type": "Feature", "properties": { "Postcode": "IV2 3SU" }, "geometry": { "type": "Point", "coordinates": [ -4.197750890969539, 57.464808850721781 ] } },
{ "type": "Feature", "properties": { "Postcode": "IV2 3SW" }, "geometry": { "type": "Point", "coordinates": [ -4.197708928807941, 57.467442285803955 ] } },
{ "type": "Feature", "properties": { "Postcode": "IV2 3SX" }, "geometry": { "type": "Point", "coordinates": [ -4.199992316758652, 57.465758135683323 ] } },
{ "type": "Feature", "properties": { "Postcode": "IV2 3SY" }, "geometry": { "type": "Point", "coordinates": [ -4.19183506436748, 57.470716379441392 ] } },
{ "type": "Feature", "properties": { "Postcode": "IV2 3SZ" }, "geometry": { "type": "Point", "coordinates": [ -4.199855212104397, 57.463199705793741 ] } },
{ "type": "Feature", "properties": { "Postcode": "IV2 3TA" }, "geometry": { "type": "Point", "coordinates": [ -4.199344734939622, 57.46302890761946 ] } },
{ "type": "Feature", "properties": { "Postcode": "IV2 3TB" }, "geometry": { "type": "Point", "coordinates": [ -4.200342236046155, 57.464089739023407 ] } },
{ "type": "Feature", "properties": { "Postcode": "IV2 3TD" }, "geometry": { "type": "Point", "coordinates": [ -4.200772463819907, 57.463480209432461 ] } },
{ "type": "Feature", "properties": { "Postcode": "IV2 3TE" }, "geometry": { "type": "Point", "coordinates": [ -4.198299757740661, 57.46339756615199 ] } },
{ "type": "Feature", "properties": { "Postcode": "IV2 3TF" }, "geometry": { "type": "Point", "coordinates": [ -4.198899209695028, 57.462551472606975 ] } },
{ "type": "Feature", "properties": { "Postcode": "IV2 3TG" }, "geometry": { "type": "Point", "coordinates": [ -4.199320878108226, 57.462076877411796 ] } },
{ "type": "Feature", "properties": { "Postcode": "IV2 3TL" }, "geometry": { "type": "Point", "coordinates": [ -4.222348104964372, 57.478574475679416 ] } },
{ "type": "Feature", "properties": { "Postcode": "IV2 3TP" }, "geometry": { "type": "Point", "coordinates": [ -4.201659266024527, 57.482378857545264 ] } },
{ "type": "Feature", "properties": { "Postcode": "IV2 3TQ" }, "geometry": { "type": "Point", "coordinates": [ -4.195541066564003, 57.478837511582789 ] } },
{ "type": "Feature", "properties": { "Postcode": "IV2 3TR" }, "geometry": { "type": "Point", "coordinates": [ -4.198264504371927, 57.482797505791289 ] } },
{ "type": "Feature", "properties": { "Postcode": "IV2 3TS" }, "geometry": { "type": "Point", "coordinates": [ -4.199461634737302, 57.480233781521093 ] } },
{ "type": "Feature", "properties": { "Postcode": "IV2 3TT" }, "geometry": { "type": "Point", "coordinates": [ -4.198141337203745, 57.479915366031932 ] } },
{ "type": "Feature", "properties": { "Postcode": "IV2 3TU" }, "geometry": { "type": "Point", "coordinates": [ -4.19649914929627, 57.480069781890009 ] } },
{ "type": "Feature", "properties": { "Postcode": "IV2 3TW" }, "geometry": { "type": "Point", "coordinates": [ -4.191311059426374, 57.468649881870043 ] } },
{ "type": "Feature", "properties": { "Postcode": "IV2 3TX" }, "geometry": { "type": "Point", "coordinates": [ -4.198217760546692, 57.480354314220683 ] } },
{ "type": "Feature", "properties": { "Postcode": "IV2 3TY" }, "geometry": { "type": "Point", "coordinates": [ -4.196344409671868, 57.480548699410235 ] } },
{ "type": "Feature", "properties": { "Postcode": "IV2 3TZ" }, "geometry": { "type": "Point", "coordinates": [ -4.19456997777932, 57.481001908709793 ] } },
{ "type": "Feature", "properties": { "Postcode": "IV2 3UA" }, "geometry": { "type": "Point", "coordinates": [ -4.194419938939681, 57.480447431103705 ] } },
{ "type": "Feature", "properties": { "Postcode": "IV2 3UB" }, "geometry": { "type": "Point", "coordinates": [ -4.192754605378004, 57.480772921421462 ] } },
{ "type": "Feature", "properties": { "Postcode": "IV2 3UD" }, "geometry": { "type": "Point", "coordinates": [ -4.192981413017257, 57.480104063826637 ] } },
{ "type": "Feature", "properties": { "Postcode": "IV2 3UE" }, "geometry": { "type": "Point", "coordinates": [ -4.194711246964776, 57.480020050737849 ] } },
{ "type": "Feature", "properties": { "Postcode": "IV2 3UF" }, "geometry": { "type": "Point", "coordinates": [ -4.198842114634957, 57.479085481432683 ] } },
{ "type": "Feature", "properties": { "Postcode": "IV2 3UG" }, "geometry": { "type": "Point", "coordinates": [ -4.198449622043185, 57.478661030886336 ] } },
{ "type": "Feature", "properties": { "Postcode": "IV2 3UH" }, "geometry": { "type": "Point", "coordinates": [ -4.199020145862293, 57.479549613033619 ] } },
{ "type": "Feature", "properties": { "Postcode": "IV2 3UJ" }, "geometry": { "type": "Point", "coordinates": [ -4.192471505675599, 57.473823215777458 ] } },
{ "type": "Feature", "properties": { "Postcode": "IV2 3UL" }, "geometry": { "type": "Point", "coordinates": [ -4.196636494371267, 57.475134448761111 ] } },
{ "type": "Feature", "properties": { "Postcode": "IV2 3UP" }, "geometry": { "type": "Point", "coordinates": [ -4.197770200468987, 57.473182843938886 ] } },
{ "type": "Feature", "properties": { "Postcode": "IV2 3UQ" }, "geometry": { "type": "Point", "coordinates": [ -4.19722579644708, 57.479392206406601 ] } },
{ "type": "Feature", "properties": { "Postcode": "IV2 3UR" }, "geometry": { "type": "Point", "coordinates": [ -4.199463202008654, 57.473324037491565 ] } },
{ "type": "Feature", "properties": { "Postcode": "IV2 3US" }, "geometry": { "type": "Point", "coordinates": [ -4.197242763626922, 57.481063179738875 ] } },
{ "type": "Feature", "properties": { "Postcode": "IV2 3UT" }, "geometry": { "type": "Point", "coordinates": [ -4.200761592503679, 57.47494569290788 ] } },
{ "type": "Feature", "properties": { "Postcode": "IV2 3UU" }, "geometry": { "type": "Point", "coordinates": [ -4.200436678893535, 57.475921780488157 ] } },
{ "type": "Feature", "properties": { "Postcode": "IV2 3UW" }, "geometry": { "type": "Point", "coordinates": [ -4.19821487891557, 57.474199417859872 ] } },
{ "type": "Feature", "properties": { "Postcode": "IV2 3UX" }, "geometry": { "type": "Point", "coordinates": [ -4.192127159899657, 57.478097226295304 ] } },
{ "type": "Feature", "properties": { "Postcode": "IV2 3UY" }, "geometry": { "type": "Point", "coordinates": [ -4.191720839185874, 57.479667733882017 ] } },
{ "type": "Feature", "properties": { "Postcode": "IV2 3UZ" }, "geometry": { "type": "Point", "coordinates": [ -4.193824724294396, 57.47886739003534 ] } },
{ "type": "Feature", "properties": { "Postcode": "IV2 3WA" }, "geometry": { "type": "Point", "coordinates": [ -4.196322138358869, 57.479066510320301 ] } },
{ "type": "Feature", "properties": { "Postcode": "IV2 3WX" }, "geometry": { "type": "Point", "coordinates": [ -4.226318547963474, 57.479402961711841 ] } },
{ "type": "Feature", "properties": { "Postcode": "IV2 3XA" }, "geometry": { "type": "Point", "coordinates": [ -4.194234258429423, 57.478186364512318 ] } },
{ "type": "Feature", "properties": { "Postcode": "IV2 3XB" }, "geometry": { "type": "Point", "coordinates": [ -4.194406756372685, 57.477725111130994 ] } },
{ "type": "Feature", "properties": { "Postcode": "IV2 3XE" }, "geometry": { "type": "Point", "coordinates": [ -4.202513324925508, 57.48187873282739 ] } },
{ "type": "Feature", "properties": { "Postcode": "IV2 3XJ" }, "geometry": { "type": "Point", "coordinates": [ -4.202117237149348, 57.473637116119157 ] } },
{ "type": "Feature", "properties": { "Postcode": "IV2 3XL" }, "geometry": { "type": "Point", "coordinates": [ -4.202490622036874, 57.474852598989166 ] } },
{ "type": "Feature", "properties": { "Postcode": "IV2 3XN" }, "geometry": { "type": "Point", "coordinates": [ -4.201864704849815, 57.473875146047078 ] } },
{ "type": "Feature", "properties": { "Postcode": "IV2 3XP" }, "geometry": { "type": "Point", "coordinates": [ -4.203622408656561, 57.466781950792111 ] } },
{ "type": "Feature", "properties": { "Postcode": "IV2 3XQ" }, "geometry": { "type": "Point", "coordinates": [ -4.200334429028647, 57.47338970153691 ] } },
{ "type": "Feature", "properties": { "Postcode": "IV2 3XS" }, "geometry": { "type": "Point", "coordinates": [ -4.206360240660084, 57.462960205540448 ] } },
{ "type": "Feature", "properties": { "Postcode": "IV2 3XU" }, "geometry": { "type": "Point", "coordinates": [ -4.204476774010972, 57.478196370565271 ] } },
{ "type": "Feature", "properties": { "Postcode": "IV2 3XW" }, "geometry": { "type": "Point", "coordinates": [ -4.203575300233478, 57.473476857048404 ] } },
{ "type": "Feature", "properties": { "Postcode": "IV2 3XX" }, "geometry": { "type": "Point", "coordinates": [ -4.20358335555838, 57.478041268460736 ] } },
{ "type": "Feature", "properties": { "Postcode": "IV2 3XY" }, "geometry": { "type": "Point", "coordinates": [ -4.20318789642448, 57.475352579052654 ] } },
{ "type": "Feature", "properties": { "Postcode": "IV2 3XZ" }, "geometry": { "type": "Point", "coordinates": [ -4.203059560346116, 57.475714235401156 ] } },
{ "type": "Feature", "properties": { "Postcode": "IV2 3YA" }, "geometry": { "type": "Point", "coordinates": [ -4.201255983477801, 57.476509494363626 ] } },
{ "type": "Feature", "properties": { "Postcode": "IV2 3YB" }, "geometry": { "type": "Point", "coordinates": [ -4.201003504745172, 57.477026066537491 ] } },
{ "type": "Feature", "properties": { "Postcode": "IV2 3YD" }, "geometry": { "type": "Point", "coordinates": [ -4.201261085990443, 57.477425909094656 ] } },
{ "type": "Feature", "properties": { "Postcode": "IV2 3YF" }, "geometry": { "type": "Point", "coordinates": [ -4.199953596348947, 57.46123019772763 ] } },
{ "type": "Feature", "properties": { "Postcode": "IV2 3YH" }, "geometry": { "type": "Point", "coordinates": [ -4.201548578827212, 57.460582357780012 ] } },
{ "type": "Feature", "properties": { "Postcode": "IV2 3YJ" }, "geometry": { "type": "Point", "coordinates": [ -4.202758310110323, 57.478190466823399 ] } },
{ "type": "Feature", "properties": { "Postcode": "IV2 3YL" }, "geometry": { "type": "Point", "coordinates": [ -4.202803805418669, 57.479222985242295 ] } },
{ "type": "Feature", "properties": { "Postcode": "IV2 3YN" }, "geometry": { "type": "Point", "coordinates": [ -4.202887739760682, 57.461502420585482 ] } },
{ "type": "Feature", "properties": { "Postcode": "IV2 3YW" }, "geometry": { "type": "Point", "coordinates": [ -4.196647857110926, 57.475601487504527 ] } },
{ "type": "Feature", "properties": { "Postcode": "IV2 4AA" }, "geometry": { "type": "Point", "coordinates": [ -4.22152777514422, 57.470834545453272 ] } },
{ "type": "Feature", "properties": { "Postcode": "IV2 4AB" }, "geometry": { "type": "Point", "coordinates": [ -4.225190796132197, 57.474849307019426 ] } },
{ "type": "Feature", "properties": { "Postcode": "IV2 4AD" }, "geometry": { "type": "Point", "coordinates": [ -4.223682086987997, 57.473626959538727 ] } },
{ "type": "Feature", "properties": { "Postcode": "IV2 4AE" }, "geometry": { "type": "Point", "coordinates": [ -4.221616219073261, 57.473115275711869 ] } },
{ "type": "Feature", "properties": { "Postcode": "IV2 4AG" }, "geometry": { "type": "Point", "coordinates": [ -4.223571304639041, 57.472352987804726 ] } },
{ "type": "Feature", "properties": { "Postcode": "IV2 4AJ" }, "geometry": { "type": "Point", "coordinates": [ -4.223467470690726, 57.469820937781968 ] } },
{ "type": "Feature", "properties": { "Postcode": "IV2 4AL" }, "geometry": { "type": "Point", "coordinates": [ -4.220681268549206, 57.470076717667553 ] } },
{ "type": "Feature", "properties": { "Postcode": "IV2 4AN" }, "geometry": { "type": "Point", "coordinates": [ -4.21931532164187, 57.469552665760204 ] } },
{ "type": "Feature", "properties": { "Postcode": "IV2 4AP" }, "geometry": { "type": "Point", "coordinates": [ -4.221142300500269, 57.468055866933199 ] } },
{ "type": "Feature", "properties": { "Postcode": "IV2 4AR" }, "geometry": { "type": "Point", "coordinates": [ -4.223090229670208, 57.468003555855645 ] } },
{ "type": "Feature", "properties": { "Postcode": "IV2 4AS" }, "geometry": { "type": "Point", "coordinates": [ -4.220478335620792, 57.467007288877653 ] } },
{ "type": "Feature", "properties": { "Postcode": "IV2 4AT" }, "geometry": { "type": "Point", "coordinates": [ -4.219669941727205, 57.467425869856385 ] } },
{ "type": "Feature", "properties": { "Postcode": "IV2 4AU" }, "geometry": { "type": "Point", "coordinates": [ -4.217451560774219, 57.467968097231001 ] } },
{ "type": "Feature", "properties": { "Postcode": "IV2 4AW" }, "geometry": { "type": "Point", "coordinates": [ -4.222237796918131, 57.469069878486714 ] } },
{ "type": "Feature", "properties": { "Postcode": "IV2 4AX" }, "geometry": { "type": "Point", "coordinates": [ -4.215904185325946, 57.469127467093294 ] } },
{ "type": "Feature", "properties": { "Postcode": "IV2 4AY" }, "geometry": { "type": "Point", "coordinates": [ -4.217791056527961, 57.469992821020568 ] } },
{ "type": "Feature", "properties": { "Postcode": "IV2 4AZ" }, "geometry": { "type": "Point", "coordinates": [ -4.219966453736332, 57.470664373428093 ] } },
{ "type": "Feature", "properties": { "Postcode": "IV2 4BA" }, "geometry": { "type": "Point", "coordinates": [ -4.221250288706304, 57.454998175533468 ] } },
{ "type": "Feature", "properties": { "Postcode": "IV2 4BB" }, "geometry": { "type": "Point", "coordinates": [ -4.223130744475689, 57.467023432796339 ] } },
{ "type": "Feature", "properties": { "Postcode": "IV2 4BD" }, "geometry": { "type": "Point", "coordinates": [ -4.220332655152346, 57.454160732666139 ] } },
{ "type": "Feature", "properties": { "Postcode": "IV2 4BF" }, "geometry": { "type": "Point", "coordinates": [ -4.205992732011019, 57.457692229727492 ] } },
{ "type": "Feature", "properties": { "Postcode": "IV2 4BG" }, "geometry": { "type": "Point", "coordinates": [ -4.219653171110495, 57.458350915432391 ] } },
{ "type": "Feature", "properties": { "Postcode": "IV2 4BH" }, "geometry": { "type": "Point", "coordinates": [ -4.222175577398879, 57.45403839468424 ] } },
{ "type": "Feature", "properties": { "Postcode": "IV2 4BJ" }, "geometry": { "type": "Point", "coordinates": [ -4.22366121840284, 57.453248428204624 ] } },
{ "type": "Feature", "properties": { "Postcode": "IV2 4BL" }, "geometry": { "type": "Point", "coordinates": [ -4.225232434002267, 57.453867643622743 ] } },
{ "type": "Feature", "properties": { "Postcode": "IV2 4BN" }, "geometry": { "type": "Point", "coordinates": [ -4.22685666726476, 57.453713156553277 ] } },
{ "type": "Feature", "properties": { "Postcode": "IV2 4BP" }, "geometry": { "type": "Point", "coordinates": [ -4.227906015584817, 57.454521268599983 ] } },
{ "type": "Feature", "properties": { "Postcode": "IV2 4BQ" }, "geometry": { "type": "Point", "coordinates": [ -4.219733613308642, 57.456103147902851 ] } },
{ "type": "Feature", "properties": { "Postcode": "IV2 4BS" }, "geometry": { "type": "Point", "coordinates": [ -4.229983401114264, 57.454143078913745 ] } },
{ "type": "Feature", "properties": { "Postcode": "IV2 4BT" }, "geometry": { "type": "Point", "coordinates": [ -4.232205060389937, 57.453124332805878 ] } },
{ "type": "Feature", "properties": { "Postcode": "IV2 4BU" }, "geometry": { "type": "Point", "coordinates": [ -4.231673206109047, 57.454517510115068 ] } },
{ "type": "Feature", "properties": { "Postcode": "IV2 4BW" }, "geometry": { "type": "Point", "coordinates": [ -4.227511274435169, 57.454061004433377 ] } },
{ "type": "Feature", "properties": { "Postcode": "IV2 4BX" }, "geometry": { "type": "Point", "coordinates": [ -4.232689128231981, 57.453681840090937 ] } },
{ "type": "Feature", "properties": { "Postcode": "IV2 4BY" }, "geometry": { "type": "Point", "coordinates": [ -4.230465361045272, 57.452750792416381 ] } },
{ "type": "Feature", "properties": { "Postcode": "IV2 4BZ" }, "geometry": { "type": "Point", "coordinates": [ -4.228362403883282, 57.453255239206996 ] } },
{ "type": "Feature", "properties": { "Postcode": "IV2 4DA" }, "geometry": { "type": "Point", "coordinates": [ -4.22978135243579, 57.453562600992306 ] } },
{ "type": "Feature", "properties": { "Postcode": "IV2 4DB" }, "geometry": { "type": "Point", "coordinates": [ -4.229228188738603, 57.451595592301061 ] } },
{ "type": "Feature", "properties": { "Postcode": "IV2 4DD" }, "geometry": { "type": "Point", "coordinates": [ -4.231761934471539, 57.450229884055979 ] } },
{ "type": "Feature", "properties": { "Postcode": "IV2 4DE" }, "geometry": { "type": "Point", "coordinates": [ -4.231364644491134, 57.451369085293017 ] } },
{ "type": "Feature", "properties": { "Postcode": "IV2 4DF" }, "geometry": { "type": "Point", "coordinates": [ -4.234151980239461, 57.450609847654022 ] } },
{ "type": "Feature", "properties": { "Postcode": "IV2 4DG" }, "geometry": { "type": "Point", "coordinates": [ -4.232799731449303, 57.452215253464693 ] } },
{ "type": "Feature", "properties": { "Postcode": "IV2 4DH" }, "geometry": { "type": "Point", "coordinates": [ -4.23506721495109, 57.451950420340786 ] } },
{ "type": "Feature", "properties": { "Postcode": "IV2 4DJ" }, "geometry": { "type": "Point", "coordinates": [ -4.234615015110673, 57.452461625070605 ] } },
{ "type": "Feature", "properties": { "Postcode": "IV2 4DL" }, "geometry": { "type": "Point", "coordinates": [ -4.234419473258483, 57.453354651583282 ] } },
{ "type": "Feature", "properties": { "Postcode": "IV2 4DP" }, "geometry": { "type": "Point", "coordinates": [ -4.216472566005153, 57.468874868706685 ] } },
{ "type": "Feature", "properties": { "Postcode": "IV2 4DQ" }, "geometry": { "type": "Point", "coordinates": [ -4.23112642902775, 57.452110109224165 ] } },
{ "type": "Feature", "properties": { "Postcode": "IV2 4DR" }, "geometry": { "type": "Point", "coordinates": [ -4.209570556931253, 57.456479424161223 ] } },
{ "type": "Feature", "properties": { "Postcode": "IV2 4DS" }, "geometry": { "type": "Point", "coordinates": [ -4.208844722600821, 57.456330411215013 ] } },
{ "type": "Feature", "properties": { "Postcode": "IV2 4DU" }, "geometry": { "type": "Point", "coordinates": [ -4.232277851133009, 57.450490308974658 ] } },
{ "type": "Feature", "properties": { "Postcode": "IV2 4DX" }, "geometry": { "type": "Point", "coordinates": [ -4.232540578067319, 57.449605080956573 ] } },
{ "type": "Feature", "properties": { "Postcode": "IV2 4DZ" }, "geometry": { "type": "Point", "coordinates": [ -4.215209798190841, 57.454349727089351 ] } },
{ "type": "Feature", "properties": { "Postcode": "IV2 4EA" }, "geometry": { "type": "Point", "coordinates": [ -4.203117392313714, 57.45894656509455 ] } },
{ "type": "Feature", "properties": { "Postcode": "IV2 4EB" }, "geometry": { "type": "Point", "coordinates": [ -4.204687869725364, 57.459278516491317 ] } },
{ "type": "Feature", "properties": { "Postcode": "IV2 4ED" }, "geometry": { "type": "Point", "coordinates": [ -4.206575542353902, 57.458787227109504 ] } },
{ "type": "Feature", "properties": { "Postcode": "IV2 4EE" }, "geometry": { "type": "Point", "coordinates": [ -4.218651011801795, 57.461621275448387 ] } },
{ "type": "Feature", "properties": { "Postcode": "IV2 4EF" }, "geometry": { "type": "Point", "coordinates": [ -4.219037281665293, 57.459466965270572 ] } },
{ "type": "Feature", "properties": { "Postcode": "IV2 4EG" }, "geometry": { "type": "Point", "coordinates": [ -4.222287683321248, 57.458906510225297 ] } },
{ "type": "Feature", "properties": { "Postcode": "IV2 4EH" }, "geometry": { "type": "Point", "coordinates": [ -4.224499229536566, 57.457438813522977 ] } },
{ "type": "Feature", "properties": { "Postcode": "IV2 4EJ" }, "geometry": { "type": "Point", "coordinates": [ -4.223964480257136, 57.456594636968255 ] } },
{ "type": "Feature", "properties": { "Postcode": "IV2 4EL" }, "geometry": { "type": "Point", "coordinates": [ -4.223127650725631, 57.457364176395522 ] } },
{ "type": "Feature", "properties": { "Postcode": "IV2 4EN" }, "geometry": { "type": "Point", "coordinates": [ -4.224419060696822, 57.456119372491585 ] } },
{ "type": "Feature", "properties": { "Postcode": "IV2 4EP" }, "geometry": { "type": "Point", "coordinates": [ -4.22734393206997, 57.453228317572254 ] } },
{ "type": "Feature", "properties": { "Postcode": "IV2 4EQ" }, "geometry": { "type": "Point", "coordinates": [ -4.224072945595379, 57.458928930303223 ] } },
{ "type": "Feature", "properties": { "Postcode": "IV2 4ER" }, "geometry": { "type": "Point", "coordinates": [ -4.225157556699783, 57.455378516339216 ] } },
{ "type": "Feature", "properties": { "Postcode": "IV2 4ES" }, "geometry": { "type": "Point", "coordinates": [ -4.225741788625085, 57.454568496770577 ] } },
{ "type": "Feature", "properties": { "Postcode": "IV2 4ET" }, "geometry": { "type": "Point", "coordinates": [ -4.22647177233028, 57.453414452964374 ] } },
{ "type": "Feature", "properties": { "Postcode": "IV2 4EU" }, "geometry": { "type": "Point", "coordinates": [ -4.222999392092353, 57.4544282088223 ] } },
{ "type": "Feature", "properties": { "Postcode": "IV2 4EW" }, "geometry": { "type": "Point", "coordinates": [ -4.226250350737762, 57.454981828486702 ] } },
{ "type": "Feature", "properties": { "Postcode": "IV2 4EX" }, "geometry": { "type": "Point", "coordinates": [ -4.222116533077551, 57.45663621970769 ] } },
{ "type": "Feature", "properties": { "Postcode": "IV2 4FB" }, "geometry": { "type": "Point", "coordinates": [ -4.217492969129638, 57.454615075937909 ] } },
{ "type": "Feature", "properties": { "Postcode": "IV2 4FD" }, "geometry": { "type": "Point", "coordinates": [ -4.215405133047008, 57.468597116527469 ] } },
{ "type": "Feature", "properties": { "Postcode": "IV2 4FN" }, "geometry": { "type": "Point", "coordinates": [ -4.219219835143631, 57.469078121399427 ] } },
{ "type": "Feature", "properties": { "Postcode": "IV2 4FW" }, "geometry": { "type": "Point", "coordinates": [ -4.219377292028978, 57.453800174484904 ] } },
{ "type": "Feature", "properties": { "Postcode": "IV2 4GB" }, "geometry": { "type": "Point", "coordinates": [ -4.235844853781986, 57.459771934164529 ] } },
{ "type": "Feature", "properties": { "Postcode": "IV2 4GR" }, "geometry": { "type": "Point", "coordinates": [ -4.214245504392917, 57.459353565024507 ] } },
{ "type": "Feature", "properties": { "Postcode": "IV2 4GS" }, "geometry": { "type": "Point", "coordinates": [ -4.240803029896854, 57.443806561274023 ] } },
{ "type": "Feature", "properties": { "Postcode": "IV2 4GT" }, "geometry": { "type": "Point", "coordinates": [ -4.241691412888782, 57.444707277128828 ] } },
{ "type": "Feature", "properties": { "Postcode": "IV2 4GU" }, "geometry": { "type": "Point", "coordinates": [ -4.239708170354515, 57.445524281830245 ] } },
{ "type": "Feature", "properties": { "Postcode": "IV2 4GW" }, "geometry": { "type": "Point", "coordinates": [ -4.242544708135902, 57.447756139956653 ] } },
{ "type": "Feature", "properties": { "Postcode": "IV2 4GX" }, "geometry": { "type": "Point", "coordinates": [ -4.240662588492262, 57.44559716781049 ] } },
{ "type": "Feature", "properties": { "Postcode": "IV2 4GY" }, "geometry": { "type": "Point", "coordinates": [ -4.239759588900935, 57.44745524335022 ] } },
{ "type": "Feature", "properties": { "Postcode": "IV2 4GZ" }, "geometry": { "type": "Point", "coordinates": [ -4.242218042331188, 57.446503987048253 ] } },
{ "type": "Feature", "properties": { "Postcode": "IV2 4HA" }, "geometry": { "type": "Point", "coordinates": [ -4.215765076479283, 57.467656310302694 ] } },
{ "type": "Feature", "properties": { "Postcode": "IV2 4HB" }, "geometry": { "type": "Point", "coordinates": [ -4.237310831470428, 57.459206791681893 ] } },
{ "type": "Feature", "properties": { "Postcode": "IV2 4HD" }, "geometry": { "type": "Point", "coordinates": [ -4.219646643764848, 57.4678665642369 ] } },
{ "type": "Feature", "properties": { "Postcode": "IV2 4HE" }, "geometry": { "type": "Point", "coordinates": [ -4.218324321550247, 57.468060565141926 ] } },
{ "type": "Feature", "properties": { "Postcode": "IV2 4HF" }, "geometry": { "type": "Point", "coordinates": [ -4.215923668686432, 57.466970633397978 ] } },
{ "type": "Feature", "properties": { "Postcode": "IV2 4HG" }, "geometry": { "type": "Point", "coordinates": [ -4.214169159777143, 57.466911612116895 ] } },
{ "type": "Feature", "properties": { "Postcode": "IV2 4HH" }, "geometry": { "type": "Point", "coordinates": [ -4.216448644928369, 57.464625203235443 ] } },
{ "type": "Feature", "properties": { "Postcode": "IV2 4HJ" }, "geometry": { "type": "Point", "coordinates": [ -4.215817247921919, 57.46218329463327 ] } },
{ "type": "Feature", "properties": { "Postcode": "IV2 4HL" }, "geometry": { "type": "Point", "coordinates": [ -4.215475069830385, 57.461488449790131 ] } },
{ "type": "Feature", "properties": { "Postcode": "IV2 4HN" }, "geometry": { "type": "Point", "coordinates": [ -4.214585095494132, 57.461108733921129 ] } },
{ "type": "Feature", "properties": { "Postcode": "IV2 4HP" }, "geometry": { "type": "Point", "coordinates": [ -4.212848278554698, 57.460510263419806 ] } },
{ "type": "Feature", "properties": { "Postcode": "IV2 4HQ" }, "geometry": { "type": "Point", "coordinates": [ -4.217678456438775, 57.46593340826881 ] } },
{ "type": "Feature", "properties": { "Postcode": "IV2 4HR" }, "geometry": { "type": "Point", "coordinates": [ -4.213603351043512, 57.460865404530765 ] } },
{ "type": "Feature", "properties": { "Postcode": "IV2 4HS" }, "geometry": { "type": "Point", "coordinates": [ -4.215297457640094, 57.460206661419157 ] } },
{ "type": "Feature", "properties": { "Postcode": "IV2 4HT" }, "geometry": { "type": "Point", "coordinates": [ -4.213481741584613, 57.459681469787846 ] } },
{ "type": "Feature", "properties": { "Postcode": "IV2 4HU" }, "geometry": { "type": "Point", "coordinates": [ -4.216024455666109, 57.459546932617599 ] } },
{ "type": "Feature", "properties": { "Postcode": "IV2 4HW" }, "geometry": { "type": "Point", "coordinates": [ -4.213375403444268, 57.461507370009159 ] } },
{ "type": "Feature", "properties": { "Postcode": "IV2 4HX" }, "geometry": { "type": "Point", "coordinates": [ -4.215221956903311, 57.458959019490166 ] } },
{ "type": "Feature", "properties": { "Postcode": "IV2 4HZ" }, "geometry": { "type": "Point", "coordinates": [ -4.217211764805366, 57.45878026262622 ] } },
{ "type": "Feature", "properties": { "Postcode": "IV2 4JA" }, "geometry": { "type": "Point", "coordinates": [ -4.215355365303866, 57.458408565716496 ] } },
{ "type": "Feature", "properties": { "Postcode": "IV2 4JB" }, "geometry": { "type": "Point", "coordinates": [ -4.216311514617468, 57.458230017628367 ] } },
{ "type": "Feature", "properties": { "Postcode": "IV2 4JD" }, "geometry": { "type": "Point", "coordinates": [ -4.218182790573143, 57.45692116915297 ] } },
{ "type": "Feature", "properties": { "Postcode": "IV2 4JE" }, "geometry": { "type": "Point", "coordinates": [ -4.216730149963206, 57.456883831046653 ] } },
{ "type": "Feature", "properties": { "Postcode": "IV2 4JF" }, "geometry": { "type": "Point", "coordinates": [ -4.217676948938261, 57.455726028065236 ] } },
{ "type": "Feature", "properties": { "Postcode": "IV2 4JG" }, "geometry": { "type": "Point", "coordinates": [ -4.21590454831264, 57.457015160420042 ] } },
{ "type": "Feature", "properties": { "Postcode": "IV2 4JH" }, "geometry": { "type": "Point", "coordinates": [ -4.214426730851502, 57.457939675051961 ] } },
{ "type": "Feature", "properties": { "Postcode": "IV2 4JJ" }, "geometry": { "type": "Point", "coordinates": [ -4.217338528708476, 57.45949686398135 ] } },
{ "type": "Feature", "properties": { "Postcode": "IV2 4JL" }, "geometry": { "type": "Point", "coordinates": [ -4.216854506533307, 57.460314064065273 ] } },
{ "type": "Feature", "properties": { "Postcode": "IV2 4JN" }, "geometry": { "type": "Point", "coordinates": [ -4.216652709302034, 57.461386874908939 ] } },
{ "type": "Feature", "properties": { "Postcode": "IV2 4JP" }, "geometry": { "type": "Point", "coordinates": [ -4.204933664299321, 57.461421717862549 ] } },
{ "type": "Feature", "properties": { "Postcode": "IV2 4JQ" }, "geometry": { "type": "Point", "coordinates": [ -4.215570408921902, 57.457829720418005 ] } },
{ "type": "Feature", "properties": { "Postcode": "IV2 4JR" }, "geometry": { "type": "Point", "coordinates": [ -4.225822137379293, 57.46000325580701 ] } },
{ "type": "Feature", "properties": { "Postcode": "IV2 4JS" }, "geometry": { "type": "Point", "coordinates": [ -4.227391220660896, 57.460307995158331 ] } },
{ "type": "Feature", "properties": { "Postcode": "IV2 4JT" }, "geometry": { "type": "Point", "coordinates": [ -4.228341307768675, 57.458934401719425 ] } },
{ "type": "Feature", "properties": { "Postcode": "IV2 4JU" }, "geometry": { "type": "Point", "coordinates": [ -4.240803350525497, 57.452801009029244 ] } },
{ "type": "Feature", "properties": { "Postcode": "IV2 4JW" }, "geometry": { "type": "Point", "coordinates": [ -4.206129955800709, 57.462182510110821 ] } },
{ "type": "Feature", "properties": { "Postcode": "IV2 4JY" }, "geometry": { "type": "Point", "coordinates": [ -4.231796046313596, 57.458720518095539 ] } },
{ "type": "Feature", "properties": { "Postcode": "IV2 4JZ" }, "geometry": { "type": "Point", "coordinates": [ -4.233877563933341, 57.458953203070983 ] } },
{ "type": "Feature", "properties": { "Postcode": "IV2 4LA" }, "geometry": { "type": "Point", "coordinates": [ -4.230440163454709, 57.457810037056952 ] } },
{ "type": "Feature", "properties": { "Postcode": "IV2 4LB" }, "geometry": { "type": "Point", "coordinates": [ -4.230429075153469, 57.455986190852663 ] } },
{ "type": "Feature", "properties": { "Postcode": "IV2 4LD" }, "geometry": { "type": "Point", "coordinates": [ -4.230898387705794, 57.456301359380838 ] } },
{ "type": "Feature", "properties": { "Postcode": "IV2 4LE" }, "geometry": { "type": "Point", "coordinates": [ -4.23190255523821, 57.456912559795285 ] } },
{ "type": "Feature", "properties": { "Postcode": "IV2 4LF" }, "geometry": { "type": "Point", "coordinates": [ -4.232499412112866, 57.45740517242028 ] } },
{ "type": "Feature", "properties": { "Postcode": "IV2 4LG" }, "geometry": { "type": "Point", "coordinates": [ -4.235120557590615, 57.457466537763729 ] } },
{ "type": "Feature", "properties": { "Postcode": "IV2 4LH" }, "geometry": { "type": "Point", "coordinates": [ -4.235929311183565, 57.456787268653827 ] } },
{ "type": "Feature", "properties": { "Postcode": "IV2 4LL" }, "geometry": { "type": "Point", "coordinates": [ -4.236268606309625, 57.454427061182763 ] } },
{ "type": "Feature", "properties": { "Postcode": "IV2 4LN" }, "geometry": { "type": "Point", "coordinates": [ -4.235153473653794, 57.45445583021025 ] } },
{ "type": "Feature", "properties": { "Postcode": "IV2 4LP" }, "geometry": { "type": "Point", "coordinates": [ -4.238625495280332, 57.454259418699067 ] } },
{ "type": "Feature", "properties": { "Postcode": "IV2 4LQ" }, "geometry": { "type": "Point", "coordinates": [ -4.236646082466372, 57.45733164729922 ] } },
{ "type": "Feature", "properties": { "Postcode": "IV2 4LR" }, "geometry": { "type": "Point", "coordinates": [ -4.238811047733611, 57.454022500520011 ] } },
{ "type": "Feature", "properties": { "Postcode": "IV2 4LS" }, "geometry": { "type": "Point", "coordinates": [ -4.238837590115029, 57.453366090658129 ] } },
{ "type": "Feature", "properties": { "Postcode": "IV2 4LT" }, "geometry": { "type": "Point", "coordinates": [ -4.235539675857019, 57.458869818273037 ] } },
{ "type": "Feature", "properties": { "Postcode": "IV2 4LU" }, "geometry": { "type": "Point", "coordinates": [ -4.234776880702469, 57.458937259338924 ] } },
{ "type": "Feature", "properties": { "Postcode": "IV2 4LW" }, "geometry": { "type": "Point", "coordinates": [ -4.234968893749135, 57.455528371820201 ] } },
{ "type": "Feature", "properties": { "Postcode": "IV2 4LX" }, "geometry": { "type": "Point", "coordinates": [ -4.237085597503514, 57.45524820755108 ] } },
{ "type": "Feature", "properties": { "Postcode": "IV2 4LY" }, "geometry": { "type": "Point", "coordinates": [ -4.236480036107082, 57.458161255084399 ] } },
{ "type": "Feature", "properties": { "Postcode": "IV2 4LZ" }, "geometry": { "type": "Point", "coordinates": [ -4.23781332747656, 57.455972094020048 ] } },
{ "type": "Feature", "properties": { "Postcode": "IV2 4NA" }, "geometry": { "type": "Point", "coordinates": [ -4.21995245096576, 57.46521048806261 ] } },
{ "type": "Feature", "properties": { "Postcode": "IV2 4NB" }, "geometry": { "type": "Point", "coordinates": [ -4.222882263944108, 57.464305238711631 ] } },
{ "type": "Feature", "properties": { "Postcode": "IV2 4ND" }, "geometry": { "type": "Point", "coordinates": [ -4.223104628283774, 57.466044484795759 ] } },
{ "type": "Feature", "properties": { "Postcode": "IV2 4NE" }, "geometry": { "type": "Point", "coordinates": [ -4.223415469556805, 57.465122490915 ] } },
{ "type": "Feature", "properties": { "Postcode": "IV2 4NF" }, "geometry": { "type": "Point", "coordinates": [ -4.221691084047849, 57.463086255853398 ] } },
{ "type": "Feature", "properties": { "Postcode": "IV2 4NG" }, "geometry": { "type": "Point", "coordinates": [ -4.220198572587367, 57.463220380520539 ] } },
{ "type": "Feature", "properties": { "Postcode": "IV2 4NH" }, "geometry": { "type": "Point", "coordinates": [ -4.218410925921084, 57.463162003799184 ] } },
{ "type": "Feature", "properties": { "Postcode": "IV2 4NJ" }, "geometry": { "type": "Point", "coordinates": [ -4.222322209093308, 57.462221516043194 ] } },
{ "type": "Feature", "properties": { "Postcode": "IV2 4NL" }, "geometry": { "type": "Point", "coordinates": [ -4.223286791166049, 57.463004205504149 ] } },
{ "type": "Feature", "properties": { "Postcode": "IV2 4NN" }, "geometry": { "type": "Point", "coordinates": [ -4.220419108134592, 57.462183174763332 ] } },
{ "type": "Feature", "properties": { "Postcode": "IV2 4NP" }, "geometry": { "type": "Point", "coordinates": [ -4.220052242516572, 57.461632542744752 ] } },
{ "type": "Feature", "properties": { "Postcode": "IV2 4NQ" }, "geometry": { "type": "Point", "coordinates": [ -4.218520195434378, 57.464139488211778 ] } },
{ "type": "Feature", "properties": { "Postcode": "IV2 4NR" }, "geometry": { "type": "Point", "coordinates": [ -4.220443134217097, 57.460655233551677 ] } },
{ "type": "Feature", "properties": { "Postcode": "IV2 4NS" }, "geometry": { "type": "Point", "coordinates": [ -4.221396592699488, 57.460431767673668 ] } },
{ "type": "Feature", "properties": { "Postcode": "IV2 4NT" }, "geometry": { "type": "Point", "coordinates": [ -4.223668637328587, 57.461604731154139 ] } },
{ "type": "Feature", "properties": { "Postcode": "IV2 4NU" }, "geometry": { "type": "Point", "coordinates": [ -4.223575349375777, 57.460617982145067 ] } },
{ "type": "Feature", "properties": { "Postcode": "IV2 4NW" }, "geometry": { "type": "Point", "coordinates": [ -4.221196648308549, 57.460983401200949 ] } },
{ "type": "Feature", "properties": { "Postcode": "IV2 4NX" }, "geometry": { "type": "Point", "coordinates": [ -4.224354272194446, 57.461089449477726 ] } },
{ "type": "Feature", "properties": { "Postcode": "IV2 4NY" }, "geometry": { "type": "Point", "coordinates": [ -4.224232607724025, 57.459635960142244 ] } },
{ "type": "Feature", "properties": { "Postcode": "IV2 4NZ" }, "geometry": { "type": "Point", "coordinates": [ -4.227193536903654, 57.458154988010605 ] } },
{ "type": "Feature", "properties": { "Postcode": "IV2 4PA" }, "geometry": { "type": "Point", "coordinates": [ -4.219393411488136, 57.464240925221752 ] } },
{ "type": "Feature", "properties": { "Postcode": "IV2 4PB" }, "geometry": { "type": "Point", "coordinates": [ -4.212773829216131, 57.458175371099323 ] } },
{ "type": "Feature", "properties": { "Postcode": "IV2 4PD" }, "geometry": { "type": "Point", "coordinates": [ -4.219483231187821, 57.462972402969115 ] } },
{ "type": "Feature", "properties": { "Postcode": "IV2 4PE" }, "geometry": { "type": "Point", "coordinates": [ -4.241112808686553, 57.449686534920225 ] } },
{ "type": "Feature", "properties": { "Postcode": "IV2 4PF" }, "geometry": { "type": "Point", "coordinates": [ -4.204144613033224, 57.460501042216606 ] } },
{ "type": "Feature", "properties": { "Postcode": "IV2 4PG" }, "geometry": { "type": "Point", "coordinates": [ -4.214360645812504, 57.458776477275975 ] } },
{ "type": "Feature", "properties": { "Postcode": "IV2 4PH" }, "geometry": { "type": "Point", "coordinates": [ -4.211423852747828, 57.459286297386434 ] } },
{ "type": "Feature", "properties": { "Postcode": "IV2 4PJ" }, "geometry": { "type": "Point", "coordinates": [ -4.210191027469445, 57.459577484670142 ] } },
{ "type": "Feature", "properties": { "Postcode": "IV2 4PL" }, "geometry": { "type": "Point", "coordinates": [ -4.208418191625878, 57.459761313450493 ] } },
{ "type": "Feature", "properties": { "Postcode": "IV2 4PN" }, "geometry": { "type": "Point", "coordinates": [ -4.207074032214729, 57.459865727909026 ] } },
{ "type": "Feature", "properties": { "Postcode": "IV2 4PP" }, "geometry": { "type": "Point", "coordinates": [ -4.209399857874453, 57.458899483006959 ] } },
{ "type": "Feature", "properties": { "Postcode": "IV2 4PQ" }, "geometry": { "type": "Point", "coordinates": [ -4.212982147347666, 57.458863587899039 ] } },
{ "type": "Feature", "properties": { "Postcode": "IV2 4PR" }, "geometry": { "type": "Point", "coordinates": [ -4.209213677282132, 57.458300726675816 ] } },
{ "type": "Feature", "properties": { "Postcode": "IV2 4PS" }, "geometry": { "type": "Point", "coordinates": [ -4.206393659947675, 57.45936547490308 ] } },
{ "type": "Feature", "properties": { "Postcode": "IV2 4PT" }, "geometry": { "type": "Point", "coordinates": [ -4.207159715208543, 57.460457261633564 ] } },
{ "type": "Feature", "properties": { "Postcode": "IV2 4PU" }, "geometry": { "type": "Point", "coordinates": [ -4.206301034944153, 57.461424744956417 ] } },
{ "type": "Feature", "properties": { "Postcode": "IV2 4PW" }, "geometry": { "type": "Point", "coordinates": [ -4.207706118170646, 57.459288578954521 ] } },
{ "type": "Feature", "properties": { "Postcode": "IV2 4PX" }, "geometry": { "type": "Point", "coordinates": [ -4.207415326036726, 57.461378277776596 ] } },
{ "type": "Feature", "properties": { "Postcode": "IV2 4PY" }, "geometry": { "type": "Point", "coordinates": [ -4.209032252341768, 57.460819811185097 ] } },
{ "type": "Feature", "properties": { "Postcode": "IV2 4PZ" }, "geometry": { "type": "Point", "coordinates": [ -4.210415712877326, 57.460813526009275 ] } },
{ "type": "Feature", "properties": { "Postcode": "IV2 4QA" }, "geometry": { "type": "Point", "coordinates": [ -4.209768756796241, 57.461696451979073 ] } },
{ "type": "Feature", "properties": { "Postcode": "IV2 4QB" }, "geometry": { "type": "Point", "coordinates": [ -4.208280324663825, 57.461345154225761 ] } },
{ "type": "Feature", "properties": { "Postcode": "IV2 4QD" }, "geometry": { "type": "Point", "coordinates": [ -4.211209501143419, 57.461257856022435 ] } },
{ "type": "Feature", "properties": { "Postcode": "IV2 4QE" }, "geometry": { "type": "Point", "coordinates": [ -4.212316081317491, 57.459980483632549 ] } },
{ "type": "Feature", "properties": { "Postcode": "IV2 4QF" }, "geometry": { "type": "Point", "coordinates": [ -4.21057221081626, 57.460091951162582 ] } },
{ "type": "Feature", "properties": { "Postcode": "IV2 4QG" }, "geometry": { "type": "Point", "coordinates": [ -4.238869818640864, 57.451712193834318 ] } },
{ "type": "Feature", "properties": { "Postcode": "IV2 4QH" }, "geometry": { "type": "Point", "coordinates": [ -4.223672224721675, 57.452331721311694 ] } },
{ "type": "Feature", "properties": { "Postcode": "IV2 4QJ" }, "geometry": { "type": "Point", "coordinates": [ -4.241623790169918, 57.449048463109563 ] } },
{ "type": "Feature", "properties": { "Postcode": "IV2 4QL" }, "geometry": { "type": "Point", "coordinates": [ -4.217310536527678, 57.454905818729273 ] } },
{ "type": "Feature", "properties": { "Postcode": "IV2 4QN" }, "geometry": { "type": "Point", "coordinates": [ -4.226343243054981, 57.46665224216212 ] } },
{ "type": "Feature", "properties": { "Postcode": "IV2 4QP" }, "geometry": { "type": "Point", "coordinates": [ -4.226124854800138, 57.463061935384395 ] } },
{ "type": "Feature", "properties": { "Postcode": "IV2 4QQ" }, "geometry": { "type": "Point", "coordinates": [ -4.240429642206919, 57.450507375216695 ] } },
{ "type": "Feature", "properties": { "Postcode": "IV2 4QR" }, "geometry": { "type": "Point", "coordinates": [ -4.230000037139315, 57.460711133143576 ] } },
{ "type": "Feature", "properties": { "Postcode": "IV2 4QS" }, "geometry": { "type": "Point", "coordinates": [ -4.230663418254196, 57.462568362160766 ] } },
{ "type": "Feature", "properties": { "Postcode": "IV2 4QT" }, "geometry": { "type": "Point", "coordinates": [ -4.233109791197956, 57.460305639326869 ] } },
{ "type": "Feature", "properties": { "Postcode": "IV2 4QU" }, "geometry": { "type": "Point", "coordinates": [ -4.239257162265132, 57.458318606838588 ] } },
{ "type": "Feature", "properties": { "Postcode": "IV2 4QW" }, "geometry": { "type": "Point", "coordinates": [ -4.227284218271863, 57.462933627933481 ] } },
{ "type": "Feature", "properties": { "Postcode": "IV2 4QX" }, "geometry": { "type": "Point", "coordinates": [ -4.239485185513771, 57.45768557340832 ] } },
{ "type": "Feature", "properties": { "Postcode": "IV2 4QY" }, "geometry": { "type": "Point", "coordinates": [ -4.240732958170829, 57.449199089446665 ] } },
{ "type": "Feature", "properties": { "Postcode": "IV2 4QZ" }, "geometry": { "type": "Point", "coordinates": [ -4.241189535690291, 57.458293242947875 ] } },
{ "type": "Feature", "properties": { "Postcode": "IV2 4RA" }, "geometry": { "type": "Point", "coordinates": [ -4.242292844856397, 57.457797388136527 ] } },
{ "type": "Feature", "properties": { "Postcode": "IV2 4RB" }, "geometry": { "type": "Point", "coordinates": [ -4.243385460644816, 57.458487794786059 ] } },
{ "type": "Feature", "properties": { "Postcode": "IV2 4RD" }, "geometry": { "type": "Point", "coordinates": [ -4.241307713968157, 57.457500421009314 ] } },
{ "type": "Feature", "properties": { "Postcode": "IV2 4RE" }, "geometry": { "type": "Point", "coordinates": [ -4.240626171043975, 57.456443270733899 ] } },
{ "type": "Feature", "properties": { "Postcode": "IV2 4RF" }, "geometry": { "type": "Point", "coordinates": [ -4.241424406290882, 57.456411105084477 ] } },
{ "type": "Feature", "properties": { "Postcode": "IV2 4RG" }, "geometry": { "type": "Point", "coordinates": [ -4.241502125856621, 57.455502191245408 ] } },
{ "type": "Feature", "properties": { "Postcode": "IV2 4RH" }, "geometry": { "type": "Point", "coordinates": [ -4.242432069321111, 57.455171155957295 ] } },
{ "type": "Feature", "properties": { "Postcode": "IV2 4RJ" }, "geometry": { "type": "Point", "coordinates": [ -4.243974316280855, 57.453679072077037 ] } },
{ "type": "Feature", "properties": { "Postcode": "IV2 4RL" }, "geometry": { "type": "Point", "coordinates": [ -4.242933048062944, 57.454641083456643 ] } },
{ "type": "Feature", "properties": { "Postcode": "IV2 4RN" }, "geometry": { "type": "Point", "coordinates": [ -4.243554974338097, 57.454180739296838 ] } },
{ "type": "Feature", "properties": { "Postcode": "IV2 4RP" }, "geometry": { "type": "Point", "coordinates": [ -4.243935465623623, 57.454677150932135 ] } },
{ "type": "Feature", "properties": { "Postcode": "IV2 4RQ" }, "geometry": { "type": "Point", "coordinates": [ -4.242132979267544, 57.454098222017549 ] } },
{ "type": "Feature", "properties": { "Postcode": "IV2 4RR" }, "geometry": { "type": "Point", "coordinates": [ -4.239120642019424, 57.457449443620959 ] } },
{ "type": "Feature", "properties": { "Postcode": "IV2 4RT" }, "geometry": { "type": "Point", "coordinates": [ -4.228218061140257, 57.463483203237722 ] } },
{ "type": "Feature", "properties": { "Postcode": "IV2 4RU" }, "geometry": { "type": "Point", "coordinates": [ -4.226056640563757, 57.451247313923439 ] } },
{ "type": "Feature", "properties": { "Postcode": "IV2 4RW" }, "geometry": { "type": "Point", "coordinates": [ -4.2445923340068, 57.454243135740903 ] } },
{ "type": "Feature", "properties": { "Postcode": "IV2 4RY" }, "geometry": { "type": "Point", "coordinates": [ -4.225064598932756, 57.453025977542374 ] } },
{ "type": "Feature", "properties": { "Postcode": "IV2 4RZ" }, "geometry": { "type": "Point", "coordinates": [ -4.227632986690237, 57.451129603191823 ] } },
{ "type": "Feature", "properties": { "Postcode": "IV2 4SA" }, "geometry": { "type": "Point", "coordinates": [ -4.225299782278013, 57.474721587654706 ] } },
{ "type": "Feature", "properties": { "Postcode": "IV2 4SB" }, "geometry": { "type": "Point", "coordinates": [ -4.226390473278157, 57.467702700640608 ] } },
{ "type": "Feature", "properties": { "Postcode": "IV2 4SD" }, "geometry": { "type": "Point", "coordinates": [ -4.22589497453898, 57.473264430509673 ] } },
{ "type": "Feature", "properties": { "Postcode": "IV2 4SE" }, "geometry": { "type": "Point", "coordinates": [ -4.225892500391139, 57.474046203881933 ] } },
{ "type": "Feature", "properties": { "Postcode": "IV2 4SF" }, "geometry": { "type": "Point", "coordinates": [ -4.227548453235905, 57.472480449223461 ] } },
{ "type": "Feature", "properties": { "Postcode": "IV2 4SG" }, "geometry": { "type": "Point", "coordinates": [ -4.226305747678367, 57.473984993945848 ] } },
{ "type": "Feature", "properties": { "Postcode": "IV2 4SH" }, "geometry": { "type": "Point", "coordinates": [ -4.226468545250614, 57.471726783041525 ] } },
{ "type": "Feature", "properties": { "Postcode": "IV2 4SJ" }, "geometry": { "type": "Point", "coordinates": [ -4.22651606588537, 57.471959564158482 ] } },
{ "type": "Feature", "properties": { "Postcode": "IV2 4SL" }, "geometry": { "type": "Point", "coordinates": [ -4.226502136790908, 57.4720047371977 ] } },
{ "type": "Feature", "properties": { "Postcode": "IV2 4SN" }, "geometry": { "type": "Point", "coordinates": [ -4.225686059850396, 57.472297696157824 ] } },
{ "type": "Feature", "properties": { "Postcode": "IV2 4SP" }, "geometry": { "type": "Point", "coordinates": [ -4.225550875956242, 57.471994579336823 ] } },
{ "type": "Feature", "properties": { "Postcode": "IV2 4SQ" }, "geometry": { "type": "Point", "coordinates": [ -4.226742477729616, 57.471569192522622 ] } },
{ "type": "Feature", "properties": { "Postcode": "IV2 4SR" }, "geometry": { "type": "Point", "coordinates": [ -4.225607142791828, 57.471822863317641 ] } },
{ "type": "Feature", "properties": { "Postcode": "IV2 4SS" }, "geometry": { "type": "Point", "coordinates": [ -4.225050813674739, 57.471724859710214 ] } },
{ "type": "Feature", "properties": { "Postcode": "IV2 4ST" }, "geometry": { "type": "Point", "coordinates": [ -4.22441969708771, 57.47094528319586 ] } },
{ "type": "Feature", "properties": { "Postcode": "IV2 4SU" }, "geometry": { "type": "Point", "coordinates": [ -4.226083191970814, 57.47114953767786 ] } },
{ "type": "Feature", "properties": { "Postcode": "IV2 4SW" }, "geometry": { "type": "Point", "coordinates": [ -4.225299054214971, 57.472241630835143 ] } },
{ "type": "Feature", "properties": { "Postcode": "IV2 4SX" }, "geometry": { "type": "Point", "coordinates": [ -4.226780712401811, 57.471101276110559 ] } },
{ "type": "Feature", "properties": { "Postcode": "IV2 4SY" }, "geometry": { "type": "Point", "coordinates": [ -4.227577908776467, 57.470772701669951 ] } },
{ "type": "Feature", "properties": { "Postcode": "IV2 4SZ" }, "geometry": { "type": "Point", "coordinates": [ -4.225998812262298, 57.470584947424065 ] } },
{ "type": "Feature", "properties": { "Postcode": "IV2 4TA" }, "geometry": { "type": "Point", "coordinates": [ -4.224779746723817, 57.469186776000114 ] } },
{ "type": "Feature", "properties": { "Postcode": "IV2 4TB" }, "geometry": { "type": "Point", "coordinates": [ -4.227655994028141, 57.469863795611218 ] } },
{ "type": "Feature", "properties": { "Postcode": "IV2 4TD" }, "geometry": { "type": "Point", "coordinates": [ -4.225237305049149, 57.472871698772373 ] } },
{ "type": "Feature", "properties": { "Postcode": "IV2 4TE" }, "geometry": { "type": "Point", "coordinates": [ -4.225781946196993, 57.471406448470574 ] } },
{ "type": "Feature", "properties": { "Postcode": "IV2 4TG" }, "geometry": { "type": "Point", "coordinates": [ -4.225556831850352, 57.473737641546087 ] } },
{ "type": "Feature", "properties": { "Postcode": "IV2 4TH" }, "geometry": { "type": "Point", "coordinates": [ -4.215723374653083, 57.465590405694449 ] } },
{ "type": "Feature", "properties": { "Postcode": "IV2 4TJ" }, "geometry": { "type": "Point", "coordinates": [ -4.213893596656836, 57.466215593079212 ] } },
{ "type": "Feature", "properties": { "Postcode": "IV2 4TL" }, "geometry": { "type": "Point", "coordinates": [ -4.213111982409851, 57.46569918205789 ] } },
{ "type": "Feature", "properties": { "Postcode": "IV2 4TN" }, "geometry": { "type": "Point", "coordinates": [ -4.211871744907815, 57.465595157187082 ] } },
{ "type": "Feature", "properties": { "Postcode": "IV2 4TP" }, "geometry": { "type": "Point", "coordinates": [ -4.210562960465399, 57.464908273351988 ] } },
{ "type": "Feature", "properties": { "Postcode": "IV2 4TR" }, "geometry": { "type": "Point", "coordinates": [ -4.210420439589194, 57.463652820974701 ] } },
{ "type": "Feature", "properties": { "Postcode": "IV2 4TS" }, "geometry": { "type": "Point", "coordinates": [ -4.20904214512946, 57.462365121474775 ] } },
{ "type": "Feature", "properties": { "Postcode": "IV2 4TT" }, "geometry": { "type": "Point", "coordinates": [ -4.207797286338946, 57.46245881680079 ] } },
{ "type": "Feature", "properties": { "Postcode": "IV2 4TU" }, "geometry": { "type": "Point", "coordinates": [ -4.208178486941894, 57.461868089846938 ] } },
{ "type": "Feature", "properties": { "Postcode": "IV2 4TW" }, "geometry": { "type": "Point", "coordinates": [ -4.211532705745407, 57.464675613006627 ] } },
{ "type": "Feature", "properties": { "Postcode": "IV2 4TX" }, "geometry": { "type": "Point", "coordinates": [ -4.208283950776113, 57.463339842255863 ] } },
{ "type": "Feature", "properties": { "Postcode": "IV2 4TY" }, "geometry": { "type": "Point", "coordinates": [ -4.209790717207301, 57.462612574838275 ] } },
{ "type": "Feature", "properties": { "Postcode": "IV2 4TZ" }, "geometry": { "type": "Point", "coordinates": [ -4.211021478619835, 57.462285487395008 ] } },
{ "type": "Feature", "properties": { "Postcode": "IV2 4UA" }, "geometry": { "type": "Point", "coordinates": [ -4.210968865146563, 57.463346684458408 ] } },
{ "type": "Feature", "properties": { "Postcode": "IV2 4UB" }, "geometry": { "type": "Point", "coordinates": [ -4.21298915684154, 57.46339209678893 ] } },
{ "type": "Feature", "properties": { "Postcode": "IV2 4UD" }, "geometry": { "type": "Point", "coordinates": [ -4.214181906522027, 57.462436669156453 ] } },
{ "type": "Feature", "properties": { "Postcode": "IV2 4UE" }, "geometry": { "type": "Point", "coordinates": [ -4.212272451511941, 57.462569038604634 ] } },
{ "type": "Feature", "properties": { "Postcode": "IV2 4UF" }, "geometry": { "type": "Point", "coordinates": [ -4.211613723788322, 57.461601193209084 ] } },
{ "type": "Feature", "properties": { "Postcode": "IV2 4UG" }, "geometry": { "type": "Point", "coordinates": [ -4.212791921085311, 57.46150863015351 ] } },
{ "type": "Feature", "properties": { "Postcode": "IV2 4UH" }, "geometry": { "type": "Point", "coordinates": [ -4.214990802093669, 57.462853754540653 ] } },
{ "type": "Feature", "properties": { "Postcode": "IV2 4UJ" }, "geometry": { "type": "Point", "coordinates": [ -4.215363753413219, 57.462955024347799 ] } },
{ "type": "Feature", "properties": { "Postcode": "IV2 4UL" }, "geometry": { "type": "Point", "coordinates": [ -4.214720321718021, 57.463343718357372 ] } },
{ "type": "Feature", "properties": { "Postcode": "IV2 4UN" }, "geometry": { "type": "Point", "coordinates": [ -4.213819082315322, 57.463054048540229 ] } },
{ "type": "Feature", "properties": { "Postcode": "IV2 4UP" }, "geometry": { "type": "Point", "coordinates": [ -4.214648262399431, 57.464081785866547 ] } },
{ "type": "Feature", "properties": { "Postcode": "IV2 4UQ" }, "geometry": { "type": "Point", "coordinates": [ -4.213554613077698, 57.461989433281268 ] } },
{ "type": "Feature", "properties": { "Postcode": "IV2 4UR" }, "geometry": { "type": "Point", "coordinates": [ -4.213830982761286, 57.464904827702135 ] } },
{ "type": "Feature", "properties": { "Postcode": "IV2 4US" }, "geometry": { "type": "Point", "coordinates": [ -4.2105779745074, 57.458806941187639 ] } },
{ "type": "Feature", "properties": { "Postcode": "IV2 4UW" }, "geometry": { "type": "Point", "coordinates": [ -4.21377994859467, 57.464061098458984 ] } },
{ "type": "Feature", "properties": { "Postcode": "IV2 4UY" }, "geometry": { "type": "Point", "coordinates": [ -4.227447372034198, 57.450818394253524 ] } },
{ "type": "Feature", "properties": { "Postcode": "IV2 4WN" }, "geometry": { "type": "Point", "coordinates": [ -4.22609935344241, 57.4683997186645 ] } },
{ "type": "Feature", "properties": { "Postcode": "IV2 4WS" }, "geometry": { "type": "Point", "coordinates": [ -4.217948566892112, 57.452504474033013 ] } },
{ "type": "Feature", "properties": { "Postcode": "IV2 4WY" }, "geometry": { "type": "Point", "coordinates": [ -4.226318547963474, 57.479402961711841 ] } },
{ "type": "Feature", "properties": { "Postcode": "IV2 4XA" }, "geometry": { "type": "Point", "coordinates": [ -4.219594831352317, 57.471686266195611 ] } },
{ "type": "Feature", "properties": { "Postcode": "IV2 4XB" }, "geometry": { "type": "Point", "coordinates": [ -4.233103404372663, 57.461294150112209 ] } },
{ "type": "Feature", "properties": { "Postcode": "IV2 4XE" }, "geometry": { "type": "Point", "coordinates": [ -4.244381475678981, 57.455154423705871 ] } },
{ "type": "Feature", "properties": { "Postcode": "IV2 4XG" }, "geometry": { "type": "Point", "coordinates": [ -4.245531437548498, 57.453246988668475 ] } },
{ "type": "Feature", "properties": { "Postcode": "IV2 4XH" }, "geometry": { "type": "Point", "coordinates": [ -4.246453157980459, 57.452511722663317 ] } },
{ "type": "Feature", "properties": { "Postcode": "IV2 4XJ" }, "geometry": { "type": "Point", "coordinates": [ -4.245750514757582, 57.452470333791297 ] } },
{ "type": "Feature", "properties": { "Postcode": "IV2 4XL" }, "geometry": { "type": "Point", "coordinates": [ -4.244367714156981, 57.450850627948164 ] } },
{ "type": "Feature", "properties": { "Postcode": "IV2 4XN" }, "geometry": { "type": "Point", "coordinates": [ -4.245563363775852, 57.451593092304805 ] } },
{ "type": "Feature", "properties": { "Postcode": "IV2 4XP" }, "geometry": { "type": "Point", "coordinates": [ -4.244395039388594, 57.452656221350381 ] } },
{ "type": "Feature", "properties": { "Postcode": "IV2 4XQ" }, "geometry": { "type": "Point", "coordinates": [ -4.247014586824789, 57.451881714805772 ] } },
{ "type": "Feature", "properties": { "Postcode": "IV2 4XR" }, "geometry": { "type": "Point", "coordinates": [ -4.24465708122521, 57.451492427915689 ] } },
{ "type": "Feature", "properties": { "Postcode": "IV2 4XS" }, "geometry": { "type": "Point", "coordinates": [ -4.243352841682738, 57.451425798764646 ] } },
{ "type": "Feature", "properties": { "Postcode": "IV2 4XT" }, "geometry": { "type": "Point", "coordinates": [ -4.248118101086384, 57.450307543962168 ] } },
{ "type": "Feature", "properties": { "Postcode": "IV2 4XU" }, "geometry": { "type": "Point", "coordinates": [ -4.245987457726109, 57.450354523689676 ] } },
{ "type": "Feature", "properties": { "Postcode": "IV2 4XW" }, "geometry": { "type": "Point", "coordinates": [ -4.243362674220523, 57.452674604056647 ] } },
{ "type": "Feature", "properties": { "Postcode": "IV2 4YG" }, "geometry": { "type": "Point", "coordinates": [ -4.226333939147383, 57.452518345611715 ] } },
{ "type": "Feature", "properties": { "Postcode": "IV2 4YJ" }, "geometry": { "type": "Point", "coordinates": [ -4.236751485655471, 57.452235026654776 ] } },
{ "type": "Feature", "properties": { "Postcode": "IV2 4YL" }, "geometry": { "type": "Point", "coordinates": [ -4.242082843293037, 57.451646081886011 ] } },
{ "type": "Feature", "properties": { "Postcode": "IV2 4YR" }, "geometry": { "type": "Point", "coordinates": [ -4.221172770638292, 57.460040354743413 ] } },
{ "type": "Feature", "properties": { "Postcode": "IV2 4YT" }, "geometry": { "type": "Point", "coordinates": [ -4.226318547963474, 57.479402961711841 ] } },
{ "type": "Feature", "properties": { "Postcode": "IV2 4ZH" }, "geometry": { "type": "Point", "coordinates": [ -4.226318547963474, 57.479402961711841 ] } },
{ "type": "Feature", "properties": { "Postcode": "IV2 5AA" }, "geometry": { "type": "Point", "coordinates": [ -4.150320126894386, 57.469769127438354 ] } },
{ "type": "Feature", "properties": { "Postcode": "IV2 5AB" }, "geometry": { "type": "Point", "coordinates": [ -4.185342127437569, 57.466435298182525 ] } },
{ "type": "Feature", "properties": { "Postcode": "IV2 5AD" }, "geometry": { "type": "Point", "coordinates": [ -4.162811664689597, 57.467524754499784 ] } },
{ "type": "Feature", "properties": { "Postcode": "IV2 5AE" }, "geometry": { "type": "Point", "coordinates": [ -4.16218817920753, 57.467697185356599 ] } },
{ "type": "Feature", "properties": { "Postcode": "IV2 5AF" }, "geometry": { "type": "Point", "coordinates": [ -4.184114257886862, 57.466537448185264 ] } },
{ "type": "Feature", "properties": { "Postcode": "IV2 5AG" }, "geometry": { "type": "Point", "coordinates": [ -4.183318117149588, 57.465490975679018 ] } },
{ "type": "Feature", "properties": { "Postcode": "IV2 5AH" }, "geometry": { "type": "Point", "coordinates": [ -4.182678107502873, 57.465663795527107 ] } },
{ "type": "Feature", "properties": { "Postcode": "IV2 5AJ" }, "geometry": { "type": "Point", "coordinates": [ -4.138772737755423, 57.477063871284791 ] } },
{ "type": "Feature", "properties": { "Postcode": "IV2 5AL" }, "geometry": { "type": "Point", "coordinates": [ -4.137553332330769, 57.476177050019103 ] } },
{ "type": "Feature", "properties": { "Postcode": "IV2 5AN" }, "geometry": { "type": "Point", "coordinates": [ -4.165079705653777, 57.467809287235319 ] } },
{ "type": "Feature", "properties": { "Postcode": "IV2 5AP" }, "geometry": { "type": "Point", "coordinates": [ -4.167268593533551, 57.465067108297823 ] } },
{ "type": "Feature", "properties": { "Postcode": "IV2 5AQ" }, "geometry": { "type": "Point", "coordinates": [ -4.16528846727028, 57.465137080930951 ] } },
{ "type": "Feature", "properties": { "Postcode": "IV2 5AR" }, "geometry": { "type": "Point", "coordinates": [ -4.136643122776477, 57.474871659517717 ] } },
{ "type": "Feature", "properties": { "Postcode": "IV2 5AS" }, "geometry": { "type": "Point", "coordinates": [ -4.164355944027367, 57.467695923205 ] } },
{ "type": "Feature", "properties": { "Postcode": "IV2 5AT" }, "geometry": { "type": "Point", "coordinates": [ -4.137955586994278, 57.476781220776338 ] } },
{ "type": "Feature", "properties": { "Postcode": "IV2 5AW" }, "geometry": { "type": "Point", "coordinates": [ -4.165800666480388, 57.467311698026634 ] } },
{ "type": "Feature", "properties": { "Postcode": "IV2 5AX" }, "geometry": { "type": "Point", "coordinates": [ -4.167564523132864, 57.469500737299413 ] } },
{ "type": "Feature", "properties": { "Postcode": "IV2 5AY" }, "geometry": { "type": "Point", "coordinates": [ -4.145243072346402, 57.470781107842683 ] } },
{ "type": "Feature", "properties": { "Postcode": "IV2 5AZ" }, "geometry": { "type": "Point", "coordinates": [ -4.152683132581592, 57.470249938413176 ] } },
{ "type": "Feature", "properties": { "Postcode": "IV2 5BA" }, "geometry": { "type": "Point", "coordinates": [ -4.178251786351699, 57.469460274667995 ] } },
{ "type": "Feature", "properties": { "Postcode": "IV2 5BB" }, "geometry": { "type": "Point", "coordinates": [ -4.165681871326713, 57.461922584890296 ] } },
{ "type": "Feature", "properties": { "Postcode": "IV2 5BD" }, "geometry": { "type": "Point", "coordinates": [ -4.156288829904552, 57.456440901660507 ] } },
{ "type": "Feature", "properties": { "Postcode": "IV2 5BE" }, "geometry": { "type": "Point", "coordinates": [ -4.159802338505505, 57.457503894087942 ] } },
{ "type": "Feature", "properties": { "Postcode": "IV2 5BF" }, "geometry": { "type": "Point", "coordinates": [ -4.121905899904922, 57.461184612823338 ] } },
{ "type": "Feature", "properties": { "Postcode": "IV2 5BG" }, "geometry": { "type": "Point", "coordinates": [ -4.18066407000941, 57.464045361620506 ] } },
{ "type": "Feature", "properties": { "Postcode": "IV2 5BH" }, "geometry": { "type": "Point", "coordinates": [ -4.165397327688462, 57.470077099773604 ] } },
{ "type": "Feature", "properties": { "Postcode": "IV2 5BJ" }, "geometry": { "type": "Point", "coordinates": [ -4.159703294211655, 57.46967161097178 ] } },
{ "type": "Feature", "properties": { "Postcode": "IV2 5BL" }, "geometry": { "type": "Point", "coordinates": [ -4.158790430116971, 57.469462617003458 ] } },
{ "type": "Feature", "properties": { "Postcode": "IV2 5BN" }, "geometry": { "type": "Point", "coordinates": [ -4.153774525303646, 57.469808990382305 ] } },
{ "type": "Feature", "properties": { "Postcode": "IV2 5BP" }, "geometry": { "type": "Point", "coordinates": [ -4.127019020566331, 57.475151213304265 ] } },
{ "type": "Feature", "properties": { "Postcode": "IV2 5BQ" }, "geometry": { "type": "Point", "coordinates": [ -4.168728148357808, 57.467468024509913 ] } },
{ "type": "Feature", "properties": { "Postcode": "IV2 5BS" }, "geometry": { "type": "Point", "coordinates": [ -4.102835610586392, 57.472555894926757 ] } },
{ "type": "Feature", "properties": { "Postcode": "IV2 5BT" }, "geometry": { "type": "Point", "coordinates": [ -4.10208358557187, 57.46352943034487 ] } },
{ "type": "Feature", "properties": { "Postcode": "IV2 5BU" }, "geometry": { "type": "Point", "coordinates": [ -4.123291493772208, 57.461215189197127 ] } },
{ "type": "Feature", "properties": { "Postcode": "IV2 5BW" }, "geometry": { "type": "Point", "coordinates": [ -4.143652254052393, 57.471239459628535 ] } },
{ "type": "Feature", "properties": { "Postcode": "IV2 5BX" }, "geometry": { "type": "Point", "coordinates": [ -4.130805125584096, 57.468564049518648 ] } },
{ "type": "Feature", "properties": { "Postcode": "IV2 5BY" }, "geometry": { "type": "Point", "coordinates": [ -4.181102423916429, 57.464406173995151 ] } },
{ "type": "Feature", "properties": { "Postcode": "IV2 5BZ" }, "geometry": { "type": "Point", "coordinates": [ -4.159856820983262, 57.471142559093892 ] } },
{ "type": "Feature", "properties": { "Postcode": "IV2 5DA" }, "geometry": { "type": "Point", "coordinates": [ -4.162615760132987, 57.4706999068366 ] } },
{ "type": "Feature", "properties": { "Postcode": "IV2 5DB" }, "geometry": { "type": "Point", "coordinates": [ -4.161639875733462, 57.471965593435066 ] } },
{ "type": "Feature", "properties": { "Postcode": "IV2 5DD" }, "geometry": { "type": "Point", "coordinates": [ -4.148044322276806, 57.471056872462547 ] } },
{ "type": "Feature", "properties": { "Postcode": "IV2 5DE" }, "geometry": { "type": "Point", "coordinates": [ -4.146346718920214, 57.47140027044145 ] } },
{ "type": "Feature", "properties": { "Postcode": "IV2 5DF" }, "geometry": { "type": "Point", "coordinates": [ -4.147811746647258, 57.472777009249704 ] } },
{ "type": "Feature", "properties": { "Postcode": "IV2 5DG" }, "geometry": { "type": "Point", "coordinates": [ -4.139633749313418, 57.478666593072234 ] } },
{ "type": "Feature", "properties": { "Postcode": "IV2 5DH" }, "geometry": { "type": "Point", "coordinates": [ -4.153773186517327, 57.474319592789918 ] } },
{ "type": "Feature", "properties": { "Postcode": "IV2 5DJ" }, "geometry": { "type": "Point", "coordinates": [ -4.172583717796987, 57.468650581520969 ] } },
{ "type": "Feature", "properties": { "Postcode": "IV2 5DL" }, "geometry": { "type": "Point", "coordinates": [ -4.172117366939756, 57.469503233679035 ] } },
{ "type": "Feature", "properties": { "Postcode": "IV2 5DN" }, "geometry": { "type": "Point", "coordinates": [ -4.142932085865305, 57.476597891638889 ] } },
{ "type": "Feature", "properties": { "Postcode": "IV2 5DP" }, "geometry": { "type": "Point", "coordinates": [ -4.16869069693769, 57.465429014318786 ] } },
{ "type": "Feature", "properties": { "Postcode": "IV2 5DQ" }, "geometry": { "type": "Point", "coordinates": [ -4.14861657633678, 57.471145957144827 ] } },
{ "type": "Feature", "properties": { "Postcode": "IV2 5DR" }, "geometry": { "type": "Point", "coordinates": [ -4.16704937368127, 57.465870565561964 ] } },
{ "type": "Feature", "properties": { "Postcode": "IV2 5DS" }, "geometry": { "type": "Point", "coordinates": [ -4.169725214174363, 57.467972010952998 ] } },
{ "type": "Feature", "properties": { "Postcode": "IV2 5DT" }, "geometry": { "type": "Point", "coordinates": [ -4.165672223676963, 57.466550158280455 ] } },
{ "type": "Feature", "properties": { "Postcode": "IV2 5DU" }, "geometry": { "type": "Point", "coordinates": [ -4.144288279221816, 57.47697018005077 ] } },
{ "type": "Feature", "properties": { "Postcode": "IV2 5DW" }, "geometry": { "type": "Point", "coordinates": [ -4.168566136123872, 57.466140993170619 ] } },
{ "type": "Feature", "properties": { "Postcode": "IV2 5DX" }, "geometry": { "type": "Point", "coordinates": [ -4.14538578206736, 57.47748163446655 ] } },
{ "type": "Feature", "properties": { "Postcode": "IV2 5DY" }, "geometry": { "type": "Point", "coordinates": [ -4.143173552069495, 57.478157209209598 ] } },
{ "type": "Feature", "properties": { "Postcode": "IV2 5DZ" }, "geometry": { "type": "Point", "coordinates": [ -4.142532809153916, 57.477754781466899 ] } },
{ "type": "Feature", "properties": { "Postcode": "IV2 5EA" }, "geometry": { "type": "Point", "coordinates": [ -4.105869628868048, 57.488759275777653 ] } },
{ "type": "Feature", "properties": { "Postcode": "IV2 5EB" }, "geometry": { "type": "Point", "coordinates": [ -4.100562116517553, 57.483501685288523 ] } },
{ "type": "Feature", "properties": { "Postcode": "IV2 5ED" }, "geometry": { "type": "Point", "coordinates": [ -4.087721456282738, 57.479788488799919 ] } },
{ "type": "Feature", "properties": { "Postcode": "IV2 5EE" }, "geometry": { "type": "Point", "coordinates": [ -4.070019336542387, 57.48443809711128 ] } },
{ "type": "Feature", "properties": { "Postcode": "IV2 5EF" }, "geometry": { "type": "Point", "coordinates": [ -4.060344198347147, 57.485935324424588 ] } },
{ "type": "Feature", "properties": { "Postcode": "IV2 5EG" }, "geometry": { "type": "Point", "coordinates": [ -4.048169950384392, 57.489296361925462 ] } },
{ "type": "Feature", "properties": { "Postcode": "IV2 5EH" }, "geometry": { "type": "Point", "coordinates": [ -4.084814125308922, 57.47911779413711 ] } },
{ "type": "Feature", "properties": { "Postcode": "IV2 5EJ" }, "geometry": { "type": "Point", "coordinates": [ -4.068286537754289, 57.475921798096714 ] } },
{ "type": "Feature", "properties": { "Postcode": "IV2 5EL" }, "geometry": { "type": "Point", "coordinates": [ -4.075935335220997, 57.466981768959201 ] } },
{ "type": "Feature", "properties": { "Postcode": "IV2 5EN" }, "geometry": { "type": "Point", "coordinates": [ -4.048664226436892, 57.470419930631067 ] } },
{ "type": "Feature", "properties": { "Postcode": "IV2 5EP" }, "geometry": { "type": "Point", "coordinates": [ -4.094692811983091, 57.45208865954497 ] } },
{ "type": "Feature", "properties": { "Postcode": "IV2 5EQ" }, "geometry": { "type": "Point", "coordinates": [ -4.091468662024998, 57.491353036549896 ] } },
{ "type": "Feature", "properties": { "Postcode": "IV2 5ER" }, "geometry": { "type": "Point", "coordinates": [ -4.120119063647944, 57.446164542639366 ] } },
{ "type": "Feature", "properties": { "Postcode": "IV2 5ES" }, "geometry": { "type": "Point", "coordinates": [ -4.070835233554466, 57.484999739801545 ] } },
{ "type": "Feature", "properties": { "Postcode": "IV2 5ET" }, "geometry": { "type": "Point", "coordinates": [ -4.069008300404054, 57.484850031159503 ] } },
{ "type": "Feature", "properties": { "Postcode": "IV2 5EU" }, "geometry": { "type": "Point", "coordinates": [ -4.09303453990848, 57.477022849739868 ] } },
{ "type": "Feature", "properties": { "Postcode": "IV2 5EW" }, "geometry": { "type": "Point", "coordinates": [ -4.051548003444852, 57.479618562657222 ] } },
{ "type": "Feature", "properties": { "Postcode": "IV2 5EX" }, "geometry": { "type": "Point", "coordinates": [ -4.129572945755685, 57.46372389759464 ] } },
{ "type": "Feature", "properties": { "Postcode": "IV2 5EY" }, "geometry": { "type": "Point", "coordinates": [ -4.055846492345084, 57.48249561498794 ] } },
{ "type": "Feature", "properties": { "Postcode": "IV2 5EZ" }, "geometry": { "type": "Point", "coordinates": [ -4.141728599251465, 57.477409038801213 ] } },
{ "type": "Feature", "properties": { "Postcode": "IV2 5FA" }, "geometry": { "type": "Point", "coordinates": [ -4.166755791553451, 57.471051119516602 ] } },
{ "type": "Feature", "properties": { "Postcode": "IV2 5FB" }, "geometry": { "type": "Point", "coordinates": [ -4.152318969412845, 57.475683225701999 ] } },
{ "type": "Feature", "properties": { "Postcode": "IV2 5FD" }, "geometry": { "type": "Point", "coordinates": [ -4.154765697909567, 57.476162571974122 ] } },
{ "type": "Feature", "properties": { "Postcode": "IV2 5FE" }, "geometry": { "type": "Point", "coordinates": [ -4.14870371756125, 57.475753881417262 ] } },
{ "type": "Feature", "properties": { "Postcode": "IV2 5FF" }, "geometry": { "type": "Point", "coordinates": [ -4.179475596478943, 57.470688075372252 ] } },
{ "type": "Feature", "properties": { "Postcode": "IV2 5FG" }, "geometry": { "type": "Point", "coordinates": [ -4.138406434389219, 57.475362901793886 ] } },
{ "type": "Feature", "properties": { "Postcode": "IV2 5FH" }, "geometry": { "type": "Point", "coordinates": [ -4.152447027467414, 57.472473318497329 ] } },
{ "type": "Feature", "properties": { "Postcode": "IV2 5FJ" }, "geometry": { "type": "Point", "coordinates": [ -4.141248583367242, 57.478612221418622 ] } },
{ "type": "Feature", "properties": { "Postcode": "IV2 5FL" }, "geometry": { "type": "Point", "coordinates": [ -4.137794286069519, 57.478302450125462 ] } },
{ "type": "Feature", "properties": { "Postcode": "IV2 5FN" }, "geometry": { "type": "Point", "coordinates": [ -4.151153945682099, 57.473456808368567 ] } },
{ "type": "Feature", "properties": { "Postcode": "IV2 5FP" }, "geometry": { "type": "Point", "coordinates": [ -4.005807323240868, 57.521540982366851 ] } },
{ "type": "Feature", "properties": { "Postcode": "IV2 5FQ" }, "geometry": { "type": "Point", "coordinates": [ -4.139561145097962, 57.475999227831281 ] } },
{ "type": "Feature", "properties": { "Postcode": "IV2 5FR" }, "geometry": { "type": "Point", "coordinates": [ -4.153964737650631, 57.473040419279506 ] } },
{ "type": "Feature", "properties": { "Postcode": "IV2 5FS" }, "geometry": { "type": "Point", "coordinates": [ -4.086794580099977, 57.476991513921462 ] } },
{ "type": "Feature", "properties": { "Postcode": "IV2 5FT" }, "geometry": { "type": "Point", "coordinates": [ -4.140917196724275, 57.477225146526237 ] } },
{ "type": "Feature", "properties": { "Postcode": "IV2 5FU" }, "geometry": { "type": "Point", "coordinates": [ -4.014682406810594, 57.520770637806507 ] } },
{ "type": "Feature", "properties": { "Postcode": "IV2 5FW" }, "geometry": { "type": "Point", "coordinates": [ -4.158781563930278, 57.474683187855909 ] } },
{ "type": "Feature", "properties": { "Postcode": "IV2 5FX" }, "geometry": { "type": "Point", "coordinates": [ -4.153377690637703, 57.475817894543397 ] } },
{ "type": "Feature", "properties": { "Postcode": "IV2 5FY" }, "geometry": { "type": "Point", "coordinates": [ -4.147734396410477, 57.476857607811709 ] } },
{ "type": "Feature", "properties": { "Postcode": "IV2 5FZ" }, "geometry": { "type": "Point", "coordinates": [ -4.151009642069847, 57.474690244317308 ] } },
{ "type": "Feature", "properties": { "Postcode": "IV2 5GA" }, "geometry": { "type": "Point", "coordinates": [ -4.155968589326177, 57.473365573228008 ] } },
{ "type": "Feature", "properties": { "Postcode": "IV2 5GB" }, "geometry": { "type": "Point", "coordinates": [ -4.156226978095924, 57.474070986451437 ] } },
{ "type": "Feature", "properties": { "Postcode": "IV2 5GD" }, "geometry": { "type": "Point", "coordinates": [ -4.169611115370822, 57.474766830395062 ] } },
{ "type": "Feature", "properties": { "Postcode": "IV2 5GE" }, "geometry": { "type": "Point", "coordinates": [ -4.157820348783884, 57.472525219612528 ] } },
{ "type": "Feature", "properties": { "Postcode": "IV2 5GF" }, "geometry": { "type": "Point", "coordinates": [ -4.158590787519256, 57.473428522754702 ] } },
{ "type": "Feature", "properties": { "Postcode": "IV2 5GG" }, "geometry": { "type": "Point", "coordinates": [ -4.15886430000474, 57.474106716433198 ] } },
{ "type": "Feature", "properties": { "Postcode": "IV2 5GH" }, "geometry": { "type": "Point", "coordinates": [ -4.171049884475064, 57.472873126574534 ] } },
{ "type": "Feature", "properties": { "Postcode": "IV2 5GJ" }, "geometry": { "type": "Point", "coordinates": [ -4.169534327857246, 57.470940432609417 ] } },
{ "type": "Feature", "properties": { "Postcode": "IV2 5GL" }, "geometry": { "type": "Point", "coordinates": [ -4.07925865014726, 57.484384910549991 ] } },
{ "type": "Feature", "properties": { "Postcode": "IV2 5GN" }, "geometry": { "type": "Point", "coordinates": [ -4.003993152342557, 57.521956156904402 ] } },
{ "type": "Feature", "properties": { "Postcode": "IV2 5GP" }, "geometry": { "type": "Point", "coordinates": [ -4.169282377712247, 57.472598055957249 ] } },
{ "type": "Feature", "properties": { "Postcode": "IV2 5GQ" }, "geometry": { "type": "Point", "coordinates": [ -4.167211793413355, 57.47480810064129 ] } },
{ "type": "Feature", "properties": { "Postcode": "IV2 5GR" }, "geometry": { "type": "Point", "coordinates": [ -4.169591807089821, 57.471909851248597 ] } },
{ "type": "Feature", "properties": { "Postcode": "IV2 5GS" }, "geometry": { "type": "Point", "coordinates": [ -4.170881749843525, 57.471725908763275 ] } },
{ "type": "Feature", "properties": { "Postcode": "IV2 5GT" }, "geometry": { "type": "Point", "coordinates": [ -4.1369739686784, 57.477965935779586 ] } },
{ "type": "Feature", "properties": { "Postcode": "IV2 5GU" }, "geometry": { "type": "Point", "coordinates": [ -4.136185945217379, 57.477610898705827 ] } },
{ "type": "Feature", "properties": { "Postcode": "IV2 5GW" }, "geometry": { "type": "Point", "coordinates": [ -4.13541187742081, 57.476923169299077 ] } },
{ "type": "Feature", "properties": { "Postcode": "IV2 5GX" }, "geometry": { "type": "Point", "coordinates": [ -4.144568254133622, 57.468088045300711 ] } },
{ "type": "Feature", "properties": { "Postcode": "IV2 5GY" }, "geometry": { "type": "Point", "coordinates": [ -4.155425923631708, 57.472080981054489 ] } },
{ "type": "Feature", "properties": { "Postcode": "IV2 5GZ" }, "geometry": { "type": "Point", "coordinates": [ -4.149560779145769, 57.475011469190022 ] } },
{ "type": "Feature", "properties": { "Postcode": "IV2 5HA" }, "geometry": { "type": "Point", "coordinates": [ -4.188955288965113, 57.466345646913702 ] } },
{ "type": "Feature", "properties": { "Postcode": "IV2 5HB" }, "geometry": { "type": "Point", "coordinates": [ -4.190509847041279, 57.4661299487354 ] } },
{ "type": "Feature", "properties": { "Postcode": "IV2 5HD" }, "geometry": { "type": "Point", "coordinates": [ -4.14493777412298, 57.47467689265428 ] } },
{ "type": "Feature", "properties": { "Postcode": "IV2 5HE" }, "geometry": { "type": "Point", "coordinates": [ -4.189859136058149, 57.465566195317201 ] } },
{ "type": "Feature", "properties": { "Postcode": "IV2 5HF" }, "geometry": { "type": "Point", "coordinates": [ -4.187971490406257, 57.465230578736431 ] } },
{ "type": "Feature", "properties": { "Postcode": "IV2 5HG" }, "geometry": { "type": "Point", "coordinates": [ -4.189692659599897, 57.462783638947585 ] } },
{ "type": "Feature", "properties": { "Postcode": "IV2 5HH" }, "geometry": { "type": "Point", "coordinates": [ -4.187986138375831, 57.463523114916619 ] } },
{ "type": "Feature", "properties": { "Postcode": "IV2 5HJ" }, "geometry": { "type": "Point", "coordinates": [ -4.187086174136927, 57.463251204540356 ] } },
{ "type": "Feature", "properties": { "Postcode": "IV2 5HL" }, "geometry": { "type": "Point", "coordinates": [ -4.187863712167422, 57.462590767371537 ] } },
{ "type": "Feature", "properties": { "Postcode": "IV2 5HN" }, "geometry": { "type": "Point", "coordinates": [ -4.187366697730464, 57.468224198329565 ] } },
{ "type": "Feature", "properties": { "Postcode": "IV2 5HP" }, "geometry": { "type": "Point", "coordinates": [ -4.188395303517958, 57.467298828239848 ] } },
{ "type": "Feature", "properties": { "Postcode": "IV2 5HQ" }, "geometry": { "type": "Point", "coordinates": [ -4.186571565490581, 57.466638609380993 ] } },
{ "type": "Feature", "properties": { "Postcode": "IV2 5HR" }, "geometry": { "type": "Point", "coordinates": [ -4.187333461692673, 57.467389141472488 ] } },
{ "type": "Feature", "properties": { "Postcode": "IV2 5HS" }, "geometry": { "type": "Point", "coordinates": [ -4.186498006874495, 57.46177883276853 ] } },
{ "type": "Feature", "properties": { "Postcode": "IV2 5HT" }, "geometry": { "type": "Point", "coordinates": [ -4.186883520549812, 57.46404542830215 ] } },
{ "type": "Feature", "properties": { "Postcode": "IV2 5HU" }, "geometry": { "type": "Point", "coordinates": [ -4.186885572251062, 57.46491696782283 ] } },
{ "type": "Feature", "properties": { "Postcode": "IV2 5HW" }, "geometry": { "type": "Point", "coordinates": [ -4.185111281749129, 57.465082519303074 ] } },
{ "type": "Feature", "properties": { "Postcode": "IV2 5HX" }, "geometry": { "type": "Point", "coordinates": [ -4.184225865689676, 57.464495850545717 ] } },
{ "type": "Feature", "properties": { "Postcode": "IV2 5HY" }, "geometry": { "type": "Point", "coordinates": [ -4.184945427757594, 57.46398020187781 ] } },
{ "type": "Feature", "properties": { "Postcode": "IV2 5HZ" }, "geometry": { "type": "Point", "coordinates": [ -4.185180900254931, 57.463176427362384 ] } },
{ "type": "Feature", "properties": { "Postcode": "IV2 5JA" }, "geometry": { "type": "Point", "coordinates": [ -4.187780090096562, 57.466491844619263 ] } },
{ "type": "Feature", "properties": { "Postcode": "IV2 5JD" }, "geometry": { "type": "Point", "coordinates": [ -4.146511622925868, 57.475917017276046 ] } },
{ "type": "Feature", "properties": { "Postcode": "IV2 5JE" }, "geometry": { "type": "Point", "coordinates": [ -4.147979521443868, 57.475918970966596 ] } },
{ "type": "Feature", "properties": { "Postcode": "IV2 5JF" }, "geometry": { "type": "Point", "coordinates": [ -4.144504202775441, 57.47581640299191 ] } },
{ "type": "Feature", "properties": { "Postcode": "IV2 5JG" }, "geometry": { "type": "Point", "coordinates": [ -4.189638687208658, 57.455470522852401 ] } },
{ "type": "Feature", "properties": { "Postcode": "IV2 5JH" }, "geometry": { "type": "Point", "coordinates": [ -4.145298763797296, 57.476566625762658 ] } },
{ "type": "Feature", "properties": { "Postcode": "IV2 5JN" }, "geometry": { "type": "Point", "coordinates": [ -4.183231017724544, 57.460676361958114 ] } },
{ "type": "Feature", "properties": { "Postcode": "IV2 5JP" }, "geometry": { "type": "Point", "coordinates": [ -4.182311760924724, 57.46063837055231 ] } },
{ "type": "Feature", "properties": { "Postcode": "IV2 5JQ" }, "geometry": { "type": "Point", "coordinates": [ -4.108846438922324, 57.486274567481729 ] } },
{ "type": "Feature", "properties": { "Postcode": "IV2 5JT" }, "geometry": { "type": "Point", "coordinates": [ -4.016110683352171, 57.518510600491872 ] } },
{ "type": "Feature", "properties": { "Postcode": "IV2 5JU" }, "geometry": { "type": "Point", "coordinates": [ -4.171916833755975, 57.47174402010468 ] } },
{ "type": "Feature", "properties": { "Postcode": "IV2 5JY" }, "geometry": { "type": "Point", "coordinates": [ -4.146022610677187, 57.470992469274066 ] } },
{ "type": "Feature", "properties": { "Postcode": "IV2 5NA" }, "geometry": { "type": "Point", "coordinates": [ -4.181592412955647, 57.477381437054269 ] } },
{ "type": "Feature", "properties": { "Postcode": "IV2 5NG" }, "geometry": { "type": "Point", "coordinates": [ -4.164817836991747, 57.474094472625097 ] } },
{ "type": "Feature", "properties": { "Postcode": "IV2 5NQ" }, "geometry": { "type": "Point", "coordinates": [ -4.163244110191004, 57.47484030665504 ] } },
{ "type": "Feature", "properties": { "Postcode": "IV2 5PA" }, "geometry": { "type": "Point", "coordinates": [ -4.01743669545176, 57.521355564054922 ] } },
{ "type": "Feature", "properties": { "Postcode": "IV2 5PB" }, "geometry": { "type": "Point", "coordinates": [ -4.016581149276473, 57.521890361307008 ] } },
{ "type": "Feature", "properties": { "Postcode": "IV2 5PD" }, "geometry": { "type": "Point", "coordinates": [ -4.014296533288458, 57.520435375789226 ] } },
{ "type": "Feature", "properties": { "Postcode": "IV2 5PE" }, "geometry": { "type": "Point", "coordinates": [ -4.015105649091244, 57.520269713296003 ] } },
{ "type": "Feature", "properties": { "Postcode": "IV2 5PG" }, "geometry": { "type": "Point", "coordinates": [ -4.01032366003093, 57.520462802597244 ] } },
{ "type": "Feature", "properties": { "Postcode": "IV2 5PH" }, "geometry": { "type": "Point", "coordinates": [ -4.008689778449685, 57.529922868891056 ] } },
{ "type": "Feature", "properties": { "Postcode": "IV2 5PL" }, "geometry": { "type": "Point", "coordinates": [ -4.009409643255851, 57.519632790945941 ] } },
{ "type": "Feature", "properties": { "Postcode": "IV2 5PN" }, "geometry": { "type": "Point", "coordinates": [ -4.016535518600894, 57.513804743477912 ] } },
{ "type": "Feature", "properties": { "Postcode": "IV2 5PP" }, "geometry": { "type": "Point", "coordinates": [ -4.005061586922017, 57.507347854762877 ] } },
{ "type": "Feature", "properties": { "Postcode": "IV2 5PQ" }, "geometry": { "type": "Point", "coordinates": [ -4.012608707321725, 57.521019370052699 ] } },
{ "type": "Feature", "properties": { "Postcode": "IV2 5PR" }, "geometry": { "type": "Point", "coordinates": [ -4.027790259980305, 57.501800246491207 ] } },
{ "type": "Feature", "properties": { "Postcode": "IV2 5PS" }, "geometry": { "type": "Point", "coordinates": [ -4.031069762004283, 57.508854518052189 ] } },
{ "type": "Feature", "properties": { "Postcode": "IV2 5PT" }, "geometry": { "type": "Point", "coordinates": [ -4.03564888968079, 57.525124193538346 ] } },
{ "type": "Feature", "properties": { "Postcode": "IV2 5PW" }, "geometry": { "type": "Point", "coordinates": [ -4.012326605675098, 57.507411860069809 ] } },
{ "type": "Feature", "properties": { "Postcode": "IV2 5RG" }, "geometry": { "type": "Point", "coordinates": [ -4.144072919220751, 57.474718560303401 ] } },
{ "type": "Feature", "properties": { "Postcode": "IV2 5RH" }, "geometry": { "type": "Point", "coordinates": [ -4.142635859048602, 57.472963925740679 ] } },
{ "type": "Feature", "properties": { "Postcode": "IV2 5TA" }, "geometry": { "type": "Point", "coordinates": [ -4.143986314427205, 57.472671409461917 ] } },
{ "type": "Feature", "properties": { "Postcode": "IV2 5TB" }, "geometry": { "type": "Point", "coordinates": [ -4.139366943578182, 57.473819125069511 ] } },
{ "type": "Feature", "properties": { "Postcode": "IV2 5TD" }, "geometry": { "type": "Point", "coordinates": [ -4.141113725295843, 57.474598135798402 ] } },
{ "type": "Feature", "properties": { "Postcode": "IV2 5TF" }, "geometry": { "type": "Point", "coordinates": [ -4.142321545263592, 57.476141038543545 ] } },
{ "type": "Feature", "properties": { "Postcode": "IV2 5TG" }, "geometry": { "type": "Point", "coordinates": [ -4.149885220671023, 57.472301389516723 ] } },
{ "type": "Feature", "properties": { "Postcode": "IV2 5TH" }, "geometry": { "type": "Point", "coordinates": [ -4.136238924238517, 57.47451910259452 ] } },
{ "type": "Feature", "properties": { "Postcode": "IV2 5TJ" }, "geometry": { "type": "Point", "coordinates": [ -4.140477074848977, 57.475974694691836 ] } },
{ "type": "Feature", "properties": { "Postcode": "IV2 5TL" }, "geometry": { "type": "Point", "coordinates": [ -4.135161826801934, 57.476639879143548 ] } },
{ "type": "Feature", "properties": { "Postcode": "IV2 5TN" }, "geometry": { "type": "Point", "coordinates": [ -4.144240785261795, 57.473314015222847 ] } },
{ "type": "Feature", "properties": { "Postcode": "IV2 5TP" }, "geometry": { "type": "Point", "coordinates": [ -4.163332501046232, 57.473796502105145 ] } },
{ "type": "Feature", "properties": { "Postcode": "IV2 5TQ" }, "geometry": { "type": "Point", "coordinates": [ -4.150101688500112, 57.471444102715601 ] } },
{ "type": "Feature", "properties": { "Postcode": "IV2 5TR" }, "geometry": { "type": "Point", "coordinates": [ -4.13443526455839, 57.476193938924524 ] } },
{ "type": "Feature", "properties": { "Postcode": "IV2 5UE" }, "geometry": { "type": "Point", "coordinates": [ -4.142250815153901, 57.471514868935444 ] } },
{ "type": "Feature", "properties": { "Postcode": "IV2 5WA" }, "geometry": { "type": "Point", "coordinates": [ -4.164342420013582, 57.466339382554409 ] } },
{ "type": "Feature", "properties": { "Postcode": "IV2 5WD" }, "geometry": { "type": "Point", "coordinates": [ -4.163477239839019, 57.47285955314878 ] } },
{ "type": "Feature", "properties": { "Postcode": "IV2 5WE" }, "geometry": { "type": "Point", "coordinates": [ -4.010236134279767, 57.52129978467898 ] } },
{ "type": "Feature", "properties": { "Postcode": "IV2 5XL" }, "geometry": { "type": "Point", "coordinates": [ -4.127934685329454, 57.428080375084548 ] } },
{ "type": "Feature", "properties": { "Postcode": "IV2 5XQ" }, "geometry": { "type": "Point", "coordinates": [ -4.107616168132529, 57.424666163725711 ] } },
{ "type": "Feature", "properties": { "Postcode": "IV2 5YH" }, "geometry": { "type": "Point", "coordinates": [ -4.163320347347062, 57.468513387719305 ] } },
{ "type": "Feature", "properties": { "Postcode": "IV2 6AA" }, "geometry": { "type": "Point", "coordinates": [ -4.210780168617358, 57.454148967182945 ] } },
{ "type": "Feature", "properties": { "Postcode": "IV2 6AB" }, "geometry": { "type": "Point", "coordinates": [ -4.218456001763875, 57.453726542345947 ] } },
{ "type": "Feature", "properties": { "Postcode": "IV2 6AD" }, "geometry": { "type": "Point", "coordinates": [ -4.23229724574685, 57.448620992938245 ] } },
{ "type": "Feature", "properties": { "Postcode": "IV2 6AE" }, "geometry": { "type": "Point", "coordinates": [ -4.22024049789029, 57.436694702566932 ] } },
{ "type": "Feature", "properties": { "Postcode": "IV2 6AF" }, "geometry": { "type": "Point", "coordinates": [ -4.204047857511026, 57.438677265164955 ] } },
{ "type": "Feature", "properties": { "Postcode": "IV2 6AH" }, "geometry": { "type": "Point", "coordinates": [ -4.24128788102916, 57.441380844390245 ] } },
{ "type": "Feature", "properties": { "Postcode": "IV2 6AJ" }, "geometry": { "type": "Point", "coordinates": [ -4.245432249863248, 57.434774598556267 ] } },
{ "type": "Feature", "properties": { "Postcode": "IV2 6AL" }, "geometry": { "type": "Point", "coordinates": [ -4.239448487181378, 57.378559901659472 ] } },
{ "type": "Feature", "properties": { "Postcode": "IV2 6AN" }, "geometry": { "type": "Point", "coordinates": [ -4.229733263152411, 57.366503076814688 ] } },
{ "type": "Feature", "properties": { "Postcode": "IV2 6AP" }, "geometry": { "type": "Point", "coordinates": [ -4.259271222290587, 57.420347988251443 ] } },
{ "type": "Feature", "properties": { "Postcode": "IV2 6AQ" }, "geometry": { "type": "Point", "coordinates": [ -4.219775233475995, 57.44606571126775 ] } },
{ "type": "Feature", "properties": { "Postcode": "IV2 6AR" }, "geometry": { "type": "Point", "coordinates": [ -4.191259929826413, 57.455541182295875 ] } },
{ "type": "Feature", "properties": { "Postcode": "IV2 6AS" }, "geometry": { "type": "Point", "coordinates": [ -4.22873235571796, 57.448378591677617 ] } },
{ "type": "Feature", "properties": { "Postcode": "IV2 6AT" }, "geometry": { "type": "Point", "coordinates": [ -4.205908392271772, 57.44965179808321 ] } },
{ "type": "Feature", "properties": { "Postcode": "IV2 6AU" }, "geometry": { "type": "Point", "coordinates": [ -4.216686787963307, 57.446254863166672 ] } },
{ "type": "Feature", "properties": { "Postcode": "IV2 6AW" }, "geometry": { "type": "Point", "coordinates": [ -4.284315743365678, 57.365470168625436 ] } },
{ "type": "Feature", "properties": { "Postcode": "IV2 6AX" }, "geometry": { "type": "Point", "coordinates": [ -4.180248816615626, 57.387901779644956 ] } },
{ "type": "Feature", "properties": { "Postcode": "IV2 6AY" }, "geometry": { "type": "Point", "coordinates": [ -4.217617164362019, 57.444279672461889 ] } },
{ "type": "Feature", "properties": { "Postcode": "IV2 6AZ" }, "geometry": { "type": "Point", "coordinates": [ -4.215602274516664, 57.445132790922379 ] } },
{ "type": "Feature", "properties": { "Postcode": "IV2 6BA" }, "geometry": { "type": "Point", "coordinates": [ -4.219908082654491, 57.450457238407751 ] } },
{ "type": "Feature", "properties": { "Postcode": "IV2 6BB" }, "geometry": { "type": "Point", "coordinates": [ -4.213058125921436, 57.446606179979504 ] } },
{ "type": "Feature", "properties": { "Postcode": "IV2 6BD" }, "geometry": { "type": "Point", "coordinates": [ -4.231428135746742, 57.448034361989734 ] } },
{ "type": "Feature", "properties": { "Postcode": "IV2 6BE" }, "geometry": { "type": "Point", "coordinates": [ -4.22488109284338, 57.445616241305501 ] } },
{ "type": "Feature", "properties": { "Postcode": "IV2 6BF" }, "geometry": { "type": "Point", "coordinates": [ -4.222842400352182, 57.445526427122488 ] } },
{ "type": "Feature", "properties": { "Postcode": "IV2 6BG" }, "geometry": { "type": "Point", "coordinates": [ -4.215421514831949, 57.447930430201559 ] } },
{ "type": "Feature", "properties": { "Postcode": "IV2 6BH" }, "geometry": { "type": "Point", "coordinates": [ -4.214093177376072, 57.448564784823496 ] } },
{ "type": "Feature", "properties": { "Postcode": "IV2 6BJ" }, "geometry": { "type": "Point", "coordinates": [ -4.211046482290837, 57.443927905693016 ] } },
{ "type": "Feature", "properties": { "Postcode": "IV2 6BL" }, "geometry": { "type": "Point", "coordinates": [ -4.208986251127673, 57.444584034017467 ] } },
{ "type": "Feature", "properties": { "Postcode": "IV2 6BN" }, "geometry": { "type": "Point", "coordinates": [ -4.220739524554051, 57.445752200964797 ] } },
{ "type": "Feature", "properties": { "Postcode": "IV2 6BP" }, "geometry": { "type": "Point", "coordinates": [ -4.212821631020812, 57.443519355763449 ] } },
{ "type": "Feature", "properties": { "Postcode": "IV2 6BQ" }, "geometry": { "type": "Point", "coordinates": [ -4.211166957025893, 57.444267236617954 ] } },
{ "type": "Feature", "properties": { "Postcode": "IV2 6BS" }, "geometry": { "type": "Point", "coordinates": [ -4.211537844971733, 57.444889705183776 ] } },
{ "type": "Feature", "properties": { "Postcode": "IV2 6BT" }, "geometry": { "type": "Point", "coordinates": [ -4.211687983595956, 57.445444164517298 ] } },
{ "type": "Feature", "properties": { "Postcode": "IV2 6BU" }, "geometry": { "type": "Point", "coordinates": [ -4.214638159128968, 57.444071491568813 ] } },
{ "type": "Feature", "properties": { "Postcode": "IV2 6BW" }, "geometry": { "type": "Point", "coordinates": [ -4.236868651555423, 57.446239647299535 ] } },
{ "type": "Feature", "properties": { "Postcode": "IV2 6BX" }, "geometry": { "type": "Point", "coordinates": [ -4.229348667457899, 57.448646237842567 ] } },
{ "type": "Feature", "properties": { "Postcode": "IV2 6BY" }, "geometry": { "type": "Point", "coordinates": [ -4.203745376851396, 57.447775760197025 ] } },
{ "type": "Feature", "properties": { "Postcode": "IV2 6BZ" }, "geometry": { "type": "Point", "coordinates": [ -4.215177570092512, 57.451061638377602 ] } },
{ "type": "Feature", "properties": { "Postcode": "IV2 6DA" }, "geometry": { "type": "Point", "coordinates": [ -4.174227624498258, 57.453374211872109 ] } },
{ "type": "Feature", "properties": { "Postcode": "IV2 6DB" }, "geometry": { "type": "Point", "coordinates": [ -4.174177826090181, 57.455342849754054 ] } },
{ "type": "Feature", "properties": { "Postcode": "IV2 6DD" }, "geometry": { "type": "Point", "coordinates": [ -4.176633825310581, 57.455435234197211 ] } },
{ "type": "Feature", "properties": { "Postcode": "IV2 6DE" }, "geometry": { "type": "Point", "coordinates": [ -4.171902380438407, 57.452111441184222 ] } },
{ "type": "Feature", "properties": { "Postcode": "IV2 6DF" }, "geometry": { "type": "Point", "coordinates": [ -4.172531233386759, 57.453439409429826 ] } },
{ "type": "Feature", "properties": { "Postcode": "IV2 6DG" }, "geometry": { "type": "Point", "coordinates": [ -4.17295244784543, 57.454357631904259 ] } },
{ "type": "Feature", "properties": { "Postcode": "IV2 6DH" }, "geometry": { "type": "Point", "coordinates": [ -4.25868422303782, 57.44920207036288 ] } },
{ "type": "Feature", "properties": { "Postcode": "IV2 6DJ" }, "geometry": { "type": "Point", "coordinates": [ -4.250559935880963, 57.440406866028439 ] } },
{ "type": "Feature", "properties": { "Postcode": "IV2 6DL" }, "geometry": { "type": "Point", "coordinates": [ -4.283380375334775, 57.428260834820968 ] } },
{ "type": "Feature", "properties": { "Postcode": "IV2 6DN" }, "geometry": { "type": "Point", "coordinates": [ -4.299748057166042, 57.409290869205861 ] } },
{ "type": "Feature", "properties": { "Postcode": "IV2 6DP" }, "geometry": { "type": "Point", "coordinates": [ -4.320537235858308, 57.396293507576097 ] } },
{ "type": "Feature", "properties": { "Postcode": "IV2 6DQ" }, "geometry": { "type": "Point", "coordinates": [ -4.187909076823414, 57.453865233436254 ] } },
{ "type": "Feature", "properties": { "Postcode": "IV2 6DR" }, "geometry": { "type": "Point", "coordinates": [ -4.171758755806893, 57.452500283816036 ] } },
{ "type": "Feature", "properties": { "Postcode": "IV2 6DS" }, "geometry": { "type": "Point", "coordinates": [ -4.186969420135784, 57.455157459654572 ] } },
{ "type": "Feature", "properties": { "Postcode": "IV2 6DT" }, "geometry": { "type": "Point", "coordinates": [ -4.186161663169841, 57.453913529706554 ] } },
{ "type": "Feature", "properties": { "Postcode": "IV2 6DU" }, "geometry": { "type": "Point", "coordinates": [ -4.178432160268046, 57.455961249949169 ] } },
{ "type": "Feature", "properties": { "Postcode": "IV2 6DW" }, "geometry": { "type": "Point", "coordinates": [ -4.178195375055751, 57.455623901343671 ] } },
{ "type": "Feature", "properties": { "Postcode": "IV2 6DX" }, "geometry": { "type": "Point", "coordinates": [ -4.214902495821135, 57.447616079908421 ] } },
{ "type": "Feature", "properties": { "Postcode": "IV2 6DY" }, "geometry": { "type": "Point", "coordinates": [ -4.216252865348114, 57.44707118271981 ] } },
{ "type": "Feature", "properties": { "Postcode": "IV2 6DZ" }, "geometry": { "type": "Point", "coordinates": [ -4.214464016870208, 57.447255385138419 ] } },
{ "type": "Feature", "properties": { "Postcode": "IV2 6EA" }, "geometry": { "type": "Point", "coordinates": [ -4.215212856228897, 57.446685127527317 ] } },
{ "type": "Feature", "properties": { "Postcode": "IV2 6EB" }, "geometry": { "type": "Point", "coordinates": [ -4.21531708572091, 57.442621891133939 ] } },
{ "type": "Feature", "properties": { "Postcode": "IV2 6ED" }, "geometry": { "type": "Point", "coordinates": [ -4.249538069554315, 57.446831774363368 ] } },
{ "type": "Feature", "properties": { "Postcode": "IV2 6EE" }, "geometry": { "type": "Point", "coordinates": [ -4.250462898590502, 57.447507143015429 ] } },
{ "type": "Feature", "properties": { "Postcode": "IV2 6EF" }, "geometry": { "type": "Point", "coordinates": [ -4.250132892928289, 57.447018834411423 ] } },
{ "type": "Feature", "properties": { "Postcode": "IV2 6EG" }, "geometry": { "type": "Point", "coordinates": [ -4.251374902030902, 57.446888822867862 ] } },
{ "type": "Feature", "properties": { "Postcode": "IV2 6EH" }, "geometry": { "type": "Point", "coordinates": [ -4.251125274546784, 57.44662371797174 ] } },
{ "type": "Feature", "properties": { "Postcode": "IV2 6EJ" }, "geometry": { "type": "Point", "coordinates": [ -4.253269907477132, 57.445453210901803 ] } },
{ "type": "Feature", "properties": { "Postcode": "IV2 6EL" }, "geometry": { "type": "Point", "coordinates": [ -4.327189558617531, 57.407232174565024 ] } },
{ "type": "Feature", "properties": { "Postcode": "IV2 6EN" }, "geometry": { "type": "Point", "coordinates": [ -4.253189182071355, 57.446308277283194 ] } },
{ "type": "Feature", "properties": { "Postcode": "IV2 6EP" }, "geometry": { "type": "Point", "coordinates": [ -4.25498917531668, 57.444955206881509 ] } },
{ "type": "Feature", "properties": { "Postcode": "IV2 6EQ" }, "geometry": { "type": "Point", "coordinates": [ -4.251551523338508, 57.444881900715686 ] } },
{ "type": "Feature", "properties": { "Postcode": "IV2 6ER" }, "geometry": { "type": "Point", "coordinates": [ -4.251051903389416, 57.445429957638062 ] } },
{ "type": "Feature", "properties": { "Postcode": "IV2 6ET" }, "geometry": { "type": "Point", "coordinates": [ -4.219260617678466, 57.448024610988853 ] } },
{ "type": "Feature", "properties": { "Postcode": "IV2 6EU" }, "geometry": { "type": "Point", "coordinates": [ -4.216903139117043, 57.448452481767283 ] } },
{ "type": "Feature", "properties": { "Postcode": "IV2 6EW" }, "geometry": { "type": "Point", "coordinates": [ -4.240398896683533, 57.442376072221919 ] } },
{ "type": "Feature", "properties": { "Postcode": "IV2 6EX" }, "geometry": { "type": "Point", "coordinates": [ -4.18657165076402, 57.457150117496425 ] } },
{ "type": "Feature", "properties": { "Postcode": "IV2 6EY" }, "geometry": { "type": "Point", "coordinates": [ -4.1857147247554, 57.457596277399567 ] } },
{ "type": "Feature", "properties": { "Postcode": "IV2 6EZ" }, "geometry": { "type": "Point", "coordinates": [ -4.217935000082504, 57.447877228262968 ] } },
{ "type": "Feature", "properties": { "Postcode": "IV2 6FA" }, "geometry": { "type": "Point", "coordinates": [ -4.212452242912396, 57.449267511562127 ] } },
{ "type": "Feature", "properties": { "Postcode": "IV2 6FB" }, "geometry": { "type": "Point", "coordinates": [ -4.212452242912396, 57.449267511562127 ] } },
{ "type": "Feature", "properties": { "Postcode": "IV2 6FD" }, "geometry": { "type": "Point", "coordinates": [ -4.210637259368885, 57.449020818447757 ] } },
{ "type": "Feature", "properties": { "Postcode": "IV2 6FE" }, "geometry": { "type": "Point", "coordinates": [ -4.209986293083243, 57.449005280773171 ] } },
{ "type": "Feature", "properties": { "Postcode": "IV2 6FF" }, "geometry": { "type": "Point", "coordinates": [ -4.211599773821901, 57.44812336048787 ] } },
{ "type": "Feature", "properties": { "Postcode": "IV2 6FG" }, "geometry": { "type": "Point", "coordinates": [ -4.245650883258048, 57.44540952222998 ] } },
{ "type": "Feature", "properties": { "Postcode": "IV2 6FJ" }, "geometry": { "type": "Point", "coordinates": [ -4.25589908020254, 57.443222686276741 ] } },
{ "type": "Feature", "properties": { "Postcode": "IV2 6FL" }, "geometry": { "type": "Point", "coordinates": [ -4.218599258615749, 57.447011920286563 ] } },
{ "type": "Feature", "properties": { "Postcode": "IV2 6FN" }, "geometry": { "type": "Point", "coordinates": [ -4.220162934635032, 57.446687859805763 ] } },
{ "type": "Feature", "properties": { "Postcode": "IV2 6FP" }, "geometry": { "type": "Point", "coordinates": [ -4.218642757749572, 57.447729987351629 ] } },
{ "type": "Feature", "properties": { "Postcode": "IV2 6FQ" }, "geometry": { "type": "Point", "coordinates": [ -4.257549256086025, 57.443498637257136 ] } },
{ "type": "Feature", "properties": { "Postcode": "IV2 6GA" }, "geometry": { "type": "Point", "coordinates": [ -4.16651224603078, 57.451161932211974 ] } },
{ "type": "Feature", "properties": { "Postcode": "IV2 6GB" }, "geometry": { "type": "Point", "coordinates": [ -4.165819458378879, 57.451003120744339 ] } },
{ "type": "Feature", "properties": { "Postcode": "IV2 6GD" }, "geometry": { "type": "Point", "coordinates": [ -4.168304745190947, 57.452721496600851 ] } },
{ "type": "Feature", "properties": { "Postcode": "IV2 6GE" }, "geometry": { "type": "Point", "coordinates": [ -4.166417801498987, 57.451819480979225 ] } },
{ "type": "Feature", "properties": { "Postcode": "IV2 6GF" }, "geometry": { "type": "Point", "coordinates": [ -4.166286333017445, 57.452414769120999 ] } },
{ "type": "Feature", "properties": { "Postcode": "IV2 6GG" }, "geometry": { "type": "Point", "coordinates": [ -4.167686692470205, 57.450728412408864 ] } },
{ "type": "Feature", "properties": { "Postcode": "IV2 6GH" }, "geometry": { "type": "Point", "coordinates": [ -4.168346886764374, 57.45061821605853 ] } },
{ "type": "Feature", "properties": { "Postcode": "IV2 6GJ" }, "geometry": { "type": "Point", "coordinates": [ -4.177233440226994, 57.453744625709426 ] } },
{ "type": "Feature", "properties": { "Postcode": "IV2 6GL" }, "geometry": { "type": "Point", "coordinates": [ -4.17894871796157, 57.453436435138975 ] } },
{ "type": "Feature", "properties": { "Postcode": "IV2 6GN" }, "geometry": { "type": "Point", "coordinates": [ -4.176864640440447, 57.453148981817392 ] } },
{ "type": "Feature", "properties": { "Postcode": "IV2 6GP" }, "geometry": { "type": "Point", "coordinates": [ -4.176748941200881, 57.452324332808907 ] } },
{ "type": "Feature", "properties": { "Postcode": "IV2 6GQ" }, "geometry": { "type": "Point", "coordinates": [ -4.183353373030571, 57.453782509255753 ] } },
{ "type": "Feature", "properties": { "Postcode": "IV2 6GR" }, "geometry": { "type": "Point", "coordinates": [ -4.184449949803478, 57.452604399835714 ] } },
{ "type": "Feature", "properties": { "Postcode": "IV2 6GS" }, "geometry": { "type": "Point", "coordinates": [ -4.182845479494762, 57.450296019909622 ] } },
{ "type": "Feature", "properties": { "Postcode": "IV2 6GT" }, "geometry": { "type": "Point", "coordinates": [ -4.181832246155413, 57.451194128209551 ] } },
{ "type": "Feature", "properties": { "Postcode": "IV2 6GU" }, "geometry": { "type": "Point", "coordinates": [ -4.179231652643343, 57.450628127113937 ] } },
{ "type": "Feature", "properties": { "Postcode": "IV2 6GW" }, "geometry": { "type": "Point", "coordinates": [ -4.180601959421846, 57.452086998507298 ] } },
{ "type": "Feature", "properties": { "Postcode": "IV2 6GX" }, "geometry": { "type": "Point", "coordinates": [ -4.180553526865813, 57.452393337099956 ] } },
{ "type": "Feature", "properties": { "Postcode": "IV2 6GY" }, "geometry": { "type": "Point", "coordinates": [ -4.171568640517353, 57.448451194625427 ] } },
{ "type": "Feature", "properties": { "Postcode": "IV2 6GZ" }, "geometry": { "type": "Point", "coordinates": [ -4.170774575833637, 57.450801051393093 ] } },
{ "type": "Feature", "properties": { "Postcode": "IV2 6HA" }, "geometry": { "type": "Point", "coordinates": [ -4.174125662363945, 57.447445675834388 ] } },
{ "type": "Feature", "properties": { "Postcode": "IV2 6HB" }, "geometry": { "type": "Point", "coordinates": [ -4.177656304114143, 57.447681224264073 ] } },
{ "type": "Feature", "properties": { "Postcode": "IV2 6HD" }, "geometry": { "type": "Point", "coordinates": [ -4.174187185100784, 57.445674510102265 ] } },
{ "type": "Feature", "properties": { "Postcode": "IV2 6HE" }, "geometry": { "type": "Point", "coordinates": [ -4.18008072261998, 57.454531035119345 ] } },
{ "type": "Feature", "properties": { "Postcode": "IV2 6HF" }, "geometry": { "type": "Point", "coordinates": [ -4.172674529921667, 57.450516719697575 ] } },
{ "type": "Feature", "properties": { "Postcode": "IV2 6HG" }, "geometry": { "type": "Point", "coordinates": [ -4.171243310205709, 57.453084224038228 ] } },
{ "type": "Feature", "properties": { "Postcode": "IV2 6HH" }, "geometry": { "type": "Point", "coordinates": [ -4.184643277690946, 57.455844748057125 ] } },
{ "type": "Feature", "properties": { "Postcode": "IV2 6HN" }, "geometry": { "type": "Point", "coordinates": [ -4.244959615844202, 57.455611370340343 ] } },
{ "type": "Feature", "properties": { "Postcode": "IV2 6HU" }, "geometry": { "type": "Point", "coordinates": [ -4.244221665578864, 57.456082772966241 ] } },
{ "type": "Feature", "properties": { "Postcode": "IV2 6HX" }, "geometry": { "type": "Point", "coordinates": [ -4.252141622441873, 57.442553094732958 ] } },
{ "type": "Feature", "properties": { "Postcode": "IV2 6RB" }, "geometry": { "type": "Point", "coordinates": [ -4.226603805022969, 57.443249597258259 ] } },
{ "type": "Feature", "properties": { "Postcode": "IV2 6RD" }, "geometry": { "type": "Point", "coordinates": [ -4.22965772525584, 57.445783399457703 ] } },
{ "type": "Feature", "properties": { "Postcode": "IV2 6RE" }, "geometry": { "type": "Point", "coordinates": [ -4.226517175133362, 57.448678330306741 ] } },
{ "type": "Feature", "properties": { "Postcode": "IV2 6RF" }, "geometry": { "type": "Point", "coordinates": [ -4.233560577509402, 57.446379199719097 ] } },
{ "type": "Feature", "properties": { "Postcode": "IV2 6RG" }, "geometry": { "type": "Point", "coordinates": [ -4.232881345797583, 57.445079362324321 ] } },
{ "type": "Feature", "properties": { "Postcode": "IV2 6RH" }, "geometry": { "type": "Point", "coordinates": [ -4.228685219795286, 57.443221782924596 ] } },
{ "type": "Feature", "properties": { "Postcode": "IV2 6RJ" }, "geometry": { "type": "Point", "coordinates": [ -4.224008458255762, 57.443870502754208 ] } },
{ "type": "Feature", "properties": { "Postcode": "IV2 6TQ" }, "geometry": { "type": "Point", "coordinates": [ -4.328386233953151, 57.385428567170997 ] } },
{ "type": "Feature", "properties": { "Postcode": "IV2 6TR" }, "geometry": { "type": "Point", "coordinates": [ -4.33325055607183, 57.381591419141941 ] } },
{ "type": "Feature", "properties": { "Postcode": "IV2 6TS" }, "geometry": { "type": "Point", "coordinates": [ -4.331721630162119, 57.381880340467752 ] } },
{ "type": "Feature", "properties": { "Postcode": "IV2 6TT" }, "geometry": { "type": "Point", "coordinates": [ -4.334120883529461, 57.379841023772677 ] } },
{ "type": "Feature", "properties": { "Postcode": "IV2 6TU" }, "geometry": { "type": "Point", "coordinates": [ -4.339433927825124, 57.365311154451632 ] } },
{ "type": "Feature", "properties": { "Postcode": "IV2 6TW" }, "geometry": { "type": "Point", "coordinates": [ -4.32638884420789, 57.384629822218969 ] } },
{ "type": "Feature", "properties": { "Postcode": "IV2 6TX" }, "geometry": { "type": "Point", "coordinates": [ -4.353835710870902, 57.349479036235302 ] } },
{ "type": "Feature", "properties": { "Postcode": "IV2 6TY" }, "geometry": { "type": "Point", "coordinates": [ -4.398074685077468, 57.300873718284357 ] } },
{ "type": "Feature", "properties": { "Postcode": "IV2 6TZ" }, "geometry": { "type": "Point", "coordinates": [ -4.380817756164551, 57.300231271699488 ] } },
{ "type": "Feature", "properties": { "Postcode": "IV2 6UA" }, "geometry": { "type": "Point", "coordinates": [ -4.274176838664899, 57.329279793443114 ] } },
{ "type": "Feature", "properties": { "Postcode": "IV2 6UB" }, "geometry": { "type": "Point", "coordinates": [ -4.243486466494835, 57.318563048208546 ] } },
{ "type": "Feature", "properties": { "Postcode": "IV2 6UD" }, "geometry": { "type": "Point", "coordinates": [ -4.31680469093552, 57.280157884352917 ] } },
{ "type": "Feature", "properties": { "Postcode": "IV2 6UE" }, "geometry": { "type": "Point", "coordinates": [ -4.258121885278784, 57.307518256643618 ] } },
{ "type": "Feature", "properties": { "Postcode": "IV2 6UF" }, "geometry": { "type": "Point", "coordinates": [ -4.200325839161783, 57.456605229052641 ] } },
{ "type": "Feature", "properties": { "Postcode": "IV2 6UG" }, "geometry": { "type": "Point", "coordinates": [ -4.34469107603401, 57.310084960518992 ] } },
{ "type": "Feature", "properties": { "Postcode": "IV2 6UH" }, "geometry": { "type": "Point", "coordinates": [ -4.387162707092897, 57.271337594074083 ] } },
{ "type": "Feature", "properties": { "Postcode": "IV2 6UJ" }, "geometry": { "type": "Point", "coordinates": [ -4.421057276598132, 57.248681864822537 ] } },
{ "type": "Feature", "properties": { "Postcode": "IV2 6UL" }, "geometry": { "type": "Point", "coordinates": [ -4.473707099220981, 57.220705791609006 ] } },
{ "type": "Feature", "properties": { "Postcode": "IV2 6UN" }, "geometry": { "type": "Point", "coordinates": [ -4.506166577065554, 57.208361566332563 ] } },
{ "type": "Feature", "properties": { "Postcode": "IV2 6UP" }, "geometry": { "type": "Point", "coordinates": [ -4.535468520994897, 57.186492820222654 ] } },
{ "type": "Feature", "properties": { "Postcode": "IV2 6UQ" }, "geometry": { "type": "Point", "coordinates": [ -4.198740479175783, 57.45630044046797 ] } },
{ "type": "Feature", "properties": { "Postcode": "IV2 6UR" }, "geometry": { "type": "Point", "coordinates": [ -4.497727795209919, 57.191554370572135 ] } },
{ "type": "Feature", "properties": { "Postcode": "IV2 6US" }, "geometry": { "type": "Point", "coordinates": [ -4.201274925111858, 57.45603156291326 ] } },
{ "type": "Feature", "properties": { "Postcode": "IV2 6UT" }, "geometry": { "type": "Point", "coordinates": [ -4.199697047083836, 57.457793286878669 ] } },
{ "type": "Feature", "properties": { "Postcode": "IV2 6UU" }, "geometry": { "type": "Point", "coordinates": [ -4.204007794764451, 57.454905554253379 ] } },
{ "type": "Feature", "properties": { "Postcode": "IV2 6UW" }, "geometry": { "type": "Point", "coordinates": [ -4.500930499429181, 57.205868927091515 ] } },
{ "type": "Feature", "properties": { "Postcode": "IV2 6UX" }, "geometry": { "type": "Point", "coordinates": [ -4.203470145525565, 57.455112634107074 ] } },
{ "type": "Feature", "properties": { "Postcode": "IV2 6UY" }, "geometry": { "type": "Point", "coordinates": [ -4.276573360645765, 57.349481200258005 ] } },
{ "type": "Feature", "properties": { "Postcode": "IV2 6UZ" }, "geometry": { "type": "Point", "coordinates": [ -4.202026307231093, 57.455497285382741 ] } },
{ "type": "Feature", "properties": { "Postcode": "IV2 6WG" }, "geometry": { "type": "Point", "coordinates": [ -4.163884478591254, 57.40837417879343 ] } },
{ "type": "Feature", "properties": { "Postcode": "IV2 6WT" }, "geometry": { "type": "Point", "coordinates": [ -4.247413366694277, 57.448873452135999 ] } },
{ "type": "Feature", "properties": { "Postcode": "IV2 6XA" }, "geometry": { "type": "Point", "coordinates": [ -4.181224644270422, 57.384722017163888 ] } },
{ "type": "Feature", "properties": { "Postcode": "IV2 6XB" }, "geometry": { "type": "Point", "coordinates": [ -4.196996137350316, 57.35772501070872 ] } },
{ "type": "Feature", "properties": { "Postcode": "IV2 6XD" }, "geometry": { "type": "Point", "coordinates": [ -4.221428440723481, 57.324031519327008 ] } },
{ "type": "Feature", "properties": { "Postcode": "IV2 6XE" }, "geometry": { "type": "Point", "coordinates": [ -4.219868068825161, 57.34387221971329 ] } },
{ "type": "Feature", "properties": { "Postcode": "IV2 6XF" }, "geometry": { "type": "Point", "coordinates": [ -4.200669593658993, 57.372702486888727 ] } },
{ "type": "Feature", "properties": { "Postcode": "IV2 6XG" }, "geometry": { "type": "Point", "coordinates": [ -4.184864828866121, 57.396124253449152 ] } },
{ "type": "Feature", "properties": { "Postcode": "IV2 6XH" }, "geometry": { "type": "Point", "coordinates": [ -4.175410497594732, 57.390492402004178 ] } },
{ "type": "Feature", "properties": { "Postcode": "IV2 6XJ" }, "geometry": { "type": "Point", "coordinates": [ -4.187256892092839, 57.374823243293811 ] } },
{ "type": "Feature", "properties": { "Postcode": "IV2 6XN" }, "geometry": { "type": "Point", "coordinates": [ -4.148126368229902, 57.413630800086942 ] } },
{ "type": "Feature", "properties": { "Postcode": "IV2 6XP" }, "geometry": { "type": "Point", "coordinates": [ -4.344997894066984, 57.371192156165385 ] } },
{ "type": "Feature", "properties": { "Postcode": "IV2 6XR" }, "geometry": { "type": "Point", "coordinates": [ -4.45994523093613, 57.27995327437791 ] } },
{ "type": "Feature", "properties": { "Postcode": "IV2 6XS" }, "geometry": { "type": "Point", "coordinates": [ -4.454390754626792, 57.283997867857636 ] } },
{ "type": "Feature", "properties": { "Postcode": "IV2 6XT" }, "geometry": { "type": "Point", "coordinates": [ -4.474179033387563, 57.266571768119945 ] } },
{ "type": "Feature", "properties": { "Postcode": "IV2 6XU" }, "geometry": { "type": "Point", "coordinates": [ -4.491525987260796, 57.252300039874953 ] } },
{ "type": "Feature", "properties": { "Postcode": "IV2 6XW" }, "geometry": { "type": "Point", "coordinates": [ -4.497648629238501, 57.25310402900449 ] } },
{ "type": "Feature", "properties": { "Postcode": "IV2 6XX" }, "geometry": { "type": "Point", "coordinates": [ -4.489394821169839, 57.248235525150704 ] } },
{ "type": "Feature", "properties": { "Postcode": "IV2 6XY" }, "geometry": { "type": "Point", "coordinates": [ -4.488428185043282, 57.247176316958367 ] } },
{ "type": "Feature", "properties": { "Postcode": "IV2 6XZ" }, "geometry": { "type": "Point", "coordinates": [ -4.490025794977934, 57.246039325241789 ] } },
{ "type": "Feature", "properties": { "Postcode": "IV2 6YA" }, "geometry": { "type": "Point", "coordinates": [ -4.482884124418305, 57.248301507850165 ] } },
{ "type": "Feature", "properties": { "Postcode": "IV2 6YB" }, "geometry": { "type": "Point", "coordinates": [ -4.494541278255243, 57.253983545976496 ] } },
{ "type": "Feature", "properties": { "Postcode": "IV2 6YE" }, "geometry": { "type": "Point", "coordinates": [ -4.4940007408572, 57.254326776916834 ] } },
{ "type": "Feature", "properties": { "Postcode": "IV2 6YF" }, "geometry": { "type": "Point", "coordinates": [ -4.498348007576817, 57.252658771716483 ] } },
{ "type": "Feature", "properties": { "Postcode": "IV2 6YG" }, "geometry": { "type": "Point", "coordinates": [ -4.499246173105577, 57.25098740379552 ] } },
{ "type": "Feature", "properties": { "Postcode": "IV2 6YH" }, "geometry": { "type": "Point", "coordinates": [ -4.498886700570039, 57.254247634095421 ] } },
{ "type": "Feature", "properties": { "Postcode": "IV2 6YJ" }, "geometry": { "type": "Point", "coordinates": [ -4.182730056657726, 57.38513620699122 ] } },
{ "type": "Feature", "properties": { "Postcode": "IV2 6YP" }, "geometry": { "type": "Point", "coordinates": [ -4.444021744671081, 57.244238184771412 ] } },
{ "type": "Feature", "properties": { "Postcode": "IV2 6YR" }, "geometry": { "type": "Point", "coordinates": [ -4.436207931501608, 57.244390011682377 ] } },
{ "type": "Feature", "properties": { "Postcode": "IV2 6YS" }, "geometry": { "type": "Point", "coordinates": [ -4.461466388820886, 57.236384911826768 ] } },
{ "type": "Feature", "properties": { "Postcode": "IV2 7AB" }, "geometry": { "type": "Point", "coordinates": [ -4.138468492979156, 57.487267197810802 ] } },
{ "type": "Feature", "properties": { "Postcode": "IV2 7AD" }, "geometry": { "type": "Point", "coordinates": [ -4.034367752998092, 57.563276512915927 ] } },
{ "type": "Feature", "properties": { "Postcode": "IV2 7AE" }, "geometry": { "type": "Point", "coordinates": [ -4.072788856238833, 57.538293443466991 ] } },
{ "type": "Feature", "properties": { "Postcode": "IV2 7AH" }, "geometry": { "type": "Point", "coordinates": [ -3.986263525327661, 57.547232058090778 ] } },
{ "type": "Feature", "properties": { "Postcode": "IV2 7AJ" }, "geometry": { "type": "Point", "coordinates": [ -4.158695333300273, 57.484811008524133 ] } },
{ "type": "Feature", "properties": { "Postcode": "IV2 7AL" }, "geometry": { "type": "Point", "coordinates": [ -4.158040285054585, 57.484453828057831 ] } },
{ "type": "Feature", "properties": { "Postcode": "IV2 7AN" }, "geometry": { "type": "Point", "coordinates": [ -4.156492689186179, 57.484803774355306 ] } },
{ "type": "Feature", "properties": { "Postcode": "IV2 7AP" }, "geometry": { "type": "Point", "coordinates": [ -4.155079206902299, 57.484315784988532 ] } },
{ "type": "Feature", "properties": { "Postcode": "IV2 7AQ" }, "geometry": { "type": "Point", "coordinates": [ -4.148138913339857, 57.482610225612014 ] } },
{ "type": "Feature", "properties": { "Postcode": "IV2 7AR" }, "geometry": { "type": "Point", "coordinates": [ -4.133480403801632, 57.48842092775795 ] } },
{ "type": "Feature", "properties": { "Postcode": "IV2 7AS" }, "geometry": { "type": "Point", "coordinates": [ -4.159392569109202, 57.483622005865129 ] } },
{ "type": "Feature", "properties": { "Postcode": "IV2 7AT" }, "geometry": { "type": "Point", "coordinates": [ -4.156526269297489, 57.483958590290008 ] } },
{ "type": "Feature", "properties": { "Postcode": "IV2 7AU" }, "geometry": { "type": "Point", "coordinates": [ -4.156729168308001, 57.483721504280382 ] } },
{ "type": "Feature", "properties": { "Postcode": "IV2 7AW" }, "geometry": { "type": "Point", "coordinates": [ -4.157976728658307, 57.483376690170168 ] } },
{ "type": "Feature", "properties": { "Postcode": "IV2 7AX" }, "geometry": { "type": "Point", "coordinates": [ -4.156555084952842, 57.483032620691041 ] } },
{ "type": "Feature", "properties": { "Postcode": "IV2 7AY" }, "geometry": { "type": "Point", "coordinates": [ -4.140010856798122, 57.490529600226523 ] } },
{ "type": "Feature", "properties": { "Postcode": "IV2 7AZ" }, "geometry": { "type": "Point", "coordinates": [ -4.134823262019894, 57.485415129061515 ] } },
{ "type": "Feature", "properties": { "Postcode": "IV2 7BD" }, "geometry": { "type": "Point", "coordinates": [ -4.155307522521748, 57.483377420766132 ] } },
{ "type": "Feature", "properties": { "Postcode": "IV2 7BL" }, "geometry": { "type": "Point", "coordinates": [ -4.066094264611483, 57.538088749253859 ] } },
{ "type": "Feature", "properties": { "Postcode": "IV2 7BS" }, "geometry": { "type": "Point", "coordinates": [ -4.175262945257426, 57.485667394326256 ] } },
{ "type": "Feature", "properties": { "Postcode": "IV2 7BZ" }, "geometry": { "type": "Point", "coordinates": [ -4.135232901231356, 57.490430893056086 ] } },
{ "type": "Feature", "properties": { "Postcode": "IV2 7DU" }, "geometry": { "type": "Point", "coordinates": [ -4.140213186102424, 57.485719103210698 ] } },
{ "type": "Feature", "properties": { "Postcode": "IV2 7DX" }, "geometry": { "type": "Point", "coordinates": [ -4.139266761743057, 57.490074997727284 ] } },
{ "type": "Feature", "properties": { "Postcode": "IV2 7DY" }, "geometry": { "type": "Point", "coordinates": [ -4.131709578828121, 57.489241569716974 ] } },
{ "type": "Feature", "properties": { "Postcode": "IV2 7DZ" }, "geometry": { "type": "Point", "coordinates": [ -4.132027177628685, 57.48867912127772 ] } },
{ "type": "Feature", "properties": { "Postcode": "IV2 7EU" }, "geometry": { "type": "Point", "coordinates": [ -4.135204082284046, 57.487079919510968 ] } },
{ "type": "Feature", "properties": { "Postcode": "IV2 7EX" }, "geometry": { "type": "Point", "coordinates": [ -4.137312151585597, 57.486037866458744 ] } },
{ "type": "Feature", "properties": { "Postcode": "IV2 7EY" }, "geometry": { "type": "Point", "coordinates": [ -4.134783616044333, 57.48673661792391 ] } },
{ "type": "Feature", "properties": { "Postcode": "IV2 7EZ" }, "geometry": { "type": "Point", "coordinates": [ -4.133572014662736, 57.486559451830914 ] } },
{ "type": "Feature", "properties": { "Postcode": "IV2 7FD" }, "geometry": { "type": "Point", "coordinates": [ -4.141771313208176, 57.488109656838361 ] } },
{ "type": "Feature", "properties": { "Postcode": "IV2 7FG" }, "geometry": { "type": "Point", "coordinates": [ -4.152403853955781, 57.481378397578737 ] } },
{ "type": "Feature", "properties": { "Postcode": "IV2 7FJ" }, "geometry": { "type": "Point", "coordinates": [ -4.153724692401068, 57.480295587008207 ] } },
{ "type": "Feature", "properties": { "Postcode": "IV2 7FL" }, "geometry": { "type": "Point", "coordinates": [ -4.152703009726943, 57.481642846191143 ] } },
{ "type": "Feature", "properties": { "Postcode": "IV2 7FQ" }, "geometry": { "type": "Point", "coordinates": [ -4.112292396433078, 57.49451911365891 ] } },
{ "type": "Feature", "properties": { "Postcode": "IV2 7FX" }, "geometry": { "type": "Point", "coordinates": [ -4.144647379171124, 57.487647454189499 ] } },
{ "type": "Feature", "properties": { "Postcode": "IV2 7FY" }, "geometry": { "type": "Point", "coordinates": [ -4.127403547141787, 57.48778681885026 ] } },
{ "type": "Feature", "properties": { "Postcode": "IV2 7FZ" }, "geometry": { "type": "Point", "coordinates": [ -4.123758897391571, 57.487659569747422 ] } },
{ "type": "Feature", "properties": { "Postcode": "IV2 7GB" }, "geometry": { "type": "Point", "coordinates": [ -4.181877561201492, 57.480763952870966 ] } },
{ "type": "Feature", "properties": { "Postcode": "IV2 7GD" }, "geometry": { "type": "Point", "coordinates": [ -4.177371513599465, 57.481291117258849 ] } },
{ "type": "Feature", "properties": { "Postcode": "IV2 7GE" }, "geometry": { "type": "Point", "coordinates": [ -4.183205196626044, 57.48148674810016 ] } },
{ "type": "Feature", "properties": { "Postcode": "IV2 7GG" }, "geometry": { "type": "Point", "coordinates": [ -4.184141009611754, 57.482072553676367 ] } },
{ "type": "Feature", "properties": { "Postcode": "IV2 7GP" }, "geometry": { "type": "Point", "coordinates": [ -4.119589058457459, 57.498332159569387 ] } },
{ "type": "Feature", "properties": { "Postcode": "IV2 7GS" }, "geometry": { "type": "Point", "coordinates": [ -4.11440280938502, 57.497538677930912 ] } },
{ "type": "Feature", "properties": { "Postcode": "IV2 7GT" }, "geometry": { "type": "Point", "coordinates": [ -4.11555229863309, 57.496926384468075 ] } },
{ "type": "Feature", "properties": { "Postcode": "IV2 7GU" }, "geometry": { "type": "Point", "coordinates": [ -4.117435057252889, 57.498601955349599 ] } },
{ "type": "Feature", "properties": { "Postcode": "IV2 7GW" }, "geometry": { "type": "Point", "coordinates": [ -4.115895391128642, 57.498528960242467 ] } },
{ "type": "Feature", "properties": { "Postcode": "IV2 7GX" }, "geometry": { "type": "Point", "coordinates": [ -4.116307070637693, 57.498144678757505 ] } },
{ "type": "Feature", "properties": { "Postcode": "IV2 7HA" }, "geometry": { "type": "Point", "coordinates": [ -4.117358311774056, 57.499870142201807 ] } },
{ "type": "Feature", "properties": { "Postcode": "IV2 7HB" }, "geometry": { "type": "Point", "coordinates": [ -4.139888070268399, 57.484439742294718 ] } },
{ "type": "Feature", "properties": { "Postcode": "IV2 7HE" }, "geometry": { "type": "Point", "coordinates": [ -4.123731082316382, 57.494075414407249 ] } },
{ "type": "Feature", "properties": { "Postcode": "IV2 7HF" }, "geometry": { "type": "Point", "coordinates": [ -4.120771830215351, 57.497719258591566 ] } },
{ "type": "Feature", "properties": { "Postcode": "IV2 7HG" }, "geometry": { "type": "Point", "coordinates": [ -4.122144201553814, 57.495773359490563 ] } },
{ "type": "Feature", "properties": { "Postcode": "IV2 7HH" }, "geometry": { "type": "Point", "coordinates": [ -4.111684245133893, 57.493235446051905 ] } },
{ "type": "Feature", "properties": { "Postcode": "IV2 7HJ" }, "geometry": { "type": "Point", "coordinates": [ -4.138236892510221, 57.484162259119046 ] } },
{ "type": "Feature", "properties": { "Postcode": "IV2 7HL" }, "geometry": { "type": "Point", "coordinates": [ -4.112443774505733, 57.495406101714316 ] } },
{ "type": "Feature", "properties": { "Postcode": "IV2 7HN" }, "geometry": { "type": "Point", "coordinates": [ -4.111322274834403, 57.496503092847526 ] } },
{ "type": "Feature", "properties": { "Postcode": "IV2 7HP" }, "geometry": { "type": "Point", "coordinates": [ -4.111113031117179, 57.494035697560854 ] } },
{ "type": "Feature", "properties": { "Postcode": "IV2 7HQ" }, "geometry": { "type": "Point", "coordinates": [ -4.118325780548544, 57.495828571775597 ] } },
{ "type": "Feature", "properties": { "Postcode": "IV2 7HR" }, "geometry": { "type": "Point", "coordinates": [ -4.110212076495354, 57.494616837145742 ] } },
{ "type": "Feature", "properties": { "Postcode": "IV2 7HS" }, "geometry": { "type": "Point", "coordinates": [ -4.109693184064397, 57.49458957855019 ] } },
{ "type": "Feature", "properties": { "Postcode": "IV2 7HT" }, "geometry": { "type": "Point", "coordinates": [ -4.109091336387584, 57.493413614868004 ] } },
{ "type": "Feature", "properties": { "Postcode": "IV2 7HU" }, "geometry": { "type": "Point", "coordinates": [ -4.118300348419918, 57.50028560780796 ] } },
{ "type": "Feature", "properties": { "Postcode": "IV2 7HW" }, "geometry": { "type": "Point", "coordinates": [ -4.114362958930231, 57.49367575654685 ] } },
{ "type": "Feature", "properties": { "Postcode": "IV2 7HX" }, "geometry": { "type": "Point", "coordinates": [ -4.144152408643061, 57.499408471450757 ] } },
{ "type": "Feature", "properties": { "Postcode": "IV2 7HY" }, "geometry": { "type": "Point", "coordinates": [ -4.147845804321077, 57.510568093021256 ] } },
{ "type": "Feature", "properties": { "Postcode": "IV2 7HZ" }, "geometry": { "type": "Point", "coordinates": [ -4.146080961328437, 57.517471769294637 ] } },
{ "type": "Feature", "properties": { "Postcode": "IV2 7JA" }, "geometry": { "type": "Point", "coordinates": [ -4.134389528999145, 57.509996825704484 ] } },
{ "type": "Feature", "properties": { "Postcode": "IV2 7JB" }, "geometry": { "type": "Point", "coordinates": [ -4.063449880668828, 57.540962262071019 ] } },
{ "type": "Feature", "properties": { "Postcode": "IV2 7JE" }, "geometry": { "type": "Point", "coordinates": [ -4.086538495732227, 57.539450546883259 ] } },
{ "type": "Feature", "properties": { "Postcode": "IV2 7JF" }, "geometry": { "type": "Point", "coordinates": [ -4.061460975224461, 57.522315117865709 ] } },
{ "type": "Feature", "properties": { "Postcode": "IV2 7JG" }, "geometry": { "type": "Point", "coordinates": [ -4.043313767126099, 57.529582588126821 ] } },
{ "type": "Feature", "properties": { "Postcode": "IV2 7JH" }, "geometry": { "type": "Point", "coordinates": [ -4.102756856535729, 57.520798007672894 ] } },
{ "type": "Feature", "properties": { "Postcode": "IV2 7JJ" }, "geometry": { "type": "Point", "coordinates": [ -4.060881598704523, 57.522701950011623 ] } },
{ "type": "Feature", "properties": { "Postcode": "IV2 7JL" }, "geometry": { "type": "Point", "coordinates": [ -4.091117812584645, 57.53247428385955 ] } },
{ "type": "Feature", "properties": { "Postcode": "IV2 7JN" }, "geometry": { "type": "Point", "coordinates": [ -4.113534202767167, 57.4931954690989 ] } },
{ "type": "Feature", "properties": { "Postcode": "IV2 7JP" }, "geometry": { "type": "Point", "coordinates": [ -4.109579819115117, 57.495516938335783 ] } },
{ "type": "Feature", "properties": { "Postcode": "IV2 7JQ" }, "geometry": { "type": "Point", "coordinates": [ -4.086655306132849, 57.514605130841126 ] } },
{ "type": "Feature", "properties": { "Postcode": "IV2 7JR" }, "geometry": { "type": "Point", "coordinates": [ -4.108079442562789, 57.495254505344995 ] } },
{ "type": "Feature", "properties": { "Postcode": "IV2 7JS" }, "geometry": { "type": "Point", "coordinates": [ -4.108474189820821, 57.494286502636527 ] } },
{ "type": "Feature", "properties": { "Postcode": "IV2 7JT" }, "geometry": { "type": "Point", "coordinates": [ -4.115699198530198, 57.493985793953982 ] } },
{ "type": "Feature", "properties": { "Postcode": "IV2 7JU" }, "geometry": { "type": "Point", "coordinates": [ -4.149321193995453, 57.477747055495641 ] } },
{ "type": "Feature", "properties": { "Postcode": "IV2 7JW" }, "geometry": { "type": "Point", "coordinates": [ -4.112471115079819, 57.492413608982268 ] } },
{ "type": "Feature", "properties": { "Postcode": "IV2 7JX" }, "geometry": { "type": "Point", "coordinates": [ -4.139209203957845, 57.493939591895248 ] } },
{ "type": "Feature", "properties": { "Postcode": "IV2 7JY" }, "geometry": { "type": "Point", "coordinates": [ -4.154109674285467, 57.47805169254805 ] } },
{ "type": "Feature", "properties": { "Postcode": "IV2 7JZ" }, "geometry": { "type": "Point", "coordinates": [ -4.129529737178261, 57.492495080309034 ] } },
{ "type": "Feature", "properties": { "Postcode": "IV2 7LA" }, "geometry": { "type": "Point", "coordinates": [ -4.141758868774905, 57.493024753764637 ] } },
{ "type": "Feature", "properties": { "Postcode": "IV2 7LB" }, "geometry": { "type": "Point", "coordinates": [ -4.143769698525984, 57.49202917251818 ] } },
{ "type": "Feature", "properties": { "Postcode": "IV2 7LD" }, "geometry": { "type": "Point", "coordinates": [ -4.143100237990618, 57.492849216804636 ] } },
{ "type": "Feature", "properties": { "Postcode": "IV2 7LE" }, "geometry": { "type": "Point", "coordinates": [ -4.142619750632304, 57.493477358036266 ] } },
{ "type": "Feature", "properties": { "Postcode": "IV2 7LF" }, "geometry": { "type": "Point", "coordinates": [ -4.140456608374358, 57.493298449251007 ] } },
{ "type": "Feature", "properties": { "Postcode": "IV2 7LG" }, "geometry": { "type": "Point", "coordinates": [ -4.140948544923639, 57.492580270607377 ] } },
{ "type": "Feature", "properties": { "Postcode": "IV2 7LH" }, "geometry": { "type": "Point", "coordinates": [ -4.147718034985694, 57.486238426418602 ] } },
{ "type": "Feature", "properties": { "Postcode": "IV2 7LJ" }, "geometry": { "type": "Point", "coordinates": [ -4.144072250411731, 57.48665988050702 ] } },
{ "type": "Feature", "properties": { "Postcode": "IV2 7LL" }, "geometry": { "type": "Point", "coordinates": [ -4.142281401984746, 57.487418118698628 ] } },
{ "type": "Feature", "properties": { "Postcode": "IV2 7LN" }, "geometry": { "type": "Point", "coordinates": [ -4.14551638259692, 57.487102545148147 ] } },
{ "type": "Feature", "properties": { "Postcode": "IV2 7LP" }, "geometry": { "type": "Point", "coordinates": [ -4.14691048584629, 57.486692453057508 ] } },
{ "type": "Feature", "properties": { "Postcode": "IV2 7LQ" }, "geometry": { "type": "Point", "coordinates": [ -4.148755100194285, 57.487703313395535 ] } },
{ "type": "Feature", "properties": { "Postcode": "IV2 7LR" }, "geometry": { "type": "Point", "coordinates": [ -4.148289357297938, 57.486875627048271 ] } },
{ "type": "Feature", "properties": { "Postcode": "IV2 7LS" }, "geometry": { "type": "Point", "coordinates": [ -4.126839815845508, 57.49071649602552 ] } },
{ "type": "Feature", "properties": { "Postcode": "IV2 7LT" }, "geometry": { "type": "Point", "coordinates": [ -4.140658356558797, 57.483348446365184 ] } },
{ "type": "Feature", "properties": { "Postcode": "IV2 7LU" }, "geometry": { "type": "Point", "coordinates": [ -4.147739286664179, 57.478645578542128 ] } },
{ "type": "Feature", "properties": { "Postcode": "IV2 7LW" }, "geometry": { "type": "Point", "coordinates": [ -4.146399249581363, 57.487078534355895 ] } },
{ "type": "Feature", "properties": { "Postcode": "IV2 7LX" }, "geometry": { "type": "Point", "coordinates": [ -4.146413734051906, 57.47908147196403 ] } },
{ "type": "Feature", "properties": { "Postcode": "IV2 7LY" }, "geometry": { "type": "Point", "coordinates": [ -4.146796096670932, 57.478490924157406 ] } },
{ "type": "Feature", "properties": { "Postcode": "IV2 7LZ" }, "geometry": { "type": "Point", "coordinates": [ -4.145746331355676, 57.489884037397573 ] } },
{ "type": "Feature", "properties": { "Postcode": "IV2 7NA" }, "geometry": { "type": "Point", "coordinates": [ -4.145508964526537, 57.490957312190325 ] } },
{ "type": "Feature", "properties": { "Postcode": "IV2 7NB" }, "geometry": { "type": "Point", "coordinates": [ -4.147539334996178, 57.489161654755684 ] } },
{ "type": "Feature", "properties": { "Postcode": "IV2 7ND" }, "geometry": { "type": "Point", "coordinates": [ -4.145432568065778, 57.488802169893511 ] } },
{ "type": "Feature", "properties": { "Postcode": "IV2 7NE" }, "geometry": { "type": "Point", "coordinates": [ -4.146212449875813, 57.488159935663944 ] } },
{ "type": "Feature", "properties": { "Postcode": "IV2 7NF" }, "geometry": { "type": "Point", "coordinates": [ -4.1447260102395, 57.49012602505595 ] } },
{ "type": "Feature", "properties": { "Postcode": "IV2 7NG" }, "geometry": { "type": "Point", "coordinates": [ -4.129206677583576, 57.489526456125176 ] } },
{ "type": "Feature", "properties": { "Postcode": "IV2 7NH" }, "geometry": { "type": "Point", "coordinates": [ -4.156899356246105, 57.477554735233632 ] } },
{ "type": "Feature", "properties": { "Postcode": "IV2 7NJ" }, "geometry": { "type": "Point", "coordinates": [ -4.151165336775068, 57.477338223671573 ] } },
{ "type": "Feature", "properties": { "Postcode": "IV2 7NL" }, "geometry": { "type": "Point", "coordinates": [ -4.147479134782378, 57.482738272437359 ] } },
{ "type": "Feature", "properties": { "Postcode": "IV2 7NN" }, "geometry": { "type": "Point", "coordinates": [ -4.148425508671931, 57.482093186411923 ] } },
{ "type": "Feature", "properties": { "Postcode": "IV2 7NP" }, "geometry": { "type": "Point", "coordinates": [ -4.148617141341356, 57.48421941126081 ] } },
{ "type": "Feature", "properties": { "Postcode": "IV2 7NQ" }, "geometry": { "type": "Point", "coordinates": [ -4.145761563438897, 57.484456729684638 ] } },
{ "type": "Feature", "properties": { "Postcode": "IV2 7NR" }, "geometry": { "type": "Point", "coordinates": [ -4.147455031966049, 57.484032550112147 ] } },
{ "type": "Feature", "properties": { "Postcode": "IV2 7NS" }, "geometry": { "type": "Point", "coordinates": [ -4.166757112214837, 57.488814918093588 ] } },
{ "type": "Feature", "properties": { "Postcode": "IV2 7NT" }, "geometry": { "type": "Point", "coordinates": [ -4.15828649638951, 57.494279431409694 ] } },
{ "type": "Feature", "properties": { "Postcode": "IV2 7NU" }, "geometry": { "type": "Point", "coordinates": [ -4.157154737701953, 57.494613278288071 ] } },
{ "type": "Feature", "properties": { "Postcode": "IV2 7NW" }, "geometry": { "type": "Point", "coordinates": [ -4.147441656762139, 57.483520622199087 ] } },
{ "type": "Feature", "properties": { "Postcode": "IV2 7NX" }, "geometry": { "type": "Point", "coordinates": [ -4.150212606896885, 57.493195372002397 ] } },
{ "type": "Feature", "properties": { "Postcode": "IV2 7NY" }, "geometry": { "type": "Point", "coordinates": [ -4.140629642984408, 57.491408628377222 ] } },
{ "type": "Feature", "properties": { "Postcode": "IV2 7NZ" }, "geometry": { "type": "Point", "coordinates": [ -4.151358743803956, 57.489986082016259 ] } },
{ "type": "Feature", "properties": { "Postcode": "IV2 7PA" }, "geometry": { "type": "Point", "coordinates": [ -4.1855786118633, 57.481283891685209 ] } },
{ "type": "Feature", "properties": { "Postcode": "IV2 7PB" }, "geometry": { "type": "Point", "coordinates": [ -4.150326157404932, 57.48037156754939 ] } },
{ "type": "Feature", "properties": { "Postcode": "IV2 7PD" }, "geometry": { "type": "Point", "coordinates": [ -4.149006691828906, 57.480627680084453 ] } },
{ "type": "Feature", "properties": { "Postcode": "IV2 7PE" }, "geometry": { "type": "Point", "coordinates": [ -4.150172438280675, 57.478891631251699 ] } },
{ "type": "Feature", "properties": { "Postcode": "IV2 7PF" }, "geometry": { "type": "Point", "coordinates": [ -4.151933187220733, 57.47961634682764 ] } },
{ "type": "Feature", "properties": { "Postcode": "IV2 7PG" }, "geometry": { "type": "Point", "coordinates": [ -4.152458154439136, 57.47776541787816 ] } },
{ "type": "Feature", "properties": { "Postcode": "IV2 7PH" }, "geometry": { "type": "Point", "coordinates": [ -4.153696852227485, 57.476989505348477 ] } },
{ "type": "Feature", "properties": { "Postcode": "IV2 7PJ" }, "geometry": { "type": "Point", "coordinates": [ -3.983448470731884, 57.519729131228928 ] } },
{ "type": "Feature", "properties": { "Postcode": "IV2 7PL" }, "geometry": { "type": "Point", "coordinates": [ -4.152163257380209, 57.477572777841893 ] } },
{ "type": "Feature", "properties": { "Postcode": "IV2 7PQ" }, "geometry": { "type": "Point", "coordinates": [ -4.143800703850465, 57.483735329888226 ] } },
{ "type": "Feature", "properties": { "Postcode": "IV2 7PW" }, "geometry": { "type": "Point", "coordinates": [ -4.142589890645453, 57.483001156606832 ] } },
{ "type": "Feature", "properties": { "Postcode": "IV2 7PX" }, "geometry": { "type": "Point", "coordinates": [ -4.14547062773471, 57.482341177249545 ] } },
{ "type": "Feature", "properties": { "Postcode": "IV2 7PY" }, "geometry": { "type": "Point", "coordinates": [ -4.030949136987402, 57.566134810929448 ] } },
{ "type": "Feature", "properties": { "Postcode": "IV2 7PZ" }, "geometry": { "type": "Point", "coordinates": [ -4.141717350534826, 57.484624327213162 ] } },
{ "type": "Feature", "properties": { "Postcode": "IV2 7QA" }, "geometry": { "type": "Point", "coordinates": [ -3.978099719600952, 57.574808478404911 ] } },
{ "type": "Feature", "properties": { "Postcode": "IV2 7QB" }, "geometry": { "type": "Point", "coordinates": [ -4.038573282551953, 57.571214152603915 ] } },
{ "type": "Feature", "properties": { "Postcode": "IV2 7QD" }, "geometry": { "type": "Point", "coordinates": [ -4.040384083595001, 57.572793187610422 ] } },
{ "type": "Feature", "properties": { "Postcode": "IV2 7QE" }, "geometry": { "type": "Point", "coordinates": [ -4.039398472649769, 57.571317630237012 ] } },
{ "type": "Feature", "properties": { "Postcode": "IV2 7QF" }, "geometry": { "type": "Point", "coordinates": [ -4.038420974018306, 57.569985691733443 ] } },
{ "type": "Feature", "properties": { "Postcode": "IV2 7QG" }, "geometry": { "type": "Point", "coordinates": [ -4.041419247134483, 57.573360470005717 ] } },
{ "type": "Feature", "properties": { "Postcode": "IV2 7QH" }, "geometry": { "type": "Point", "coordinates": [ -4.038877078704187, 57.570068175897404 ] } },
{ "type": "Feature", "properties": { "Postcode": "IV2 7QJ" }, "geometry": { "type": "Point", "coordinates": [ -4.038541717907681, 57.56945363823403 ] } },
{ "type": "Feature", "properties": { "Postcode": "IV2 7QL" }, "geometry": { "type": "Point", "coordinates": [ -4.038462342575785, 57.569230299272505 ] } },
{ "type": "Feature", "properties": { "Postcode": "IV2 7QN" }, "geometry": { "type": "Point", "coordinates": [ -4.026495767221632, 57.571444498973804 ] } },
{ "type": "Feature", "properties": { "Postcode": "IV2 7QP" }, "geometry": { "type": "Point", "coordinates": [ -3.994083618476838, 57.555779027144887 ] } },
{ "type": "Feature", "properties": { "Postcode": "IV2 7QQ" }, "geometry": { "type": "Point", "coordinates": [ -4.037112547166049, 57.574400379988731 ] } },
{ "type": "Feature", "properties": { "Postcode": "IV2 7QR" }, "geometry": { "type": "Point", "coordinates": [ -3.985535472751532, 57.546443872516569 ] } },
{ "type": "Feature", "properties": { "Postcode": "IV2 7QS" }, "geometry": { "type": "Point", "coordinates": [ -3.979239927291049, 57.530505026930605 ] } },
{ "type": "Feature", "properties": { "Postcode": "IV2 7QT" }, "geometry": { "type": "Point", "coordinates": [ -4.014706023011223, 57.543295174495725 ] } },
{ "type": "Feature", "properties": { "Postcode": "IV2 7QU" }, "geometry": { "type": "Point", "coordinates": [ -4.050229731699972, 57.553091657137664 ] } },
{ "type": "Feature", "properties": { "Postcode": "IV2 7QW" }, "geometry": { "type": "Point", "coordinates": [ -4.037488672766757, 57.574547053481901 ] } },
{ "type": "Feature", "properties": { "Postcode": "IV2 7QX" }, "geometry": { "type": "Point", "coordinates": [ -3.999265485127907, 57.57712564644811 ] } },
{ "type": "Feature", "properties": { "Postcode": "IV2 7QZ" }, "geometry": { "type": "Point", "coordinates": [ -4.040182194874707, 57.574862957254247 ] } },
{ "type": "Feature", "properties": { "Postcode": "IV2 7RA" }, "geometry": { "type": "Point", "coordinates": [ -4.109968826492795, 57.491269470801868 ] } },
{ "type": "Feature", "properties": { "Postcode": "IV2 7RB" }, "geometry": { "type": "Point", "coordinates": [ -4.111854540361158, 57.491561367588972 ] } },
{ "type": "Feature", "properties": { "Postcode": "IV2 7RD" }, "geometry": { "type": "Point", "coordinates": [ -4.033248381143344, 57.566888468771857 ] } },
{ "type": "Feature", "properties": { "Postcode": "IV2 7RF" }, "geometry": { "type": "Point", "coordinates": [ -4.117426701049974, 57.494424024963166 ] } },
{ "type": "Feature", "properties": { "Postcode": "IV2 7RJ" }, "geometry": { "type": "Point", "coordinates": [ -4.127768387560733, 57.489182343699689 ] } },
{ "type": "Feature", "properties": { "Postcode": "IV2 7RL" }, "geometry": { "type": "Point", "coordinates": [ -4.128767789092195, 57.488006393138214 ] } },
{ "type": "Feature", "properties": { "Postcode": "IV2 7RP" }, "geometry": { "type": "Point", "coordinates": [ -4.037891813332634, 57.569194584615595 ] } },
{ "type": "Feature", "properties": { "Postcode": "IV2 7RQ" }, "geometry": { "type": "Point", "coordinates": [ -4.124542948714768, 57.489380490961494 ] } },
{ "type": "Feature", "properties": { "Postcode": "IV2 7RR" }, "geometry": { "type": "Point", "coordinates": [ -4.037157491854646, 57.567723939659167 ] } },
{ "type": "Feature", "properties": { "Postcode": "IV2 7RS" }, "geometry": { "type": "Point", "coordinates": [ -4.038092883962195, 57.565911880476158 ] } },
{ "type": "Feature", "properties": { "Postcode": "IV2 7RT" }, "geometry": { "type": "Point", "coordinates": [ -4.037717347534443, 57.565774184751184 ] } },
{ "type": "Feature", "properties": { "Postcode": "IV2 7RU" }, "geometry": { "type": "Point", "coordinates": [ -4.038914352942884, 57.565054044185494 ] } },
{ "type": "Feature", "properties": { "Postcode": "IV2 7RW" }, "geometry": { "type": "Point", "coordinates": [ -4.122919278878366, 57.489578554194885 ] } },
{ "type": "Feature", "properties": { "Postcode": "IV2 7RX" }, "geometry": { "type": "Point", "coordinates": [ -4.037849748325599, 57.567245558204299 ] } },
{ "type": "Feature", "properties": { "Postcode": "IV2 7RY" }, "geometry": { "type": "Point", "coordinates": [ -4.038124867874187, 57.564689428467865 ] } },
{ "type": "Feature", "properties": { "Postcode": "IV2 7RZ" }, "geometry": { "type": "Point", "coordinates": [ -4.038740340136415, 57.563736085039238 ] } },
{ "type": "Feature", "properties": { "Postcode": "IV2 7SA" }, "geometry": { "type": "Point", "coordinates": [ -4.03804429317039, 57.563846155815384 ] } },
{ "type": "Feature", "properties": { "Postcode": "IV2 7SB" }, "geometry": { "type": "Point", "coordinates": [ -4.037057946255189, 57.564446087164733 ] } },
{ "type": "Feature", "properties": { "Postcode": "IV2 7SD" }, "geometry": { "type": "Point", "coordinates": [ -4.037776174053771, 57.563536014791111 ] } },
{ "type": "Feature", "properties": { "Postcode": "IV2 7SE" }, "geometry": { "type": "Point", "coordinates": [ -4.036107628706244, 57.563895372752448 ] } },
{ "type": "Feature", "properties": { "Postcode": "IV2 7SF" }, "geometry": { "type": "Point", "coordinates": [ -4.033491548493152, 57.564952818617066 ] } },
{ "type": "Feature", "properties": { "Postcode": "IV2 7SG" }, "geometry": { "type": "Point", "coordinates": [ -4.036398869896777, 57.567313890863105 ] } },
{ "type": "Feature", "properties": { "Postcode": "IV2 7SH" }, "geometry": { "type": "Point", "coordinates": [ -4.035760194439896, 57.565158849668983 ] } },
{ "type": "Feature", "properties": { "Postcode": "IV2 7SJ" }, "geometry": { "type": "Point", "coordinates": [ -4.036800895853562, 57.565231913473426 ] } },
{ "type": "Feature", "properties": { "Postcode": "IV2 7SL" }, "geometry": { "type": "Point", "coordinates": [ -4.035305493270788, 57.565399785554931 ] } },
{ "type": "Feature", "properties": { "Postcode": "IV2 7SN" }, "geometry": { "type": "Point", "coordinates": [ -4.034882706872102, 57.564714769545432 ] } },
{ "type": "Feature", "properties": { "Postcode": "IV2 7SP" }, "geometry": { "type": "Point", "coordinates": [ -4.036427401000797, 57.566028602055297 ] } },
{ "type": "Feature", "properties": { "Postcode": "IV2 7SQ" }, "geometry": { "type": "Point", "coordinates": [ -4.036693333827066, 57.565700859151647 ] } },
{ "type": "Feature", "properties": { "Postcode": "IV2 7SR" }, "geometry": { "type": "Point", "coordinates": [ -4.037391976696068, 57.566534160312656 ] } },
{ "type": "Feature", "properties": { "Postcode": "IV2 7SS" }, "geometry": { "type": "Point", "coordinates": [ -4.035147119416634, 57.567055544100675 ] } },
{ "type": "Feature", "properties": { "Postcode": "IV2 7ST" }, "geometry": { "type": "Point", "coordinates": [ -4.033161219914158, 57.566224996537841 ] } },
{ "type": "Feature", "properties": { "Postcode": "IV2 7SU" }, "geometry": { "type": "Point", "coordinates": [ -4.035326200230644, 57.56816677414507 ] } },
{ "type": "Feature", "properties": { "Postcode": "IV2 7SW" }, "geometry": { "type": "Point", "coordinates": [ -4.03446259136436, 57.564676615773791 ] } },
{ "type": "Feature", "properties": { "Postcode": "IV2 7SX" }, "geometry": { "type": "Point", "coordinates": [ -4.039730111060444, 57.559910530754181 ] } },
{ "type": "Feature", "properties": { "Postcode": "IV2 7SY" }, "geometry": { "type": "Point", "coordinates": [ -4.035926465035669, 57.56933410705917 ] } },
{ "type": "Feature", "properties": { "Postcode": "IV2 7SZ" }, "geometry": { "type": "Point", "coordinates": [ -4.0361506314566, 57.567659317218919 ] } },
{ "type": "Feature", "properties": { "Postcode": "IV2 7TA" }, "geometry": { "type": "Point", "coordinates": [ -4.144259098187833, 57.488992848691105 ] } },
{ "type": "Feature", "properties": { "Postcode": "IV2 7TB" }, "geometry": { "type": "Point", "coordinates": [ -4.143594472044911, 57.488186498270991 ] } },
{ "type": "Feature", "properties": { "Postcode": "IV2 7TD" }, "geometry": { "type": "Point", "coordinates": [ -4.051707449317701, 57.582627806117628 ] } },
{ "type": "Feature", "properties": { "Postcode": "IV2 7TE" }, "geometry": { "type": "Point", "coordinates": [ -4.071138102654364, 57.584269351362892 ] } },
{ "type": "Feature", "properties": { "Postcode": "IV2 7TG" }, "geometry": { "type": "Point", "coordinates": [ -4.144250854954582, 57.487429568483051 ] } },
{ "type": "Feature", "properties": { "Postcode": "IV2 7TL" }, "geometry": { "type": "Point", "coordinates": [ -4.133270866838157, 57.487975215513657 ] } },
{ "type": "Feature", "properties": { "Postcode": "IV2 7TW" }, "geometry": { "type": "Point", "coordinates": [ -4.137581490723472, 57.484937110960985 ] } },
{ "type": "Feature", "properties": { "Postcode": "IV2 7UB" }, "geometry": { "type": "Point", "coordinates": [ -4.035035403205205, 57.563256768292632 ] } },
{ "type": "Feature", "properties": { "Postcode": "IV2 7UF" }, "geometry": { "type": "Point", "coordinates": [ -4.136746865291033, 57.484358237197668 ] } },
{ "type": "Feature", "properties": { "Postcode": "IV2 7UG" }, "geometry": { "type": "Point", "coordinates": [ -4.033699738811547, 57.563889257529006 ] } },
{ "type": "Feature", "properties": { "Postcode": "IV2 7UH" }, "geometry": { "type": "Point", "coordinates": [ -4.032197484557647, 57.564533398440091 ] } },
{ "type": "Feature", "properties": { "Postcode": "IV2 7UR" }, "geometry": { "type": "Point", "coordinates": [ -3.967291566765929, 57.554582146084847 ] } },
{ "type": "Feature", "properties": { "Postcode": "IV2 7UW" }, "geometry": { "type": "Point", "coordinates": [ -4.140861377353777, 57.481116676240411 ] } },
{ "type": "Feature", "properties": { "Postcode": "IV2 7UX" }, "geometry": { "type": "Point", "coordinates": [ -4.150845093660751, 57.482671911888758 ] } },
{ "type": "Feature", "properties": { "Postcode": "IV2 7UY" }, "geometry": { "type": "Point", "coordinates": [ -4.150074906795192, 57.483475745452544 ] } },
{ "type": "Feature", "properties": { "Postcode": "IV2 7WB" }, "geometry": { "type": "Point", "coordinates": [ -4.135971354519589, 57.488504549114943 ] } },
{ "type": "Feature", "properties": { "Postcode": "IV2 7WG" }, "geometry": { "type": "Point", "coordinates": [ -4.226318547963474, 57.479402961711841 ] } },
{ "type": "Feature", "properties": { "Postcode": "IV2 7WL" }, "geometry": { "type": "Point", "coordinates": [ -4.143381200213552, 57.485117194079756 ] } },
{ "type": "Feature", "properties": { "Postcode": "IV2 7WR" }, "geometry": { "type": "Point", "coordinates": [ -4.136423044398624, 57.493950883902002 ] } },
{ "type": "Feature", "properties": { "Postcode": "IV2 7WS" }, "geometry": { "type": "Point", "coordinates": [ -4.139429492970882, 57.494852340612816 ] } },
{ "type": "Feature", "properties": { "Postcode": "IV2 7WX" }, "geometry": { "type": "Point", "coordinates": [ -4.142357558608536, 57.481028365462976 ] } },
{ "type": "Feature", "properties": { "Postcode": "IV2 7WY" }, "geometry": { "type": "Point", "coordinates": [ -4.141433693181593, 57.480064676294816 ] } },
{ "type": "Feature", "properties": { "Postcode": "IV2 7WZ" }, "geometry": { "type": "Point", "coordinates": [ -4.143665344837158, 57.480287321877292 ] } },
{ "type": "Feature", "properties": { "Postcode": "IV2 7XB" }, "geometry": { "type": "Point", "coordinates": [ -4.070987920513297, 57.541593525293834 ] } },
{ "type": "Feature", "properties": { "Postcode": "IV2 7XL" }, "geometry": { "type": "Point", "coordinates": [ -4.130911664703563, 57.487574834825047 ] } },
{ "type": "Feature", "properties": { "Postcode": "IV2 7YF" }, "geometry": { "type": "Point", "coordinates": [ -4.226318547963474, 57.479402961711841 ] } },
{ "type": "Feature", "properties": { "Postcode": "IV2 7YU" }, "geometry": { "type": "Point", "coordinates": [ -4.142889515489774, 57.483274605073554 ] } },
{ "type": "Feature", "properties": { "Postcode": "IV2 8AB" }, "geometry": { "type": "Point", "coordinates": [ -4.039136682488489, 57.525373360465856 ] } },
{ "type": "Feature", "properties": { "Postcode": "IV2 8AD" }, "geometry": { "type": "Point", "coordinates": [ -4.036136960665944, 57.525790183268299 ] } },
{ "type": "Feature", "properties": { "Postcode": "IV2 8AE" }, "geometry": { "type": "Point", "coordinates": [ -4.036914383697215, 57.525355346582842 ] } },
{ "type": "Feature", "properties": { "Postcode": "IV2 8AF" }, "geometry": { "type": "Point", "coordinates": [ -4.03566706052814, 57.526049341510145 ] } },
{ "type": "Feature", "properties": { "Postcode": "IV2 8AG" }, "geometry": { "type": "Point", "coordinates": [ -4.034750609805228, 57.526387578747034 ] } },
{ "type": "Feature", "properties": { "Postcode": "IV2 8AH" }, "geometry": { "type": "Point", "coordinates": [ -4.035718950721607, 57.526380944325318 ] } },
{ "type": "Feature", "properties": { "Postcode": "IV2 8AJ" }, "geometry": { "type": "Point", "coordinates": [ -4.034089263826173, 57.527108045900405 ] } },
{ "type": "Feature", "properties": { "Postcode": "IV2 8AL" }, "geometry": { "type": "Point", "coordinates": [ -4.036160819070262, 57.526517572389075 ] } },
{ "type": "Feature", "properties": { "Postcode": "IV2 8AN" }, "geometry": { "type": "Point", "coordinates": [ -4.03581505582009, 57.527206001257277 ] } },
{ "type": "Feature", "properties": { "Postcode": "IV2 8AP" }, "geometry": { "type": "Point", "coordinates": [ -4.035211311610544, 57.527161831644854 ] } },
{ "type": "Feature", "properties": { "Postcode": "IV2 8AQ" }, "geometry": { "type": "Point", "coordinates": [ -4.03628730555133, 57.527288229587661 ] } },
{ "type": "Feature", "properties": { "Postcode": "IV2 8AR" }, "geometry": { "type": "Point", "coordinates": [ -4.036594686711254, 57.527409056794546 ] } },
{ "type": "Feature", "properties": { "Postcode": "IV2 8AS" }, "geometry": { "type": "Point", "coordinates": [ -4.036759219876664, 57.527064976142768 ] } },
{ "type": "Feature", "properties": { "Postcode": "IV2 8AU" }, "geometry": { "type": "Point", "coordinates": [ -4.039870659261587, 57.52475950972353 ] } },
{ "type": "Feature", "properties": { "Postcode": "IV2 8AW" }, "geometry": { "type": "Point", "coordinates": [ -4.038879662250936, 57.524658724054589 ] } },
{ "type": "Feature", "properties": { "Postcode": "IV2 8AX" }, "geometry": { "type": "Point", "coordinates": [ -4.038483556507679, 57.525042488891188 ] } },
{ "type": "Feature", "properties": { "Postcode": "IV2 8AY" }, "geometry": { "type": "Point", "coordinates": [ -4.039572815980856, 57.524809249024514 ] } },
{ "type": "Feature", "properties": { "Postcode": "IV2 8AZ" }, "geometry": { "type": "Point", "coordinates": [ -4.040678245746682, 57.524566753201938 ] } },
{ "type": "Feature", "properties": { "Postcode": "IV2 8BA" }, "geometry": { "type": "Point", "coordinates": [ -4.037068263839677, 57.526916229350398 ] } },
{ "type": "Feature", "properties": { "Postcode": "IV2 8BD" }, "geometry": { "type": "Point", "coordinates": [ -4.036911069018321, 57.52679297892562 ] } },
{ "type": "Feature", "properties": { "Postcode": "IV2 8BG" }, "geometry": { "type": "Point", "coordinates": [ -4.038376724909059, 57.524325424991964 ] } },
{ "type": "Feature", "properties": { "Postcode": "IV2 8BH" }, "geometry": { "type": "Point", "coordinates": [ -4.033377829239734, 57.527829316443842 ] } }
]
}
